{"version": 0.6, "generator": "Overpass API 0.7.62.8 e802775f", "osm3s": {"timestamp_osm_base": "2025-11-30T16:00:55Z", "copyright": "The data included in this document is from www.openstreetmap.org. The data is made available under ODbL."}, "elements": [{"type": "node", "id": 1472136337, "lat": 2.9152403, "lon": 101.6508942, "tags": {"amenity": "restaurant", "name": "Al-Naz Maju", "name:ms": "Al-Naz Maju"}}, {"type": "node", "id": 1913510554, "lat": 2.9227958, "lon": 101.6827524, "tags": {"amenity": "restaurant", "name": "Umai Cafe", "name:en": "Umai Cafe"}}, {"type": "node", "id": 2989637504, "lat": 2.9208397, "lon": 101.6591135}, {"type": "node", "id": 2989637506, "lat": 2.9204434, "lon": 101.6592849}, {"type": "node", "id": 2989637512, "lat": 2.920839, "lon": 101.6592956}, {"type": "node", "id": 2989638879, "lat": 2.9209035, "lon": 101.6592959}, {"type": "node", "id": 2989638880, "lat": 2.9209042, "lon": 101.6591137}, {"type": "node", "id": 2989638882, "lat": 2.9204459, "lon": 101.6591068}, {"type": "node", "id": 2989638898, "lat": 2.9203761, "lon": 101.6592841}, {"type": "node", "id": 2989638914, "lat": 2.9203786, "lon": 101.6591059}, {"type": "node", "id": 2993408666, "lat": 2.9213022, "lon": 101.6568753}, {"type": "node", "id": 2993408671, "lat": 2.9212765, "lon": 101.656996}, {"type": "node", "id": 2993408691, "lat": 2.9214358, "lon": 101.6565977}, {"type": "node", "id": 2993408694, "lat": 2.9212789, "lon": 101.6570376}, {"type": "node", "id": 2993408712, "lat": 2.9212265, "lon": 101.6566264}, {"type": "node", "id": 2993408724, "lat": 2.9212153, "lon": 101.6565439}, {"type": "node", "id": 2993408725, "lat": 2.9214457, "lon": 101.6568692}, {"type": "node", "id": 2993408726, "lat": 2.9211839, "lon": 101.6565482}, {"type": "node", "id": 2993408965, "lat": 2.9211591, "lon": 101.6563663}, {"type": "node", "id": 2993408982, "lat": 2.9211299, "lon": 101.6569739}, {"type": "node", "id": 2993408994, "lat": 2.9212251, "lon": 101.656999}, {"type": "node", "id": 2993408999, "lat": 2.9214219, "lon": 101.656496}, {"type": "node", "id": 2993409014, "lat": 2.9214547, "lon": 101.6564317}, {"type": "node", "id": 2993409015, "lat": 2.9214135, "lon": 101.6564374}, {"type": "node", "id": 2993409017, "lat": 2.9213072, "lon": 101.6569947}, {"type": "node", "id": 2993409021, "lat": 2.9214627, "lon": 101.6564904}, {"type": "node", "id": 2993409022, "lat": 2.9211373, "lon": 101.6569656}, {"type": "node", "id": 2993409025, "lat": 2.9212234, "lon": 101.6569685}, {"type": "node", "id": 2993409027, "lat": 2.9214525, "lon": 101.6570296}, {"type": "node", "id": 2993409052, "lat": 2.9212638, "lon": 101.6563484}, {"type": "node", "id": 2993409062, "lat": 2.9211529, "lon": 101.6563205}, {"type": "node", "id": 2993409066, "lat": 2.9213273, "lon": 101.6563397}, {"type": "node", "id": 2993409075, "lat": 2.9213303, "lon": 101.6563617}, {"type": "node", "id": 2993409079, "lat": 2.9212356, "lon": 101.6570799}, {"type": "node", "id": 2993409082, "lat": 2.9209357, "lon": 101.6569773}, {"type": "node", "id": 2993409087, "lat": 2.9212333, "lon": 101.6570402}, {"type": "node", "id": 2993409092, "lat": 2.921258, "lon": 101.6563061}, {"type": "node", "id": 2993409098, "lat": 2.9214018, "lon": 101.6563519}, {"type": "node", "id": 2993409108, "lat": 2.9209427, "lon": 101.657097}, {"type": "node", "id": 2996283893, "lat": 2.9194363, "lon": 101.6663499}, {"type": "node", "id": 2996286926, "lat": 2.9193982, "lon": 101.6664724}, {"type": "node", "id": 2996287041, "lat": 2.9194416, "lon": 101.6664745}, {"type": "node", "id": 2996287062, "lat": 2.9192835, "lon": 101.6661929}, {"type": "node", "id": 2996287082, "lat": 2.919455, "lon": 101.6662144}, {"type": "node", "id": 2996287118, "lat": 2.919396, "lon": 101.6665201}, {"type": "node", "id": 2996287134, "lat": 2.9192621, "lon": 101.666504}, {"type": "node", "id": 2996287146, "lat": 2.9194528, "lon": 101.6664197}, {"type": "node", "id": 3747300579, "lat": 2.9004217, "lon": 101.669734, "tags": {"amenity": "restaurant"}}, {"type": "node", "id": 4488395404, "lat": 2.9186698, "lon": 101.6314496, "tags": {"amenity": "restaurant", "name": "Restaurant Erra", "name:en": "Restaurant Erra"}}, {"type": "node", "id": 4906371331, "lat": 2.896161, "lon": 101.6797268, "tags": {"addr:city": "Putrajaya", "amenity": "restaurant", "cuisine": "malay;seafood", "name": "Ikan Bakar Seri Empangan Putrajaya", "name:ms": "Ikan Bakar Seri Empangan Putrajaya"}}, {"type": "node", "id": 4911813026, "lat": 2.9261563, "lon": 101.6784948, "tags": {"addr:city": "Putrajaya", "addr:place": "ayer@8 Presint 8", "amenity": "restaurant", "cuisine": "thai;malay", "name": "Restoran Medina", "name:ms": "Restoran Medina"}}, {"type": "node", "id": 4911813029, "lat": 2.9258292, "lon": 101.6789241, "tags": {"addr:city": "Putrajaya", "addr:place": "ayer@8 Presint 8", "amenity": "restaurant", "cuisine": "mamak", "name": "Shahnaz Maju", "name:ms": "Shahnaz Maju", "opening_hours": "24/7"}}, {"type": "node", "id": 4911813031, "lat": 2.925019, "lon": 101.6805456, "tags": {"addr:city": "Putrajaya", "addr:place": "ayer@8 Presint 8", "amenity": "restaurant", "brand": "PappaRich", "brand:wikidata": "Q95721282", "cuisine": "malaysian", "name": "PappaRich", "wheelchair": "yes"}}, {"type": "node", "id": 5027680921, "lat": 2.9249185, "lon": 101.6510787, "tags": {"amenity": "restaurant", "cuisine": "pakistani", "name": "Traskun Pakistani Restaurant", "name:en": "Traskun Pakistani Restaurant"}}, {"type": "node", "id": 5565626150, "lat": 2.926043, "lon": 101.6514399, "tags": {"air_conditioning": "yes", "amenity": "restaurant", "bar": "no", "cuisine": "chinese", "delivery": "yes", "diet:halal": "yes", "highchair": "no", "level": "0", "name": "Salam Noodles", "name:en": "Salam Noodles", "outdoor_seating": "yes", "takeaway": "yes", "toilets": "yes"}}, {"type": "node", "id": 5565626151, "lat": 2.9263693, "lon": 101.6510533, "tags": {"amenity": "restaurant", "name": "Sultan Cuisine Restaurant", "name:en": "Sultan Cuisine Restaurant"}}, {"type": "node", "id": 5565638651, "lat": 2.9229127, "lon": 101.6513286, "tags": {"amenity": "restaurant", "name": "Sabaa Restaurant"}}, {"type": "node", "id": 6557042814, "lat": 2.9206692, "lon": 101.6381612, "tags": {"amenity": "restaurant", "name": "Padi House Cafeteria and Deli Cafe", "name:en": "Padi House Cafeteria and Deli Cafe"}}, {"type": "node", "id": 6593977644, "lat": 2.9255414, "lon": 101.6792852, "tags": {"amenity": "restaurant", "name": "Royale Nasi Kandar", "name:ms": "Royale Nasi Kandar", "wheelchair": "yes"}}, {"type": "node", "id": 7599158485, "lat": 2.9086838, "lon": 101.6476927, "tags": {"amenity": "restaurant"}}, {"type": "node", "id": 7602728987, "lat": 2.9190949, "lon": 101.6523096, "tags": {"amenity": "restaurant", "name": "Warung Abe", "name:ms": "Warung Abe"}}, {"type": "node", "id": 7602771285, "lat": 2.9011142, "lon": 101.631109, "tags": {"amenity": "restaurant", "name": "Deen Maju", "name:ms": "Deen Maju"}}, {"type": "node", "id": 7657327580, "lat": 2.9319927, "lon": 101.680973, "tags": {"amenity": "restaurant", "brand": "Pizza Hut", "brand:wikidata": "Q191615", "brand:wikipedia": "en:Pizza Hut", "cuisine": "pizza", "name": "Pizza Hut", "source": "https://openstreetcam.org/details/2037750/43"}}, {"type": "node", "id": 8005361834, "lat": 2.9389828, "lon": 101.6827176, "tags": {"amenity": "restaurant", "name": "Nasi Kandar Al-Maju", "name:ms": "Nasi Kandar Al-Maju"}}, {"type": "node", "id": 8237427639, "lat": 2.9407547, "lon": 101.6754897, "tags": {"amenity": "restaurant", "cuisine": "noodle", "name": "Mee Rebus Johor", "name:ms": "Mee Rebus Johor", "opening_hours": "Mo-Su 07:30-21:30"}}, {"type": "node", "id": 9591578068, "lat": 2.928627, "lon": 101.653911, "tags": {"addr:city": "Cyberjaya", "addr:postcode": "63000", "addr:state": "Selangor", "amenity": "restaurant", "cuisine": "chinese", "name": "Nam Heong Ipoh", "name:en": "Nam Heong Ipoh"}}, {"type": "node", "id": 9591993029, "lat": 2.9153546, "lon": 101.6498204, "tags": {"amenity": "restaurant", "cuisine": "pakistani;arab", "name": "Mr. Kabab & Biryani", "name:ms": "Mr. Kabab & Biryani"}}, {"type": "node", "id": 9592334817, "lat": 2.9245607, "lon": 101.6560139, "tags": {"amenity": "restaurant", "name": "Nasi Kandar Pelita", "name:ms": "Nasi Kandar Pelita"}}, {"type": "node", "id": 9592334818, "lat": 2.9260832, "lon": 101.655643, "tags": {"amenity": "restaurant", "name": "Chennai Spice", "name:en": "Chennai Spice"}}, {"type": "node", "id": 9593522217, "lat": 2.9263007, "lon": 101.6561552, "tags": {"amenity": "restaurant", "name": "Restaurant All in All", "name:en": "Restaurant All in All"}}, {"type": "node", "id": 9613050435, "lat": 2.922944, "lon": 101.6516362, "tags": {"amenity": "restaurant", "cuisine": "arab;pakistani", "level": "0", "name": "Safaa Restaurant", "name:en": "Safaa Restaurant"}}, {"type": "node", "id": 11273571752, "lat": 2.921322, "lon": 101.657011, "tags": {"amenity": "restaurant", "name": "Corner 23", "name:en": "Corner 23"}}, {"type": "node", "id": 11273571753, "lat": 2.9213732, "lon": 101.6569905, "tags": {"amenity": "restaurant", "name": "Power Stall", "name:en": "Power Stall"}}, {"type": "node", "id": 11338185208, "lat": 2.9258199, "lon": 101.6514342, "tags": {"amenity": "restaurant", "cuisine": "regional", "diet:halal": "yes", "name": "Sifu Salai"}}, {"type": "node", "id": 11338230394, "lat": 2.9262326, "lon": 101.6514275, "tags": {"addr:city": "Cyberjaya", "amenity": "restaurant", "cuisine": "chinese", "diet:halal": "yes", "level": "0", "name": "Mr Mee Authentic Xinjiang Cuisine Chinese Muslim Restaurant"}}, {"type": "node", "id": 11338230395, "lat": 2.9263155, "lon": 101.6514201, "tags": {"addr:city": "Cyberjaya", "amenity": "restaurant", "level": "0", "name": "Ayam Getok Mantul"}}, {"type": "node", "id": 11640545613, "lat": 2.924455, "lon": 101.6566279, "tags": {"addr:housenumber": "D-G-6", "addr:street": "Jalan GC 7", "amenity": "restaurant", "name": "Restoran Fu Jee Ulu Yam Loh Mee - Cyberjaya \u5bcc\u8bb0\u6b63\u5b97\u798f\u5efa\u4e4c\u9c81\u97f3\u5364\u9762"}}, {"type": "node", "id": 12194025766, "lat": 2.9253933, "lon": 101.6510565, "tags": {"addr:city": "Cyberjaya", "addr:postcode": "63000", "air_conditioning": "yes", "amenity": "restaurant", "cuisine": "seafood", "diet:halal": "yes", "indoor_seating": "yes", "name": "Zam Ikan Bakar", "outdoor_seating": "yes", "payment:cash": "yes", "payment:contactless": "yes"}}, {"type": "node", "id": 12194025767, "lat": 2.9252221, "lon": 101.6510515, "tags": {"addr:city": "Cyberjaya", "addr:postcode": "63000", "amenity": "restaurant", "name": "Nasi Kukus Papa"}}, {"type": "node", "id": 12194025768, "lat": 2.9248394, "lon": 101.6510817, "tags": {"addr:city": "Cyberjaya", "addr:postcode": "63000", "amenity": "restaurant", "cuisine": "malaysian", "diet:halal": "yes", "name": "Makang"}}, {"type": "node", "id": 12194813654, "lat": 2.9468746, "lon": 101.6709027, "tags": {"amenity": "restaurant"}}, {"type": "node", "id": 12265757357, "lat": 2.9211687, "lon": 101.6368844, "tags": {"amenity": "restaurant", "name": "Chopsticks @ Cyberjaya"}}, {"type": "node", "id": 12265757359, "lat": 2.9211629, "lon": 101.6366641, "tags": {"amenity": "restaurant", "name": "Murni Discovery"}}, {"type": "node", "id": 12697954037, "lat": 2.915702, "lon": 101.6494371, "tags": {"addr:block": "Neo Cyber Block M", "addr:city": "Cyberjaya", "addr:housenumber": "M-G-95 & 96", "addr:place": "Biz Avenue 2", "addr:postcode": "63000", "addr:street": "Lingkaran Cyber Point Barat", "amenity": "restaurant", "check_date": "2025-03-25", "name": "Famous Bistro Cafe 2", "phone": "+60 3-8320 5357; +60 12-898 6634"}}, {"type": "node", "id": 12714049173, "lat": 2.9229169, "lon": 101.6512434, "tags": {"addr:city": "Cyberjaya", "addr:housenumber": "Unit 4800-0-1", "addr:postcode": "63000", "addr:section": "Cyber 12", "addr:street": "Off Persiaran Multimedia", "amenity": "restaurant", "cuisine": "mamak", "name": "Cube Bistro"}}, {"type": "node", "id": 12945825801, "lat": 2.9234323, "lon": 101.6372623, "tags": {"amenity": "restaurant", "name": "Aldar Lounge"}}, {"type": "node", "id": 12945825901, "lat": 2.9257796, "lon": 101.6510244, "tags": {"amenity": "restaurant", "name": "Barakat Hotpot"}}, {"type": "node", "id": 13334960216, "lat": 2.9241737, "lon": 101.6562599, "tags": {"addr:city": "Cyberjaya", "addr:housenumber": "No 1, Blok E", "addr:place": "Cyber 12", "addr:postcode": "63200", "addr:street": "Jalan GC 4", "amenity": "restaurant", "check_date": "2025-11-27", "cuisine": "chinese", "name": "Face To Face Noodle House", "operator": "JS Bestfood Sdn Bhd", "phone": "+60 3-8322 1652"}}, {"type": "way", "id": 295261440, "nodes": [2989638880, 2989637504, 2989637512, 2989638879, 2989638880], "tags": {"addr:housenumber": "1", "addr:street": "Cottage Walk", "amenity": "restaurant", "building": "yes", "building:levels": "2", "name": "Man Ayam Kampung", "name:ms": "Restoran JS Maju"}}, {"type": "way", "id": 295261451, "nodes": [2989638882, 2989638914, 2989638898, 2989637506, 2989638882], "tags": {"addr:street": "Cottage Walk", "amenity": "restaurant", "building": "yes", "name": "Ketam Manis"}}, {"type": "way", "id": 295600768, "nodes": [2993409022, 2993408982, 2993409025, 2993408994, 2993408671, 2993408694, 2993409087, 2993409079, 2993409108, 2993409082, 2993409022], "tags": {"amenity": "restaurant", "building": "yes", "cuisine": "asian", "name": "Padi House", "name:en": "Padi House"}}, {"type": "way", "id": 295600775, "nodes": [2993408725, 2993408666, 2993409017, 2993408671, 2993408694, 2993409027, 2993408725], "tags": {"amenity": "restaurant", "building": "yes", "cuisine": "asian", "name": "NakNak", "name:en": "The Walk"}}, {"type": "way", "id": 295600781, "nodes": [2993408691, 2993408712, 2993408724, 2993408726, 2993408965, 2993409062, 2993409092, 2993409052, 2993409066, 2993409075, 2993409098, 2993409015, 2993409014, 2993409021, 2993408999, 2993408691], "tags": {"amenity": "restaurant", "building": "yes", "cuisine": "asian", "name": "Kitchen Village", "name:en": "Kitchen Village"}}, {"type": "way", "id": 295865865, "nodes": [2996287082, 2996287062, 2996287134, 2996287118, 2996286926, 2996287041, 2996287146, 2996283893, 2996287082], "tags": {"amenity": "restaurant", "building": "yes", "cuisine": "regional", "name": "Nyonya Valley Restaurant", "name:en": "Nyonya Valley Restaurant"}}]}