{"version": 0.6, "generator": "Overpass API 0.7.62.8 e802775f", "osm3s": {"timestamp_osm_base": "2025-11-30T15:59:51Z", "copyright": "The data included in this document is from www.openstreetmap.org. The data is made available under ODbL."}, "elements": [{"type": "node", "id": 346206046, "lat": 3.0787862, "lon": 101.5944274, "tags": {"addr:street": "Jalan SS12/1B", "amenity": "restaurant", "cuisine": "japanese", "is_in": "SS12, Subang Jaya, Selangor, Malaysia", "name": "Shun"}}, {"type": "node", "id": 346206057, "lat": 3.0787835, "lon": 101.5945589, "tags": {"addr:street": "Jalan SS12/1B", "amenity": "restaurant", "cuisine": "western", "is_in": "SS12, Subang Jaya, Selangor, Malaysia", "name": "Food Lodge"}}, {"type": "node", "id": 346206061, "lat": 3.0787861, "lon": 101.5947238, "tags": {"addr:street": "Jalan SS12/1B", "amenity": "restaurant", "cuisine": "mamak", "is_in": "SS12, Subang Jaya, Selangor, Malaysia", "name": "Taj Curry House"}}, {"type": "node", "id": 346206067, "lat": 3.0787902, "lon": 101.5949156, "tags": {"addr:street": "Jalan SS12/1B", "amenity": "restaurant", "cuisine": "malaysian", "is_in": "SS12, Subang Jaya, Selangor, Malaysia", "name": "Bawang Merah"}}, {"type": "node", "id": 346206072, "lat": 3.0787875, "lon": 101.5949572, "tags": {"addr:street": "Jalan SS12/1B", "amenity": "restaurant", "cuisine": "italian", "is_in": "SS12, Subang Jaya, Selangor, Malaysia", "name": "Pizzeria Bella Italia"}}, {"type": "node", "id": 1210096932, "lat": 3.0727961, "lon": 101.5840101}, {"type": "node", "id": 1210097021, "lat": 3.0726005, "lon": 101.5840101}, {"type": "node", "id": 1349435121, "lat": 3.076283, "lon": 101.5898842, "tags": {"amenity": "restaurant", "name": "mo-ka-ta"}}, {"type": "node", "id": 1761225094, "lat": 3.0777947, "lon": 101.589911, "tags": {"amenity": "restaurant", "name": "Sinbad"}}, {"type": "node", "id": 1761225097, "lat": 3.0781829, "lon": 101.5885475, "tags": {"amenity": "restaurant", "name": "Q Bistro"}}, {"type": "node", "id": 1761225100, "lat": 3.0766656, "lon": 101.5865853, "tags": {"amenity": "restaurant", "name": "Nasi Kandar Pelita", "name:ms": "Nasi Kandar Pelita"}}, {"type": "node", "id": 2211009080, "lat": 3.0681304, "lon": 101.5934569}, {"type": "node", "id": 2211009169, "lat": 3.068208, "lon": 101.5937358}, {"type": "node", "id": 2211009279, "lat": 3.0683097, "lon": 101.5935218}, {"type": "node", "id": 2211009281, "lat": 3.0683098, "lon": 101.5934596}, {"type": "node", "id": 2211009349, "lat": 3.0681246, "lon": 101.5937412}, {"type": "node", "id": 2211009473, "lat": 3.068208, "lon": 101.5936688}, {"type": "node", "id": 2211009499, "lat": 3.0683148, "lon": 101.5936554}, {"type": "node", "id": 2849817025, "lat": 3.0727273, "lon": 101.5896685, "tags": {"addr:housenumber": "74", "addr:postcode": "47500", "addr:street": "Jalan SS14/2", "amenity": "restaurant", "cuisine": "chinese", "name": "Well Cook Gourmet"}}, {"type": "node", "id": 2849817347, "lat": 3.0727327, "lon": 101.589529, "tags": {"amenity": "restaurant", "cuisine": "chinese", "name": "New Ting Ho"}}, {"type": "node", "id": 3505735461, "lat": 3.0737595, "lon": 101.5855549, "tags": {"addr:city": "Subang Jaya", "addr:housenumber": "7343", "addr:postcode": "47500", "addr:street": "Jalan SS 17/2", "amenity": "restaurant", "capacity": "750", "cuisine": "chinese", "delivery": "no", "name": "Imperial China Restaurant (Subang Jaya)", "name:en": "Imperial China Restaurant (Subang Jaya)", "opening_hours": "Mo-Sa 11:30-14:30,18:00-22:30; Su 9:30-14:30,18:00-22:30; PH 9:30-14:30,18:00-22:30"}}, {"type": "node", "id": 3511624921, "lat": 3.0727309, "lon": 101.5892879, "tags": {"amenity": "restaurant", "cuisine": "chinese", "name": "Restoran Wong Soon Kee"}}, {"type": "node", "id": 3586851510, "lat": 3.0774286, "lon": 101.5878284}, {"type": "node", "id": 3586851511, "lat": 3.0774285, "lon": 101.5880463}, {"type": "node", "id": 3586851558, "lat": 3.0780312, "lon": 101.5878286}, {"type": "node", "id": 3586851559, "lat": 3.0780311, "lon": 101.5880466}, {"type": "node", "id": 5506074223, "lat": 3.0761079, "lon": 101.589719, "tags": {"addr:housenumber": "47", "addr:postcode": "47500", "addr:street": "SS 15/4", "amenity": "restaurant", "cuisine": "chicken;asian", "indoor_seating": "yes", "name": "Lim Fried Chicken", "opening_hours": "Mo-Su 10:00-21:00", "outdoor_seating": "no", "phone": "0199966789"}}, {"type": "node", "id": 5549260680, "lat": 3.082777, "lon": 101.5877212, "tags": {"amenity": "restaurant", "brand": "Sushi King", "cuisine": "sushi;japanese", "name": "Sushi King", "name:en": "Sushi King"}}, {"type": "node", "id": 5549409945, "lat": 3.0775818, "lon": 101.5866731, "tags": {"amenity": "restaurant", "cuisine": "hotpot", "name": "Fei Fan Hotpot", "name:zh": "\u98db\u51e1\u706b\u934b"}}, {"type": "node", "id": 5751792122, "lat": 3.0728562, "lon": 101.5884375, "tags": {"addr:housenumber": "14", "addr:postcode": "47500", "addr:street": "Jalan SS14/1", "amenity": "restaurant", "cuisine": "chinese", "name": "Xin Chin San (PJ Branch)", "opening_hours": "Su-Th 16:30-01:00; Fr-Sa 16:30-01:30"}}, {"type": "node", "id": 5767818153, "lat": 3.0740397, "lon": 101.5872959, "tags": {"addr:street": "SS15/8a", "amenity": "restaurant", "cuisine": "indian;malaysian", "name": "Silva Tandoori Corner", "name:en": "Silva Tandoori Corner", "phone": "56322429"}}, {"type": "node", "id": 6280402050, "lat": 3.074065, "lon": 101.5893609, "tags": {"amenity": "restaurant", "brand": "Pizza Hut", "brand:wikidata": "Q191615", "brand:wikipedia": "en:Pizza Hut", "cuisine": "pizza", "name": "Pizza Hut", "outdoor_seating": "no"}}, {"type": "node", "id": 6280402051, "lat": 3.0740597, "lon": 101.5888245, "tags": {"amenity": "restaurant", "cuisine": "noodle", "name": "Chilly Pan Mee", "name:en": "Chilly Pan Mee"}}, {"type": "node", "id": 6280434507, "lat": 3.0750038, "lon": 101.5867343, "tags": {"amenity": "restaurant", "cuisine": "chinese", "diet:halal": "yes", "name": "Mee Tarik Jalan Sultan SS15"}}, {"type": "node", "id": 6285642356, "lat": 3.0752971, "lon": 101.586596, "tags": {"addr:housenumber": "2", "addr:postcode": "47500", "addr:street": "Jalan SS 15/4", "amenity": "restaurant", "level": "0;1;2", "name": "Canai Cafe", "name:en": "Canai Cafe", "outdoor_seating": "yes"}}, {"type": "node", "id": 7095078885, "lat": 3.072851, "lon": 101.590866, "tags": {"addr:postcode": "47500", "addr:street": "Jalan SS14/2", "amenity": "restaurant", "name": "Good Taste Restaurant", "opening_hours": "Mo-Su 07:00-21:00"}}, {"type": "node", "id": 8260924704, "lat": 3.0706701, "lon": 101.5968933, "tags": {"amenity": "restaurant", "cuisine": "chinese", "name": "Restoran SS13 New Sea View", "name:zh": "\u65b0\u6d77\u666f\u9910\u9986", "source": "https://openstreetcam.org/details/2836482/2051"}}, {"type": "node", "id": 10041169710, "lat": 3.0815878, "lon": 101.591009, "tags": {"addr:housenumber": "121", "addr:street": "Jalan SS 15/5A", "amenity": "restaurant", "name": "Silva\u2019s Curry House"}}, {"type": "node", "id": 10041169711, "lat": 3.0813238, "lon": 101.592664, "tags": {"addr:housenumber": "79", "addr:street": "Jalan SS 15/5A", "amenity": "restaurant", "cuisine": "italian", "name": "Amici Ristorante Italiano"}}, {"type": "node", "id": 10041169712, "lat": 3.0806554, "lon": 101.5926621, "tags": {"addr:housenumber": "57", "addr:street": "Jalan SS 15/5A", "amenity": "restaurant", "cuisine": "japanese", "name": "Tai Syou"}}, {"type": "node", "id": 10291047132, "lat": 3.0814339, "lon": 101.587799}, {"type": "node", "id": 10291047133, "lat": 3.0816026, "lon": 101.5877994}, {"type": "node", "id": 10291047134, "lat": 3.0814337, "lon": 101.5878587}, {"type": "node", "id": 10291047135, "lat": 3.0816025, "lon": 101.5878591}, {"type": "node", "id": 10311205160, "lat": 3.0779709, "lon": 101.5880465}, {"type": "node", "id": 10311205161, "lat": 3.077971, "lon": 101.5878286}, {"type": "node", "id": 10311205166, "lat": 3.0777901, "lon": 101.5880465}, {"type": "node", "id": 10311205167, "lat": 3.0777902, "lon": 101.5878285}, {"type": "node", "id": 10311205168, "lat": 3.0777298, "lon": 101.5880464}, {"type": "node", "id": 10311205169, "lat": 3.0777299, "lon": 101.5878285}, {"type": "node", "id": 10311205170, "lat": 3.0776696, "lon": 101.5880464}, {"type": "node", "id": 10311205171, "lat": 3.0776697, "lon": 101.5878285}, {"type": "node", "id": 10311205176, "lat": 3.0774888, "lon": 101.5880463}, {"type": "node", "id": 10311205177, "lat": 3.0774889, "lon": 101.5878284}, {"type": "node", "id": 10669067870, "lat": 3.0726005, "lon": 101.584132}, {"type": "node", "id": 10669067871, "lat": 3.0727961, "lon": 101.584132}, {"type": "node", "id": 10669067872, "lat": 3.0726005, "lon": 101.5840711}, {"type": "node", "id": 10669067873, "lat": 3.0727961, "lon": 101.584071}, {"type": "node", "id": 11051540436, "lat": 3.0726014, "lon": 101.5839411}, {"type": "node", "id": 11051540437, "lat": 3.072797, "lon": 101.5839438}, {"type": "node", "id": 11372646902, "lat": 3.0757728, "lon": 101.5872569, "tags": {"addr:housenumber": "25", "addr:street": "Jalan SS 15/4B", "amenity": "restaurant", "name": "Jibril"}}, {"type": "node", "id": 11591291762, "lat": 3.0822137, "lon": 101.5851866, "tags": {"amenity": "restaurant", "brand": "Nando's", "brand:wikidata": "Q3472954", "cuisine": "chicken;portuguese", "level": "-1", "name": "Nando's"}}, {"type": "node", "id": 12244444910, "lat": 3.0750033, "lon": 101.5870029, "tags": {"addr:housenumber": "26", "addr:postcode": "47500", "addr:street": "Jalan SS 15/8B", "amenity": "restaurant", "cuisine": "malaysian", "name": "Nasi Lemak Burung Hantu", "opening_hours": "Mo-Su 12:00-04:00", "phone": "+60 133142808"}}, {"type": "node", "id": 12244765010, "lat": 3.0745554, "lon": 101.5869589, "tags": {"addr:housenumber": "10", "addr:street": "Jalan SS 15/8B", "amenity": "restaurant", "cuisine": "indonesian", "level": "0;1", "name": "Wartek"}}, {"type": "node", "id": 12452549480, "lat": 3.0820226, "lon": 101.5826974, "tags": {"addr:city": "Subang Jaya", "addr:housenumber": "LG-21, Level Lower Ground", "addr:postcode": "47500", "addr:street": "Nu Empire, Jalan SS 16/1, Ss 16", "amenity": "restaurant", "cuisine": "malaysian", "diet:pork-free": "yes", "name": "De'massak", "opening_hours": "Mo-Su 11:00-21:00", "phone": "01117939964", "website": "https://www.facebook.com/profile.php?id=61563467978384"}}, {"type": "node", "id": 12535608165, "lat": 3.0821719, "lon": 101.5829554, "tags": {"addr:city": "Subang Jaya", "addr:housenumber": "47500", "addr:street": "Jalan SS 16/1", "amenity": "restaurant", "fax": "+603 5565 1288", "level": "1", "name": "Kitchen Art Brasserie", "opening_hours": "06:30-00:00", "phone": "+603 5565 1388"}}, {"type": "node", "id": 12675779251, "lat": 3.0681261, "lon": 101.5936678}, {"type": "node", "id": 13023053416, "lat": 3.0824259, "lon": 101.5875708, "tags": {"addr:city": "Subang Jaya", "addr:housenumber": "F1 24 & 25", "addr:postcode": "47500", "addr:street": "Aeon Big, Jalan Kemajuan, SS16", "amenity": "restaurant", "cuisine": "south_indian;indian", "name": "India Gate Restaurant", "opening_hours": "Mo-Su 11:00-23:00"}}, {"type": "node", "id": 13023115170, "lat": 3.0772319, "lon": 101.5878691, "tags": {"addr:city": "Subang Jaya", "addr:housenumber": "43", "addr:postcode": "47500", "addr:street": "Jalan SS 15/4E", "amenity": "restaurant", "cuisine": "chinese", "name": "Gao Ren Guan", "name:zh": "\u9ad8\u4eba\u9986"}}, {"type": "node", "id": 13023115177, "lat": 3.0771053, "lon": 101.5874329, "tags": {"addr:city": "Subang Jaya", "addr:housenumber": "29", "addr:postcode": "47500", "addr:street": "Jalan SS 15/4E", "amenity": "restaurant", "cuisine": "chinese;noodle", "name": "Eng Teck Hokkien Mee", "name:zh": "\u65b0\u9752\u5c71\u798f\u5efa\u9762"}}, {"type": "node", "id": 13023115179, "lat": 3.0771198, "lon": 101.5873148, "tags": {"addr:city": "Subang Jaya", "addr:housenumber": "27", "addr:postcode": "47500", "addr:street": "Jalan SS 15/4E", "amenity": "restaurant", "diet:halal": "yes", "name": "Nasi Kandar Restoran Alisha Maju"}}, {"type": "node", "id": 13023361678, "lat": 3.0771281, "lon": 101.5865938, "tags": {"addr:city": "Subang Jaya", "addr:housenumber": "3", "addr:postcode": "47500", "addr:street": "Jalan SS 15/4E", "amenity": "restaurant", "cuisine": "chinese;noodle", "name": "Northern Village Noodles"}}, {"type": "node", "id": 13023361679, "lat": 3.0771315, "lon": 101.586716, "tags": {"addr:city": "Subang Jaya", "addr:housenumber": "7", "addr:postcode": "47500", "addr:street": "Jalan SS 15/4E", "amenity": "restaurant", "cuisine": "chinese", "name": "ah Muk Cha Chaan Teng"}}, {"type": "node", "id": 13023361682, "lat": 3.0774551, "lon": 101.5865126, "tags": {"amenity": "restaurant", "cuisine": "chinese;noodle", "name": "Omega Pork Noodle"}}, {"type": "node", "id": 13023361684, "lat": 3.0774909, "lon": 101.5867757, "tags": {"amenity": "restaurant", "cuisine": "korean;dessert;ice_cream", "name": "Hanbing Korean Dessert Cafe (Subang Jaya)"}}, {"type": "node", "id": 13023361685, "lat": 3.0780411, "lon": 101.5864729, "tags": {"amenity": "restaurant", "cuisine": "chinese;dim_sum;cantonese", "diet:halal": "yes", "name": "Canton Boy @ SS15 Courtyard"}}, {"type": "node", "id": 13023361687, "lat": 3.077992, "lon": 101.5866893, "tags": {"amenity": "restaurant", "cuisine": "malaysian", "name": "nasi lemak shop."}}, {"type": "node", "id": 13025690386, "lat": 3.078207, "lon": 101.5864328, "tags": {"amenity": "restaurant", "cuisine": "japanese", "name": "Rakuzen SS15 Courtyard"}}, {"type": "node", "id": 13025890980, "lat": 3.0761788, "lon": 101.5883401, "tags": {"amenity": "restaurant", "cuisine": "chinese", "name": "Signature Noodle Noodle"}}, {"type": "node", "id": 13025890982, "lat": 3.0759705, "lon": 101.5875006, "tags": {"amenity": "restaurant", "cuisine": "seafood", "name": "Shen Heong Seafood Restaurant"}}, {"type": "node", "id": 13026280931, "lat": 3.0744391, "lon": 101.5867612, "tags": {"amenity": "restaurant", "cuisine": "asian;malaysian", "diet:pork-free": "yes", "name": "Restoran Gold Chilli"}}, {"type": "node", "id": 13026280932, "lat": 3.0743311, "lon": 101.5867666, "tags": {"amenity": "restaurant", "diet:halal": "yes", "name": "Restoran Darussalam Subang Jaya"}}, {"type": "node", "id": 13026286442, "lat": 3.0764334, "lon": 101.5865032, "tags": {"amenity": "restaurant", "cuisine": "malaysian", "name": "Ali, Muthu & Ah Hock"}}, {"type": "node", "id": 13026286443, "lat": 3.076445, "lon": 101.5865863, "tags": {"amenity": "restaurant", "cuisine": "arab", "diet:halal": "yes", "name": "Restoran Al Shamiah \u2022 SS15"}}, {"type": "node", "id": 13026286445, "lat": 3.0764486, "lon": 101.5866945, "tags": {"amenity": "restaurant", "cuisine": "barbecue;thai", "name": "the pink elephant Thai BBQ & Steamboat (Subang Jaya Branch)"}}, {"type": "node", "id": 13026286447, "lat": 3.0766885, "lon": 101.5867693, "tags": {"amenity": "restaurant", "name": "SHI GUANG Kopitiam"}}, {"type": "node", "id": 13026286448, "lat": 3.0766874, "lon": 101.5867023, "tags": {"amenity": "restaurant", "name": "Moonalisa"}}, {"type": "node", "id": 13026286449, "lat": 3.0766884, "lon": 101.5868358, "tags": {"amenity": "restaurant", "cuisine": "noodle", "name": "Beef Bowl SS15"}}, {"type": "node", "id": 13026286450, "lat": 3.0766975, "lon": 101.5869538, "tags": {"amenity": "restaurant", "cuisine": "chinese", "name": "Luckin Kitchen SS15", "name:zh": "\u5916\u5a46\u5bb6\u4e2d\u9910\u9986"}}, {"type": "node", "id": 13026286453, "lat": 3.0772588, "lon": 101.5883184, "tags": {"amenity": "restaurant", "cuisine": "korean", "name": "Jang Sa Jang Deopbap Restaurant"}}, {"type": "node", "id": 13026286454, "lat": 3.0774601, "lon": 101.5883231, "tags": {"amenity": "restaurant", "cuisine": "thai", "name": "Soi 55 Thai Kitchen \u2022 SS15 Subang Jaya"}}, {"type": "node", "id": 13026286463, "lat": 3.0757426, "lon": 101.5905204, "tags": {"amenity": "restaurant", "cuisine": "chinese", "name": "SJ Delicious Chinese Dish Restaurant"}}, {"type": "node", "id": 13026286465, "lat": 3.0759777, "lon": 101.59051, "tags": {"amenity": "restaurant", "cuisine": "korean;barbecue", "name": "Brothers"}}, {"type": "node", "id": 13026286477, "lat": 3.073758, "lon": 101.5902077, "tags": {"amenity": "restaurant", "cuisine": "pizza;american", "name": "Big Brooklyn Pizza SS15"}}, {"type": "node", "id": 13026286478, "lat": 3.0740704, "lon": 101.5903248, "tags": {"amenity": "restaurant", "cuisine": "pizza", "name": "Lloyd's Pizza SS15"}}, {"type": "node", "id": 13026286480, "lat": 3.0759904, "lon": 101.5879207, "tags": {"amenity": "restaurant", "cuisine": "pizza", "name": "myPizzaLab SS15"}}, {"type": "node", "id": 13026286484, "lat": 3.0815923, "lon": 101.5902582, "tags": {"amenity": "restaurant", "bar": "yes", "cuisine": "asian", "name": "Yilo Restaurant & Bar | SS15"}}, {"type": "node", "id": 13026287580, "lat": 3.0736906, "lon": 101.5902054, "tags": {"amenity": "restaurant", "cuisine": "mexican", "name": "Chachi Mexican Street Food"}}, {"type": "node", "id": 13026287581, "lat": 3.0822512, "lon": 101.5832343, "tags": {"amenity": "restaurant", "brand": "Chili's", "brand:wikidata": "Q1072948", "cuisine": "tex-mex", "name": "Chili's", "official_name": "Chili's Grill & Bar"}}, {"type": "node", "id": 13026512959, "lat": 3.0823108, "lon": 101.5865641, "tags": {"amenity": "restaurant", "cuisine": "chinese", "name": "Esquire Kitchen"}}, {"type": "node", "id": 13026518233, "lat": 3.0823012, "lon": 101.586387, "tags": {"amenity": "restaurant", "cuisine": "malaysian", "name": "Padi House"}}, {"type": "node", "id": 13026544244, "lat": 3.082339, "lon": 101.5867334, "tags": {"amenity": "restaurant", "cuisine": "chinese", "name": "Oriental Parade"}}, {"type": "node", "id": 13027403488, "lat": 3.076745, "lon": 101.5879642, "tags": {"amenity": "restaurant", "cuisine": "thai", "name": "128 Thai"}}, {"type": "node", "id": 13027476849, "lat": 3.0770647, "lon": 101.5882405, "tags": {"amenity": "restaurant", "cuisine": "hotpot", "name": "Bee Ho Steamboat"}}, {"type": "node", "id": 13027478690, "lat": 3.0766136, "lon": 101.5881659, "tags": {"amenity": "restaurant", "cuisine": "chinese", "name": "Bangkok Curry Fish Head Restaurant"}}, {"type": "node", "id": 13027618808, "lat": 3.0768422, "lon": 101.5880823, "tags": {"amenity": "restaurant", "cuisine": "japanese", "name": "Chitose Japanese Restaurant"}}, {"type": "node", "id": 13027626790, "lat": 3.0778854, "lon": 101.5883214, "tags": {"amenity": "restaurant", "cuisine": "chinese", "name": "Mala Paradise"}}, {"type": "node", "id": 13027627118, "lat": 3.0779413, "lon": 101.5883363, "tags": {"amenity": "restaurant", "cuisine": "indian", "name": "MK Banana Leaf Restaurant"}}, {"type": "node", "id": 13028502184, "lat": 3.0801352, "lon": 101.5865357, "tags": {"amenity": "restaurant", "name": "Nasir Cafe"}}, {"type": "node", "id": 13028502186, "lat": 3.0802464, "lon": 101.5865378, "tags": {"amenity": "restaurant", "name": "Dinar Cafe"}}, {"type": "node", "id": 13030730620, "lat": 3.077131, "lon": 101.5870668, "tags": {"amenity": "restaurant", "name": "ABC Restaurant"}}, {"type": "node", "id": 13042452626, "lat": 3.0779392, "lon": 101.5890164, "tags": {"amenity": "restaurant", "cuisine": "noodle", "name": "Ho Liao Noodles"}}, {"type": "node", "id": 13058095810, "lat": 3.0752982, "lon": 101.5881806, "tags": {"amenity": "restaurant", "cuisine": "sushi", "name": "Sushi Moeko"}}, {"type": "node", "id": 13058176596, "lat": 3.0757135, "lon": 101.5892546, "tags": {"amenity": "restaurant", "cuisine": "korean", "name": "Twins Dak Galbi"}}, {"type": "node", "id": 13058176600, "lat": 3.0760258, "lon": 101.5896294, "tags": {"amenity": "restaurant", "cuisine": "malaysian", "name": "WBL Penang"}}, {"type": "node", "id": 13058180102, "lat": 3.075989, "lon": 101.5895811, "tags": {"amenity": "restaurant", "cuisine": "sushi", "name": "Sushi Plus"}}, {"type": "node", "id": 13058180105, "lat": 3.0759105, "lon": 101.589488, "tags": {"amenity": "restaurant", "cuisine": "chinese", "name": "Yang Claypot", "name:zh": "\u6768\u5988\u7802\u9505"}}, {"type": "node", "id": 13058180110, "lat": 3.0755316, "lon": 101.5890931, "tags": {"amenity": "restaurant", "cuisine": "western", "name": "Peppercorn Cafe"}}, {"type": "node", "id": 13058180111, "lat": 3.0754852, "lon": 101.5890573, "tags": {"amenity": "restaurant", "cuisine": "korean", "name": "Bang Ga Bang Ga"}}, {"type": "node", "id": 13058180112, "lat": 3.0754495, "lon": 101.5890099, "tags": {"amenity": "restaurant", "cuisine": "ramen", "name": "Menya Hanabi"}}, {"type": "node", "id": 13058927586, "lat": 3.0779349, "lon": 101.5885769, "tags": {"amenity": "restaurant", "name": "SPA Chicken Rice"}}, {"type": "node", "id": 13058943166, "lat": 3.0769758, "lon": 101.5885529, "tags": {"amenity": "restaurant", "name": "Warung Pojok Indonesian Cuisine"}}, {"type": "node", "id": 13058943567, "lat": 3.0770546, "lon": 101.5885751, "tags": {"amenity": "restaurant", "name": "Cubit"}}, {"type": "node", "id": 13058996291, "lat": 3.0824211, "lon": 101.5895999, "tags": {"amenity": "restaurant", "cuisine": "japanese", "name": "Ki Restaurant"}}, {"type": "node", "id": 13064670037, "lat": 3.0747209, "lon": 101.5867596, "tags": {"amenity": "restaurant", "name": "Xin Jiang Lai"}}, {"type": "node", "id": 13064698550, "lat": 3.0745529, "lon": 101.5867564, "tags": {"amenity": "restaurant", "name": "Buttermilk Kitchen"}}, {"type": "node", "id": 13064734798, "lat": 3.0746057, "lon": 101.5867612, "tags": {"amenity": "restaurant", "name": "Mala Malam"}}, {"type": "node", "id": 13064752447, "lat": 3.0824416, "lon": 101.5908041, "tags": {"amenity": "restaurant", "name": "Crunchy Bite"}}, {"type": "node", "id": 13064757268, "lat": 3.082451, "lon": 101.5902234, "tags": {"amenity": "restaurant", "name": "Al Shamiah"}}, {"type": "node", "id": 13064775107, "lat": 3.0824544, "lon": 101.5901001, "tags": {"amenity": "restaurant", "name": "Pakistani Food House"}}, {"type": "way", "id": 211092508, "nodes": [2211009281, 2211009080, 12675779251, 2211009349, 2211009169, 2211009473, 2211009499, 2211009279, 2211009281], "tags": {"addr:city": "Subang Jaya", "addr:postcode": "47500", "addr:street": "Jalan SS 13/1A", "amenity": "restaurant", "brand": "A&W", "building": "yes", "cuisine": "western", "name": "Restaurant Chakz 1964", "takeaway": "yes"}}, {"type": "way", "id": 352898581, "nodes": [3586851510, 10311205177, 10311205176, 3586851511, 3586851510], "tags": {"addr:city": "Subang Jaya", "addr:housenumber": "47", "addr:postcode": "47500", "addr:street": "Jalan SS 15/4E", "amenity": "restaurant", "building": "retail", "building:levels": "2", "cuisine": "chinese", "name": "Restoran Long Khee"}}, {"type": "way", "id": 1125360925, "nodes": [10291047135, 10291047133, 10291047132, 10291047134, 10291047135], "tags": {"addr:city": "Subang Jaya", "addr:housenumber": "25", "addr:postcode": "47500", "addr:street": "Jalan SS 15/2A", "amenity": "restaurant", "building": "retail", "name": "Pasta Ohsem & Purple Monkey Subang Jaya SS15"}}, {"type": "way", "id": 1127809371, "nodes": [10311205161, 3586851558, 3586851559, 10311205160, 10311205161], "tags": {"addr:housenumber": "65", "addr:street": "Jalan SS 15/4E", "amenity": "restaurant", "bar": "yes", "building": "retail", "building:levels": "2", "name": "The Brew House @SS15"}}, {"type": "way", "id": 1127809375, "nodes": [10311205169, 10311205167, 10311205166, 10311205168, 10311205169], "tags": {"addr:city": "Subang Jaya", "addr:housenumber": "57", "addr:postcode": "47500", "addr:street": "Jalan SS 15/4E", "amenity": "restaurant", "building": "retail", "building:levels": "2", "name": "Three Plates Full"}}, {"type": "way", "id": 1127809376, "nodes": [10311205171, 10311205169, 10311205168, 10311205170, 10311205171], "tags": {"addr:city": "Subang Jaya", "addr:housenumber": "55", "addr:postcode": "47500", "addr:street": "Jalan SS 15/4E", "amenity": "restaurant", "building": "retail", "building:levels": "2", "cuisine": "japanese", "name": "Ryoshi Izakaya"}}, {"type": "way", "id": 1190230371, "nodes": [10669067871, 10669067870, 10669067872, 1210097021, 11051540436, 11051540437, 1210096932, 10669067873, 10669067871], "tags": {"amenity": "restaurant", "cuisine": "chinese", "name": "Restoran Xfrens", "name:zh": "\u56e2\u5706\u6d77\u9c9c\u996d\u5e97"}}]}