{"version": 0.6, "generator": "Overpass API 0.7.62.8 e802775f", "osm3s": {"timestamp_osm_base": "2025-11-25T17:00:00Z", "copyright": "The data included in this document is from www.openstreetmap.org. The data is made available under ODbL."}, "elements": [{"type": "node", "id": 1315876355, "lat": 3.0839604, "lon": 101.6822613, "tags": {"amenity": "restaurant", "cuisine": "chinese", "name": "Restoran Noodle Time", "source": "local knowledge"}}, {"type": "node", "id": 1315876356, "lat": 3.0833246, "lon": 101.6807499, "tags": {"amenity": "restaurant", "name": "Happy Cafe"}}, {"type": "node", "id": 1318556903, "lat": 3.0731549, "lon": 101.6532117, "tags": {"addr:city": "Kuala Lumpur", "addr:place": "Sri Sentosa", "amenity": "restaurant", "cuisine": "chinese", "name": "Kedai Makanan Pasifik"}}, {"type": "node", "id": 1488309464, "lat": 3.0856319, "lon": 101.6587115, "tags": {"addr:city": "Petaling Jaya", "addr:housenumber": "388", "addr:postcode": "46000", "addr:street": "Jalan 5/59", "amenity": "restaurant", "cuisine": "indian", "name": "Shanar Curry House", "phone": "+60377849695"}}, {"type": "node", "id": 1488347562, "lat": 3.0862994, "lon": 101.6577488, "tags": {"addr:city": "Petaling Jaya", "addr:place": "Petaling Garden", "amenity": "restaurant", "cuisine": "indian", "name": "Sun Raj Curry House"}}, {"type": "node", "id": 1525616078, "lat": 3.1015806, "lon": 101.6537986, "tags": {"addr:housenumber": "27", "amenity": "restaurant", "cuisine": "indian", "name": "Raju"}}, {"type": "node", "id": 1525616079, "lat": 3.1019623, "lon": 101.6534458, "tags": {"addr:city": "Petaling Jaya", "addr:postcode": "46200", "amenity": "restaurant", "cuisine": "indian", "name": "Sri Paandi Gasing"}}, {"type": "node", "id": 1525926229, "lat": 3.0866232, "lon": 101.6554081, "tags": {"amenity": "restaurant", "cuisine": "indian", "name": "Devi's Corner"}}, {"type": "node", "id": 1534178899, "lat": 3.0874794, "lon": 101.6636043, "tags": {"addr:city": "Kuala Lumpur", "addr:housenumber": "77", "addr:place": "Gasing Indah", "amenity": "restaurant", "cuisine": "mamak", "name": "Yasin Curry House", "wheelchair": "yes"}}, {"type": "node", "id": 1535002805, "lat": 3.106785, "lon": 101.6535668, "tags": {"addr:city": "Petaling Jaya", "addr:street": "Jalan Gasing", "amenity": "restaurant", "cuisine": "chinese", "indoor_seating": "yes", "name": "Restoran Satellite Chicken Rice", "outdoor_seating": "yes"}}, {"type": "node", "id": 1535002822, "lat": 3.1069773, "lon": 101.6534704, "tags": {"addr:city": "Petaling Jaya", "addr:street": "Jalan Gasing", "amenity": "restaurant", "cuisine": "indian", "name": "Kanna Curry House"}}, {"type": "node", "id": 1541848115, "lat": 3.0949856, "lon": 101.6513499, "tags": {"addr:city": "Petaling Jaya", "addr:housenumber": "13", "addr:postcode": "46000", "addr:street": "Jalan Gasing", "amenity": "restaurant", "cuisine": "indian", "indoor_seating": "yes", "name": "Lotus", "opening_hours": "07:00-21:00", "outdoor_seating": "no", "phone": "+60377828795"}}, {"type": "node", "id": 1545348437, "lat": 3.0945597, "lon": 101.6513579, "tags": {"addr:city": "Petaling Jaya", "addr:street": "Jalan Gasing", "amenity": "restaurant", "cuisine": "indian", "indoor_seating": "yes", "name": "Restoran Gem", "outdoor_seating": "no"}}, {"type": "node", "id": 1546903136, "lat": 3.0599695, "lon": 101.6731296, "tags": {"amenity": "restaurant", "cuisine": "sushi", "name": "Shin Zushi", "name:zh": "\u65b0\u5bff\u53f8", "source": "https://openstreetcam.org/details/2745554/2565"}}, {"type": "node", "id": 1548801337, "lat": 3.1022687, "lon": 101.6530535, "tags": {"amenity": "restaurant", "cuisine": "chinese", "name": "Gasing"}}, {"type": "node", "id": 1548803941, "lat": 3.0993962, "lon": 101.6524214, "tags": {"addr:housenumber": "59", "addr:postcode": "46000", "addr:street": "Jalan Gasing", "amenity": "restaurant", "cuisine": "indian", "name": "Maharaj Rumah Warisan"}}, {"type": "node", "id": 1550045112, "lat": 3.0857047, "lon": 101.6523032, "tags": {"amenity": "restaurant", "cuisine": "chinese", "name": "Kafe PJ Oldtown"}}, {"type": "node", "id": 1586691831, "lat": 3.088742, "lon": 101.6743697, "tags": {"amenity": "restaurant", "name": "Wukong", "name:en": "Wukong"}}, {"type": "node", "id": 1586700589, "lat": 3.084672, "lon": 101.6729549, "tags": {"amenity": "restaurant", "brand": "Nando's", "brand:wikidata": "Q3472954", "brand:wikipedia": "en:Nando's", "check_date": "2025-11-01", "cuisine": "chicken;portuguese", "name": "Nando's"}}, {"type": "node", "id": 1623858285, "lat": 3.0687294, "lon": 101.7055075, "tags": {"amenity": "restaurant", "name": "Ibrahim Maju", "name:ms": "Ibrahim Maju"}}, {"type": "node", "id": 1624759305, "lat": 3.0719847, "lon": 101.6822101, "tags": {"amenity": "restaurant", "name": "Ipoh Chicken Rice"}}, {"type": "node", "id": 1624759313, "lat": 3.0764816, "lon": 101.6790236, "tags": {"amenity": "restaurant", "cuisine": "chinese", "name": "Restoran Choy Kei", "name:zh": "\u8d22\u8bb0\u7f8e\u98df\u4e2d\u5fc3", "source": "https://www.mapillary.com/app/?pKey=Spcpjn5AeogTuZZmW8BdTs&focus=photo"}}, {"type": "node", "id": 1649997395, "lat": 3.120667, "lon": 101.7074333, "tags": {"amenity": "restaurant", "cuisine": "chinese", "name": "Siu Siu Sungai Besi", "name:en": "Siu Siu Sungai Besi", "name:ms": "Siu Siu Sungai Besi", "name:zh": "\u5c0f\u5c0f\u996d\u5e97", "name:zh-Hans": "\u5c0f\u5c0f\u996d\u5e97", "name:zh-Hant": "\u5c0f\u5c0f\u98ef\u5e97"}}, {"type": "node", "id": 1650022724, "lat": 3.09889, "lon": 101.7121728, "tags": {"amenity": "restaurant", "name": "Kayu Nasi Kandar"}}, {"type": "node", "id": 1650031281, "lat": 3.1126912, "lon": 101.7160969, "tags": {"amenity": "restaurant", "name": "Hanizah Nasi Kandar", "name:ms": "Hanizah Nasi Kandar"}}, {"type": "node", "id": 1650120260, "lat": 3.1122198, "lon": 101.7152439, "tags": {"amenity": "restaurant", "name": "Azzahra", "name:en": "Azzahra", "name:ms": "Azzahra"}}, {"type": "node", "id": 1650120267, "lat": 3.1126965, "lon": 101.7154746, "tags": {"amenity": "restaurant", "name": "Kedai kek Cheras", "name:it": "Kedai Kek Cheras"}}, {"type": "node", "id": 1650121357, "lat": 3.1122653, "lon": 101.7164214, "tags": {"amenity": "restaurant", "name": "Yati Jaya", "name:ms": "Yati Jaya"}}, {"type": "node", "id": 1746291487, "lat": 3.0910742, "lon": 101.6806487, "tags": {"amenity": "restaurant", "name": "Restoran Talipon", "name:ms": "Restoran Talipon"}}, {"type": "node", "id": 1796673845, "lat": 3.0821658, "lon": 101.672078, "tags": {"amenity": "restaurant", "diet:vegetarian": "only", "name": "San San Vegetarian Restaurant"}}, {"type": "node", "id": 1866871426, "lat": 3.0665667, "lon": 101.6504416, "tags": {"addr:city": "Puchong", "addr:suburb": "Taman Kinrara", "amenity": "restaurant", "cuisine": "chinese", "name": "Fa Kee"}}, {"type": "node", "id": 1973513908, "lat": 3.0988814, "lon": 101.7124869, "tags": {"amenity": "restaurant", "brand": "PappaRich", "brand:wikidata": "Q95721282", "brand:wikipedia": "ms:PappaRich", "cuisine": "malaysian", "name": "PappaRich", "source": "Local observation"}}, {"type": "node", "id": 1973516043, "lat": 3.1004967, "lon": 101.7127927, "tags": {"amenity": "restaurant", "cuisine": "chinese", "name": "\u65b077"}}, {"type": "node", "id": 1982333283, "lat": 3.0610385, "lon": 101.6766262, "tags": {"amenity": "restaurant", "name": "Al Madina"}}, {"type": "node", "id": 2035832787, "lat": 3.0631376, "lon": 101.6941928, "tags": {"amenity": "restaurant", "diet:vegan": "yes", "diet:vegetarian": "only", "name": "Milion Dolar"}}, {"type": "node", "id": 2036729007, "lat": 3.0604445, "lon": 101.6692411}, {"type": "node", "id": 2036729036, "lat": 3.0596997, "lon": 101.6676603}, {"type": "node", "id": 2036729039, "lat": 3.0606474, "lon": 101.6692274}, {"type": "node", "id": 2036729058, "lat": 3.0597606, "lon": 101.6677348}, {"type": "node", "id": 2036729075, "lat": 3.0598591, "lon": 101.6675298}, {"type": "node", "id": 2036729146, "lat": 3.0599199, "lon": 101.6676043}, {"type": "node", "id": 2090550703, "lat": 3.0904946, "lon": 101.6832551, "tags": {"amenity": "restaurant", "cuisine": "chinese", "internet_access": "no", "internet_access:fee": "no", "name": "Goon Wah Restaurant", "name:en": "Goon Wah Restaurant", "opening_hours": "Mo-Fr 09:30-15:30", "phone": "+60379820048 / +60379840722", "smoking": "yes", "wheelchair": "no"}}, {"type": "node", "id": 2193966410, "lat": 3.0605131, "lon": 101.6693553}, {"type": "node", "id": 2193966584, "lat": 3.0604515, "lon": 101.669307}, {"type": "node", "id": 2193966657, "lat": 3.0606577, "lon": 101.6693418}, {"type": "node", "id": 2344021369, "lat": 3.0916036, "lon": 101.6759544, "tags": {"addr:city": "Kuala Lumpur", "addr:street": "Jalan Kuchai Lama", "amenity": "restaurant", "diet:vegetarian": "only", "name": "Chi I Vegetarian", "name:en": "Chi I Vegetarian", "name:it": "Chi I"}}, {"type": "node", "id": 2358309553, "lat": 3.0720428, "lon": 101.6526397, "tags": {"addr:city": "Kuala Lumpur", "addr:place": "Sri Sentosa", "amenity": "restaurant", "cuisine": "chinese", "name": "Restoran Fatty Chong"}}, {"type": "node", "id": 2378801308, "lat": 3.1068835, "lon": 101.6535221, "tags": {"addr:city": "Petaling Jaya", "addr:housenumber": "105&107", "addr:street": "Jalan Gasing", "amenity": "restaurant", "cuisine": "chinese", "name": "1977 Ipoh Chicken Rice"}}, {"type": "node", "id": 2395718870, "lat": 3.1229095, "lon": 101.6758569, "tags": {"amenity": "restaurant", "cuisine": "indian", "name": "Muhibbah", "name:en": "Muhibbah"}}, {"type": "node", "id": 2457763403, "lat": 3.1226306, "lon": 101.6709369, "tags": {"addr:city": "Kuala Lumpur", "addr:housenumber": "19", "addr:postcode": "59100", "addr:street": "Lorong Kurau", "amenity": "restaurant", "cuisine": "indian", "name": "The Ganga Cafe", "note": "vegetarian", "source": "https://foursquare.com/v/ganga/4d4791db2165721eb046bed7"}}, {"type": "node", "id": 2510401733, "lat": 3.0772103, "lon": 101.6634596, "tags": {"amenity": "restaurant", "name": "Restaurant Ben Maju"}}, {"type": "node", "id": 2510417107, "lat": 3.0769183, "lon": 101.6622384, "tags": {"amenity": "restaurant", "name": "Warung Satay Mak Long"}}, {"type": "node", "id": 2881828609, "lat": 3.1225022, "lon": 101.6711018, "tags": {"addr:city": "Kuala Lumpur", "addr:housenumber": "11", "addr:postcode": "59100", "addr:street": "Lorong Kurau", "amenity": "restaurant", "check_date": "2025-05-04", "check_date:currency:XBT": "2025-05-04", "contact:facebook": "babalowslorongkurau", "cuisine": "asian", "currency:XBT": "yes", "name": "Baba Low's Bangsar", "payment:lightning": "yes", "payment:lightning_contactless": "no", "payment:onchain": "yes", "phone": "+60 3 2284 8486"}}, {"type": "node", "id": 2910780242, "lat": 3.0612299, "lon": 101.6761057, "tags": {"amenity": "restaurant", "name": "Friendship Cafe"}}, {"type": "node", "id": 3014078795, "lat": 3.1106748, "lon": 101.6853508, "tags": {"addr:city": "Kuala Lumpur", "addr:housenumber": "25A", "addr:postcode": "58100", "addr:street": "Jalan Bukit Desa 5", "amenity": "restaurant", "cuisine": "japanese", "level": "1", "name": "Sanuki Udon", "opening_hours": "11:30-15:00,18:00-22:00; Mo off"}}, {"type": "node", "id": 3040876266, "lat": 3.0735802, "lon": 101.6581051, "tags": {"amenity": "restaurant", "cuisine": "indian", "name": "Vinod Curry House"}}, {"type": "node", "id": 3046728842, "lat": 3.0744105, "lon": 101.6721948, "tags": {"amenity": "restaurant", "cuisine": "chinese", "name": "Kwong Chow", "name:zh": "\u5e7f\u5dde\u8336\u9910\u5ba4"}}, {"type": "node", "id": 3046728843, "lat": 3.0741962, "lon": 101.6723691, "tags": {"alt_name": "99", "amenity": "restaurant", "cuisine": "chinese", "name": "Double Nine"}}, {"type": "node", "id": 3046728844, "lat": 3.0744292, "lon": 101.6730343, "tags": {"amenity": "restaurant", "cuisine": "chinese", "name": "New Sun Ho"}}, {"type": "node", "id": 3046728845, "lat": 3.0743917, "lon": 101.6720982, "tags": {"amenity": "restaurant", "cuisine": "chinese", "name": "OUG Lucky", "name:zh": "\u8fd0\u6765\u8336\u9910\u5ba4"}}, {"type": "node", "id": 3046728850, "lat": 3.0721364, "lon": 101.6730103, "tags": {"amenity": "restaurant", "cuisine": "indian", "name": "Venus Bistro | Sri Steven's Corner"}}, {"type": "node", "id": 3046728853, "lat": 3.0741425, "lon": 101.6720635, "tags": {"amenity": "restaurant", "cuisine": "chinese", "name": "Joo Hing", "name:zh": "\u88d5\u5174\u8336\u9910\u5ba4"}}, {"type": "node", "id": 3046728856, "lat": 3.0718312, "lon": 101.6723664, "tags": {"amenity": "restaurant", "name": "Kopitan Classic Penang Passion"}}, {"type": "node", "id": 3046794965, "lat": 3.0548171, "lon": 101.704264, "tags": {"amenity": "restaurant", "cuisine": "chicken", "name": "Kenny Rogers Roasters"}}, {"type": "node", "id": 3046803955, "lat": 3.0977388, "lon": 101.6753761, "tags": {"addr:city": "Kuala Lumpur", "addr:street": "Jalan Klang Lama", "amenity": "restaurant", "cuisine": "chinese", "name": "Restoran Yan Yang A One", "name:en": "Yan Yang A One Restaurant", "name:zh": "\u4ec1\u4ec1\u70b9\u5fc3", "name:zh-Hans": "\u4ec1\u4ec1\u70b9\u5fc3", "name:zh-Hant": "\u4ec1\u4ec1\u9ede\u5fc3"}}, {"type": "node", "id": 3090500409, "lat": 3.1037695, "lon": 101.6659228, "tags": {"addr:city": "Kuala Lumpur", "addr:place": "Pantai Hillpark", "amenity": "restaurant", "cuisine": "mamak", "name": "Restoran Malabar", "opening_hours": "24/7"}}, {"type": "node", "id": 3092039215, "lat": 3.0930069, "lon": 101.6692079, "tags": {"addr:city": "Kuala Lumpur", "addr:place": "Pantai Dalam", "alt_name": "Gulai Kawah Anis Putri", "amenity": "restaurant", "cuisine": "malay", "name": "Anis Putri Corner", "name:en": "Anis Putri Corner", "opening_hours": "10:00-18:00"}}, {"type": "node", "id": 3092039217, "lat": 3.093148, "lon": 101.6692283, "tags": {"addr:city": "Kuala Lumpur", "addr:place": "Pantai Dalam", "amenity": "restaurant", "cuisine": "malay", "name": "Kak Ram", "name:ms": "Kak Ram"}}, {"type": "node", "id": 3123929971, "lat": 3.1097603, "lon": 101.6661817, "tags": {"addr:city": "Kuala Lumpur", "addr:place": "Bangsar South", "amenity": "restaurant", "name": "Souled Out", "name:en": "Souled Out"}}, {"type": "node", "id": 3123929978, "lat": 3.1096664, "lon": 101.6647804, "tags": {"air_conditioning": "yes", "amenity": "restaurant", "cuisine": "thai", "name": "Streat Thai", "name:en": "Streat Thai"}}, {"type": "node", "id": 3123963022, "lat": 3.1114561, "lon": 101.6622179, "tags": {"addr:city": "Kuala Lumpur", "addr:street": "Jalan Kerinchi", "amenity": "restaurant", "cuisine": "regional", "name": "Sany Cafe Char Koay Teow"}}, {"type": "node", "id": 3302983490, "lat": 3.0979871, "lon": 101.6780133, "tags": {"amenity": "restaurant", "cuisine": "german", "name": "Thirsty Monkeys - Bavarian House", "name:en": "Thirsty Monkeys - Bavarian House"}}, {"type": "node", "id": 3379413996, "lat": 3.0987086, "lon": 101.686506, "tags": {"amenity": "restaurant", "cuisine": "indian", "internet_access": "wlan", "internet_access:fee": "no", "name": "Al-Sarifa", "opening_hours": "Mo-Su 07:00-24:00"}}, {"type": "node", "id": 3379424747, "lat": 3.100541, "lon": 101.6865069, "tags": {"amenity": "restaurant", "name": "Mamamon", "website": "https://www.monkeybar-kitchen.com/"}}, {"type": "node", "id": 3379424749, "lat": 3.0999007, "lon": 101.6868954, "tags": {"amenity": "restaurant", "cuisine": "indian", "internet_access": "wlan", "internet_access:fee": "no", "name": "Haji Basheer"}}, {"type": "node", "id": 3630581033, "lat": 3.1183132, "lon": 101.6616415}, {"type": "node", "id": 3630581034, "lat": 3.1183397, "lon": 101.6617922}, {"type": "node", "id": 3630581035, "lat": 3.1181817, "lon": 101.66182}, {"type": "node", "id": 3630581036, "lat": 3.1181563, "lon": 101.6616702}, {"type": "node", "id": 3725542626, "lat": 3.0969933, "lon": 101.6777137, "tags": {"addr:city": "Kuala Lumpur", "addr:housenumber": "6", "addr:place": "Taman Desa", "addr:postcode": "58100", "addr:street": "Jalan 1/109E", "amenity": "restaurant", "cuisine": "coffee_shop", "facebook": "https://www.facebook.com/taste.memories/", "name": "Taste & Memories", "name:en": "Taste & Memories", "name:zh": "\u56de\u5473", "name:zh-Hans": "\u56de\u5473", "name:zh-Hant": "\u56de\u5473", "opening_hours": "Mo-Su 11:00-22:00", "outdoor_seating": "yes", "phone": "+60 3797 10302", "smoking": "outside"}}, {"type": "node", "id": 3823690764, "lat": 3.121022, "lon": 101.6756691, "tags": {"amenity": "restaurant", "cuisine": "indian", "name": "Suasana", "name:ms": "Suasana", "outdoor_seating": "yes"}}, {"type": "node", "id": 3830067753, "lat": 3.1230782, "lon": 101.6758556, "tags": {"amenity": "restaurant", "cuisine": "malay", "name": "Restoran Leeyas Corner", "name:ms": "Restoran Leeyas Corner"}}, {"type": "node", "id": 4238894502, "lat": 3.0983469, "lon": 101.6865131, "tags": {"amenity": "restaurant", "name": "Woo Pin Fish Head Noodles"}}, {"type": "node", "id": 4444844489, "lat": 3.0905079, "lon": 101.6763061, "tags": {"amenity": "restaurant"}}, {"type": "node", "id": 4459845490, "lat": 3.1027966, "lon": 101.6842576, "tags": {"amenity": "restaurant", "name": "Kajitsu"}}, {"type": "node", "id": 4539370280, "lat": 3.0745679, "lon": 101.6726819, "tags": {"amenity": "restaurant", "name": "Eng Huat Kopitiam", "name:zh": "\u8363\u53d1\u8336\u9910\u5ba4 \uff08\u8001\u69df\u57ce\uff09"}}, {"type": "node", "id": 4597853904, "lat": 3.0955806, "lon": 101.6752781, "tags": {"amenity": "restaurant", "check_date": "2025-10-31", "name": "Fatty Bak Kut Teh", "name:en": "Fatty Bak Kut Teh"}}, {"type": "node", "id": 4601258168, "lat": 3.0738573, "lon": 101.6728013, "tags": {"amenity": "restaurant", "cuisine": "chinese", "level": "2", "name": "Oug Jade", "opening_hours": "Mo-Su 11:00-15:00,18:00-23:00", "phone": "+60 3 7972 5885"}}, {"type": "node", "id": 4603819419, "lat": 3.1019343, "lon": 101.6849571, "tags": {"amenity": "restaurant", "cuisine": "western", "level": "0", "name": "Macaroni", "opening_hours": "10:00-22:00", "outdoor_seating": "terrace", "phone": "+60 37983 3488", "smoking": "outside"}}, {"type": "node", "id": 4618086488, "lat": 3.0983436, "lon": 101.6865664, "tags": {"amenity": "restaurant", "level": "1", "name": "Sushi Mentai", "opening_hours": "Mo-Su 12:00-21:00", "website": "https://sushi-mentai.com/"}}, {"type": "node", "id": 4618663715, "lat": 3.1021219, "lon": 101.6850499, "tags": {"addr:unit": "G8;G9", "amenity": "restaurant", "cuisine": "japanese", "name": "Koyaku", "opening_hours": "12:00\u201315:00,18:00\u201322:00", "outdoor_seating": "terrace", "phone": "+60379844688"}}, {"type": "node", "id": 4618663716, "lat": 3.1018189, "lon": 101.6848851, "tags": {"addr:unit": "G12", "amenity": "restaurant", "cuisine": "korean", "level": "0", "name": "Kimchitiam", "outdoor_seating": "terrace"}}, {"type": "node", "id": 4625323081, "lat": 3.0969679, "lon": 101.6778063, "tags": {"amenity": "restaurant", "name": "Peng Wah", "name:en": "Peng Wah"}}, {"type": "node", "id": 4625323558, "lat": 3.0969513, "lon": 101.6778555, "tags": {"amenity": "restaurant", "name": "Kuah Desa", "name:en": "Kuah Desa"}}, {"type": "node", "id": 4625323989, "lat": 3.1040527, "lon": 101.6775651, "tags": {"addr:city": "Kuala Lumpur", "addr:place": "3rd Mile Square", "addr:street": "Jalan Klang Lama", "amenity": "restaurant", "indoor_seating": "yes", "level": "1", "name": "Kannichikan Yakiniku", "name:en": "Kannichikan Yakiniku", "outdoor_seating": "no", "short_name": "KNK"}}, {"type": "node", "id": 4637256370, "lat": 3.10042, "lon": 101.6865033, "tags": {"amenity": "restaurant", "name": "CEO"}}, {"type": "node", "id": 4648504593, "lat": 3.090343, "lon": 101.6918462, "tags": {"addr:postcode": "58200", "addr:street": "Jalan 6/116B", "amenity": "restaurant", "name": "Hao Wan Restaurant", "name:en": "Hao Wan Restaurant", "name:it": "Hao Wan"}}, {"type": "node", "id": 4663451727, "lat": 3.0976351, "lon": 101.6697888, "tags": {"addr:city": "Kuala Lumpur", "addr:street": "Jalan Pantai Dalam", "amenity": "restaurant", "cuisine": "malay", "name": "Restoran Samre", "name:ms": "Restoran Samre"}}, {"type": "node", "id": 4664181949, "lat": 3.0860603, "lon": 101.6588252, "tags": {"addr:city": "Petaling Jaya", "addr:place": "Petaling Garden", "alt_name": "Raju Petaling Garden", "amenity": "restaurant", "cuisine": "indian", "name": "Raju's Banana Leaf", "opening_hours": "Mo-Fr 07:30-19:30; Sa,Su 07:30-20:00"}}, {"type": "node", "id": 4664623271, "lat": 3.1037599, "lon": 101.6650444, "tags": {"addr:city": "Kuala Lumpur", "addr:place": "Pantai Hillpark", "amenity": "restaurant", "cuisine": "mamak", "name": "Restoran Al-Mashur"}}, {"type": "node", "id": 4665644896, "lat": 3.122773, "lon": 101.712469, "tags": {"amenity": "restaurant", "name": "\u597d\u5403\u5496\u55b1\u5370\u5ea6dao", "name:zh": "\u597d\u5403\u5496\u55b1\u5370\u5ea6dao", "name:zh-Hans": "\u597d\u5403\u5496\u55b1\u5370\u5ea6dao", "name:zh-Hant": "\u597d\u5403\u5496\u54e9\u5370\u5ea6dao"}}, {"type": "node", "id": 4666427337, "lat": 3.1043413, "lon": 101.677697, "tags": {"addr:city": "Kuala Lumpur", "addr:place": "3rd Mile Square", "addr:street": "Jalan Klang Lama", "air_conditioning": "yes", "amenity": "restaurant", "diet:halal": "no", "diet:vegetarian": "no", "indoor_seating": "yes", "name": "Western 8", "name:en": "Western 8", "opening_hours": "Mo-Su,PH 12:30-22:00", "outdoor_seating": "yes"}}, {"type": "node", "id": 4666427350, "lat": 3.1085564, "lon": 101.678754, "tags": {"amenity": "restaurant", "name": "BBQ Thai", "name:en": "BBQ Thai"}}, {"type": "node", "id": 4668100972, "lat": 3.1064862, "lon": 101.6661587, "tags": {"addr:city": "Kuala Lumpur", "addr:street": "Jalan Pantai Murni", "amenity": "restaurant", "cuisine": "malay", "name": "Restoran Riang-Riang", "opening_hours": "24/7"}}, {"type": "node", "id": 4683428291, "lat": 3.0904227, "lon": 101.6901316, "tags": {"addr:postcode": "58200", "amenity": "restaurant", "cuisine": "japanese", "name": "Yoshi Yoshi Robata", "source": "https://www.mapillary.com/app/?pKey=792965434727704&focus=photo"}}, {"type": "node", "id": 4701354290, "lat": 3.0599316, "lon": 101.6734785, "tags": {"amenity": "restaurant", "name": "ICON KITCHEN", "name:en": "ICON KITCHEN"}}, {"type": "node", "id": 4705755141, "lat": 3.0922629, "lon": 101.6860559, "tags": {"addr:city": "Kuala Lumpur", "addr:street": "Jalan Kuchai Lama", "addr:suburb": "Kuchai Lama", "amenity": "restaurant", "brand": "Pizza Hut", "brand:wikidata": "Q191615", "brand:wikipedia": "en:Pizza Hut", "cuisine": "pizza", "name": "Pizza Hut"}}, {"type": "node", "id": 4705755156, "lat": 3.0914486, "lon": 101.6862273, "tags": {"amenity": "restaurant", "name": "The Pot Steamboat", "name:en": "The Pot Steamboat"}}, {"type": "node", "id": 4705755161, "lat": 3.090969, "lon": 101.6874175, "tags": {"addr:city": "Kuala Lumpur", "amenity": "restaurant", "cuisine": "chinese"}}, {"type": "node", "id": 4705755174, "lat": 3.0910644, "lon": 101.6885834, "tags": {"addr:city": "Kuala Lumpur", "amenity": "restaurant", "name": "Try Mee Noodle House"}}, {"type": "node", "id": 4705915711, "lat": 3.0855497, "lon": 101.6708442, "tags": {"addr:city": "Kuala Lumpur", "addr:street": "Jalan Klang Lama", "amenity": "restaurant", "cuisine": "japanese", "name": "Xenri Japanese Cuisine", "name:en": "Xenri Japanese Cuisine"}}, {"type": "node", "id": 4706262038, "lat": 3.0862896, "lon": 101.6724423, "tags": {"addr:city": "Kuala Lumpur", "addr:street": "Jalan Klang Lama", "amenity": "restaurant", "cuisine": "chinese", "name": "Kedai Kopi Sing Kee", "name:ms": "Kedai Kopi Sing Kee"}}, {"type": "node", "id": 4706262041, "lat": 3.0863188, "lon": 101.6730858, "tags": {"addr:city": "Kuala Lumpur", "addr:place": "Newcom Club", "addr:street": "Jalan Klang Lama", "amenity": "restaurant", "cuisine": "chinese", "name": "Restoran Chong Heng", "name:it": "Chong Heng", "name:ms": "Restoran Chong Heng"}}, {"type": "node", "id": 4706262075, "lat": 3.0953962, "lon": 101.6752179, "tags": {"addr:city": "Kuala Lumpur", "addr:street": "Jalan Klang Lama", "amenity": "restaurant", "cuisine": "chinese", "diet:halal": "yes", "name": "Nasi Ayam Hainan Chee Meng", "name:en": "Chee Meng Hainanese Chicken Rice", "name:ms": "Nasi Ayam Hainan Chee Meng", "name:zh": "\u65b0\u9a70\u540d\u9e21\u996d"}}, {"type": "node", "id": 4706489158, "lat": 3.1167205, "lon": 101.6696771, "tags": {"amenity": "restaurant", "name": "Ali Kafe Tom Yam Seafood"}}, {"type": "node", "id": 4706489160, "lat": 3.1166197, "lon": 101.668933, "tags": {"addr:city": "Kuala Lumpur", "addr:postcode": "59100", "addr:street": "Jalan Pantai Baharu", "amenity": "restaurant", "name": "Restoran Haslam", "name:ms": "Restoran Haslam"}}, {"type": "node", "id": 4706489173, "lat": 3.1164644, "lon": 101.667623, "tags": {"addr:city": "Kuala Lumpur", "addr:street": "Jalan Pantai Baharu", "amenity": "restaurant", "name": "The London Circle"}}, {"type": "node", "id": 4706505122, "lat": 3.1182812, "lon": 101.6650217, "tags": {"addr:city": "Kuala Lumpur", "addr:street": "Jalan Pantai Baharu", "amenity": "restaurant", "name": "Restoran Amjal", "name:ms": "Restoran Amjal"}}, {"type": "node", "id": 4706828887, "lat": 3.0819821, "lon": 101.6701513, "tags": {"addr:city": "Kuala Lumpur", "addr:place": "OUG", "amenity": "restaurant", "check_date": "2025-10-31", "diet:vegetarian": "yes", "name": "Bidor Veggie Kitchen", "name:en": "Bidor Veggie Kitchen"}}, {"type": "node", "id": 4706836299, "lat": 3.080392, "lon": 101.6707602, "tags": {"addr:city": "Kuala Lumpur", "addr:place": "OUG", "amenity": "restaurant", "cuisine": "chinese", "name": "Restoran LFF Seafood", "name:en": "LFF Seafood Restaurant", "name:ms": "Restoran LFF Seafood"}}, {"type": "node", "id": 4707064709, "lat": 3.0965373, "lon": 101.6770037, "tags": {"addr:city": "Kuala Lumpur", "addr:place": "Taman Desa", "amenity": "restaurant", "diet:vegan": "yes", "name": "Restoran Sayuran Nyonya Mama Sayang", "name:ms": "Restoran Sayuran Nyonya Mama Sayang"}}, {"type": "node", "id": 4707064711, "lat": 3.0977296, "lon": 101.6780241, "tags": {"addr:city": "Kuala Lumpur", "addr:place": "Taman Desa", "amenity": "restaurant", "name": "Pang's Kitchen", "name:en": "Pang's Kitchen"}}, {"type": "node", "id": 4708991455, "lat": 3.0881693, "lon": 101.668316, "tags": {"addr:city": "Kuala Lumpur", "addr:place": "Pantai Dalam", "amenity": "restaurant", "cuisine": "malay", "name": "Restoran Gasing Indah Tomyam", "name:ms": "Restoran Gasing Indah Tomyam"}}, {"type": "node", "id": 4708991456, "lat": 3.088421, "lon": 101.6684622, "tags": {"addr:city": "Kuala Lumpur", "addr:place": "Pantai Dalam", "amenity": "restaurant", "cuisine": "malay", "name": "Restoran Gegar", "name:ms": "Restoran Gegar"}}, {"type": "node", "id": 4708991457, "lat": 3.088449, "lon": 101.6685462, "tags": {"addr:city": "Kuala Lumpur", "addr:place": "Pantai Dalam", "amenity": "restaurant", "cuisine": "malay", "name": "Harisom Seafood", "name:en": "Harisom Seafood"}}, {"type": "node", "id": 4708991458, "lat": 3.0885468, "lon": 101.6687142, "tags": {"addr:city": "Kuala Lumpur", "addr:place": "Pantai Dalam", "amenity": "restaurant", "cuisine": "malay", "name": "Restoran Al-Ummi Al-Rahmah"}}, {"type": "node", "id": 4708991467, "lat": 3.0900334, "lon": 101.6693561, "tags": {"addr:city": "Kuala Lumpur", "addr:place": "Pantai Dalam", "alt_name": "Ayam Golek Pantai Dalam", "amenity": "restaurant", "cuisine": "chicken;malay", "name": "Ayam Golek 5 Bintang Nara", "name:ms": "Ayam Golek 5 Bintang Nara", "outdoor_seating": "yes"}}, {"type": "node", "id": 4709733979, "lat": 3.0800183, "lon": 101.6519591, "tags": {"addr:city": "Petaling Jaya", "addr:place": "Petaling Utama", "amenity": "restaurant", "cuisine": "chinese", "name": "Restoran O For U"}}, {"type": "node", "id": 4709733980, "lat": 3.0803276, "lon": 101.6517927, "tags": {"addr:city": "Petaling Jaya", "addr:place": "Petaling Utama", "amenity": "restaurant", "cuisine": "chinese", "name": "Restoran Cafe De Sky Garden", "opening_hours": "Mo-Su 10:00-19:00"}}, {"type": "node", "id": 4709733983, "lat": 3.0794796, "lon": 101.6521092, "tags": {"addr:city": "Petaling Jaya", "addr:place": "Petaling Utama", "amenity": "restaurant", "name": "Restoran Al Mashur"}}, {"type": "node", "id": 4710894406, "lat": 3.0735986, "lon": 101.6534316, "tags": {"addr:city": "Kuala Lumpur", "addr:place": "Sri Sentosa", "amenity": "restaurant", "cuisine": "chinese", "name": "Restoran 109"}}, {"type": "node", "id": 4745035497, "lat": 3.1069182, "lon": 101.669943, "tags": {"addr:city": "Kuala Lumpur", "addr:place": "Bazaria Pantai", "amenity": "restaurant", "cuisine": "malay", "name": "Warung Rindu"}}, {"type": "node", "id": 4857134620, "lat": 3.0936422, "lon": 101.6694611, "tags": {"addr:city": "Kuala Lumpur", "addr:place": "Pantai Dalam", "amenity": "restaurant", "cuisine": "malay", "name": "D' Naim Nasi Kukus", "name:ms": "D' Naim Nasi Kukus", "opening_hours": "Mo-Sa 06:30-00:00; Su 06:30-24:00"}}, {"type": "node", "id": 4857134837, "lat": 3.1037627, "lon": 101.6654023, "tags": {"addr:city": "Kuala Lumpur", "addr:place": "Pantai Hillpark", "amenity": "restaurant", "cuisine": "mamak", "name": "Restoran Vargina"}}, {"type": "node", "id": 4890441703, "lat": 3.1046209, "lon": 101.6699855}, {"type": "node", "id": 4890441704, "lat": 3.1047365, "lon": 101.670075}, {"type": "node", "id": 4894719022, "lat": 3.1185443, "lon": 101.6782036, "tags": {"amenity": "restaurant", "name": "Sushi Jiro", "name:en": "Sushi Jiro"}}, {"type": "node", "id": 4917971921, "lat": 3.1254498, "lon": 101.7102811, "tags": {"addr:housenumber": "174-5", "addr:street": "Jalan Sg Besi", "amenity": "restaurant", "name": "Fun Kee Bambok Noodle", "name:en": "Fun Kee Bambok Noodle"}}, {"type": "node", "id": 4922594092, "lat": 3.0673984, "lon": 101.6543054, "tags": {"addr:city": "Kuala Lumpur", "addr:place": "R&R KESAS Kinrara", "amenity": "restaurant", "cuisine": "satay", "name": "Sate Kajang Hj Samuri", "opening_hours": "11:00-00:15; Fr 16:00-00:15"}}, {"type": "node", "id": 4922594095, "lat": 3.0651179, "lon": 101.6616036, "tags": {"addr:city": "Kuala Lumpur", "addr:place": "R&R KESAS Awan Besar", "amenity": "restaurant", "cuisine": "satay", "name": "Sate Kajang Hj Samuri", "opening_hours": "11:00-00:15; Fr 16:00-00:15"}}, {"type": "node", "id": 4989957321, "lat": 3.0697269, "lon": 101.6950765, "tags": {"amenity": "restaurant", "cuisine": "korean", "name": "Mi Na Rae", "name:en": "Mi Na Rae", "name:ko": "\ubbf8\ub098\ub798"}}, {"type": "node", "id": 5105137225, "lat": 3.123682, "lon": 101.6896389, "tags": {"addr:street": "Lorong Yed Putra Kiri", "amenity": "restaurant", "cuisine": "chinese", "name": "Siu Siu Seputeh", "name:en": "Siu Siu Seputeh", "opening_hours": "Tu-Su 11:00-22:00"}}, {"type": "node", "id": 5184130015, "lat": 3.0980639, "lon": 101.6698573}, {"type": "node", "id": 5184130016, "lat": 3.0979218, "lon": 101.6698589}, {"type": "node", "id": 5184130017, "lat": 3.0979251, "lon": 101.6700063}, {"type": "node", "id": 5184130018, "lat": 3.0980622, "lon": 101.6700029}, {"type": "node", "id": 5200291072, "lat": 3.1047307, "lon": 101.6699087}, {"type": "node", "id": 5200291073, "lat": 3.1045632, "lon": 101.6699168}, {"type": "node", "id": 5200291074, "lat": 3.1047307, "lon": 101.6699542}, {"type": "node", "id": 5200291077, "lat": 3.1046065, "lon": 101.6699147}, {"type": "node", "id": 5200291078, "lat": 3.1048623, "lon": 101.6699019}, {"type": "node", "id": 5200291079, "lat": 3.1048645, "lon": 101.6700246}, {"type": "node", "id": 5200291080, "lat": 3.104734, "lon": 101.6700228}, {"type": "node", "id": 5226373060, "lat": 3.0683058, "lon": 101.6904539, "tags": {"amenity": "restaurant", "cuisine": "chinese", "name": "Soon Fatt"}}, {"type": "node", "id": 5248801641, "lat": 3.0692078, "lon": 101.6925363, "tags": {"amenity": "restaurant", "cuisine": "thai", "name": "Krathong"}}, {"type": "node", "id": 5314333121, "lat": 3.1229619, "lon": 101.7209749, "tags": {"amenity": "restaurant", "name": "Aenon The Health Kitchen", "name:en": "Aenon The Health Kitchen"}}, {"type": "node", "id": 5452312229, "lat": 3.1027167, "lon": 101.6829289, "tags": {"amenity": "restaurant", "cuisine": "breakfast", "name": "Gravy Baby", "opening_hours": "Mo-Su 07:00-22:00"}}, {"type": "node", "id": 5519956524, "lat": 3.0899508, "lon": 101.6899112, "tags": {"amenity": "restaurant", "name": "Dim Sum", "name:en": "Dim Sum"}}, {"type": "node", "id": 5536399455, "lat": 3.0613853, "lon": 101.6761762, "tags": {"addr:city": "Kuala Lumpur", "addr:housenumber": "Block 6, No. 5", "addr:postcode": "57000", "addr:street": "Jalan Jalil Perkasa 14", "amenity": "restaurant", "cuisine": "chinese", "name": "Restaurant Tasty Wok", "opening_hours": "Mo-Su 11:00-23:00", "outdoor_seating": "yes", "smoking": "outside", "takeaway": "no"}}, {"type": "node", "id": 5596043628, "lat": 3.1243265, "lon": 101.6741824, "tags": {"addr:city": "Kuala Lumpur", "addr:housenumber": "29-05", "addr:street": "Jalan Riong", "amenity": "restaurant", "check_date": "2023-11-12", "cuisine": "breakfast", "level": "0", "name": "Breakfast Thieves APW Bangsar", "name:en": "Breakfast Thieves", "opening_hours": "Mo-Su 09:00-22:00", "outdoor_seating": "yes", "payment:cash": "yes", "payment:mastercard": "yes", "payment:visa": "yes", "smoking": "outside", "takeaway": "yes", "website": "https://breakfastthieves.com"}}, {"type": "node", "id": 5665424354, "lat": 3.1186986, "lon": 101.6771962}, {"type": "node", "id": 5793715353, "lat": 3.1224478, "lon": 101.6711392, "tags": {"amenity": "restaurant", "name": "N97"}}, {"type": "node", "id": 5875469486, "lat": 3.0679494, "lon": 101.6913045, "tags": {"amenity": "restaurant", "diet:vegetarian": "yes", "name": "Imperial Art Cottage"}}, {"type": "node", "id": 6067977585, "lat": 3.118256, "lon": 101.6765064, "tags": {"amenity": "restaurant", "name": "define:food"}}, {"type": "node", "id": 6067998287, "lat": 3.1186119, "lon": 101.6780282, "tags": {"addr:housenumber": "#l3", "amenity": "restaurant", "cuisine": "burger", "name": "NY Burger co"}}, {"type": "node", "id": 6138428271, "lat": 3.0896945, "lon": 101.685905, "tags": {"amenity": "restaurant", "name": "Basil Pasta", "opening_hours": "Mo, We-Fr 12:00-15:00, 16:00-22:00; Sa, Su 16:00-22:00"}}, {"type": "node", "id": 6138428986, "lat": 3.1024877, "lon": 101.6851099, "tags": {"addr:unit": "G-OS-03", "amenity": "restaurant", "cuisine": "western", "diet:meat": "yes", "level": "0", "name": "Meat Attic", "opening_hours": "11:00\u201315:00,17:30\u201322:00", "phone": "+60165793661", "website": "https://meatattic.com/"}}, {"type": "node", "id": 6158506375, "lat": 3.0999714, "lon": 101.676739, "tags": {"alt_name": "Kimi-Ya", "amenity": "restaurant", "check_date": "2025-10-31", "contact:facebook": "https://www.facebook.com/KimiYa.Malaysia/", "contact:phone": "+60132393406", "cuisine": "japanese", "name": "KIMIYA @ Avantas Residences", "name:en": "KIMIYA @ Avantas Residences", "opening_hours": "Mo-Th 12:00-15:00,18:00-22:00; Fr-Sa 11:30-15:00,18:00-23:00; Su 11:30-15:00,17:30-23:00"}}, {"type": "node", "id": 6158521630, "lat": 3.0925145, "lon": 101.6847639, "tags": {"amenity": "restaurant", "cuisine": "thai", "level": "0", "name": "Baan Thai", "name:en": "Baan Thai", "opening_hours": "Mo-Su 13:00-23:00", "outdoor_seating": "yes", "phone": "+60183153323", "website": "https://baanthaimalaysia.com/"}}, {"type": "node", "id": 6174784914, "lat": 3.1057306, "lon": 101.6780196, "tags": {"amenity": "restaurant", "name": "Masha Hir", "name:ms": "Masha Hir"}}, {"type": "node", "id": 6174785989, "lat": 3.070459, "lon": 101.6930205, "tags": {"amenity": "restaurant", "cuisine": "korean", "facebook": "https://www.facebook.com/bulgogihousesripetaling", "name": "Bugolgi House"}}, {"type": "node", "id": 6189843321, "lat": 3.1062494, "lon": 101.6789455, "tags": {"amenity": "restaurant", "cuisine": "japanese", "name": "Nihon Kai", "name:en": "Nihon Kai", "opening_hours": "12:00-15:00,18:00-22:00", "website": "https://www.nihonkaijapanese.com/"}}, {"type": "node", "id": 6195318770, "lat": 3.1096206, "lon": 101.6780243, "tags": {"amenity": "restaurant", "contact:website": "http://www.mitasu.com.my/", "cuisine": "japanese", "name": "Mitasu", "opening_hours": "12:00-15:00,18:00-22:00", "phone": "+60379718878"}}, {"type": "node", "id": 6197047195, "lat": 3.1041172, "lon": 101.6776145, "tags": {"amenity": "restaurant"}}, {"type": "node", "id": 6212798685, "lat": 3.0856258, "lon": 101.658746, "tags": {"amenity": "restaurant", "cuisine": "indian", "name": "Lankan Cafe"}}, {"type": "node", "id": 6215194731, "lat": 3.0856714, "lon": 101.657592, "tags": {"amenity": "restaurant", "cuisine": "international", "name": "Five Cafe"}}, {"type": "node", "id": 6223130354, "lat": 3.0855657, "lon": 101.6529316, "tags": {"amenity": "restaurant", "cuisine": "indian", "name": "Masala Wheels"}}, {"type": "node", "id": 6227302387, "lat": 3.0671063, "lon": 101.6907289, "tags": {"addr:housenumber": "140", "addr:postcode": "57000", "addr:street": "Jalan Radin Anum 1", "amenity": "restaurant", "cuisine": "chinese", "name": "Clan Dimsum Restaurant", "opening_hours": "24/7", "phone": "019-382 5455"}}, {"type": "node", "id": 6270038801, "lat": 3.1242996, "lon": 101.6849524, "tags": {"amenity": "restaurant", "name": "Robson Heights Seafood"}}, {"type": "node", "id": 6521656285, "lat": 3.0678632, "lon": 101.6863487, "tags": {"addr:housenumber": "33", "addr:postcode": "57000", "addr:street": "Jalan 1/149j", "amenity": "restaurant", "cuisine": "chinese", "name": "Restoran 83", "name:zh": "\u6d77\u9bae\u98ef\u5e97", "opening_hours": "Fr-We 17:00-03:00"}}, {"type": "node", "id": 6582795495, "lat": 3.0713322, "lon": 101.6921717, "tags": {"amenity": "restaurant", "cuisine": "asian;malaysian", "name": "Crazy Kopitiam"}}, {"type": "node", "id": 6583174887, "lat": 3.0711252, "lon": 101.6922322, "tags": {"amenity": "restaurant", "cuisine": "asian;korean", "name": "Uncle Jang"}}, {"type": "node", "id": 6687808085, "lat": 3.0778326, "lon": 101.6807996, "tags": {"amenity": "restaurant", "name": "Zen n Co"}}, {"type": "node", "id": 7050860575, "lat": 3.0906265, "lon": 101.7023833}, {"type": "node", "id": 7050860576, "lat": 3.090507, "lon": 101.7024262}, {"type": "node", "id": 7050860577, "lat": 3.0904496, "lon": 101.7022657}, {"type": "node", "id": 7050860578, "lat": 3.0905691, "lon": 101.7022229}, {"type": "node", "id": 7051743595, "lat": 3.0892796, "lon": 101.7069785}, {"type": "node", "id": 7051743596, "lat": 3.0891802, "lon": 101.7070647}, {"type": "node", "id": 7051743597, "lat": 3.0890576, "lon": 101.7069259}, {"type": "node", "id": 7051743598, "lat": 3.0891306, "lon": 101.7068625}, {"type": "node", "id": 7051743599, "lat": 3.0891837, "lon": 101.7068649}, {"type": "node", "id": 7051743600, "lat": 3.0891521, "lon": 101.7070721}, {"type": "node", "id": 7051743601, "lat": 3.0890636, "lon": 101.7071469}, {"type": "node", "id": 7051743602, "lat": 3.0889555, "lon": 101.7070188}, {"type": "node", "id": 7051743603, "lat": 3.089044, "lon": 101.7069439}, {"type": "node", "id": 7054366823, "lat": 3.0893114, "lon": 101.7070172}, {"type": "node", "id": 7054366824, "lat": 3.0892137, "lon": 101.7071016}, {"type": "node", "id": 7054366942, "lat": 3.0905665, "lon": 101.7074221}, {"type": "node", "id": 7054366943, "lat": 3.0903189, "lon": 101.7074434}, {"type": "node", "id": 7054366944, "lat": 3.0903126, "lon": 101.7073697}, {"type": "node", "id": 7054366945, "lat": 3.0905602, "lon": 101.7073484}, {"type": "node", "id": 7058153108, "lat": 3.0915607, "lon": 101.7018528}, {"type": "node", "id": 7058153109, "lat": 3.0915295, "lon": 101.7019981}, {"type": "node", "id": 7058153110, "lat": 3.0914566, "lon": 101.7019828}, {"type": "node", "id": 7058153111, "lat": 3.0914876, "lon": 101.7018372}, {"type": "node", "id": 7058153115, "lat": 3.0915071, "lon": 101.7019931}, {"type": "node", "id": 7058153116, "lat": 3.0915492, "lon": 101.7019082}, {"type": "node", "id": 7058153129, "lat": 3.091879, "lon": 101.7018122}, {"type": "node", "id": 7058153130, "lat": 3.0918558, "lon": 101.7018759}, {"type": "node", "id": 7058153131, "lat": 3.0916773, "lon": 101.7018106}, {"type": "node", "id": 7058153132, "lat": 3.0917005, "lon": 101.701747}, {"type": "node", "id": 7058173982, "lat": 3.0883332, "lon": 101.7027066}, {"type": "node", "id": 7058173983, "lat": 3.0880463, "lon": 101.7028275}, {"type": "node", "id": 7058173984, "lat": 3.0880261, "lon": 101.7027797}, {"type": "node", "id": 7058173985, "lat": 3.0883131, "lon": 101.7026587}, {"type": "node", "id": 7058174026, "lat": 3.0885264, "lon": 101.7019267}, {"type": "node", "id": 7058174027, "lat": 3.0884844, "lon": 101.7019692}, {"type": "node", "id": 7058174028, "lat": 3.0882914, "lon": 101.7017776}, {"type": "node", "id": 7058174029, "lat": 3.0883334, "lon": 101.7017352}, {"type": "node", "id": 7063534167, "lat": 3.0880505, "lon": 101.7020416}, {"type": "node", "id": 7063534168, "lat": 3.087868, "lon": 101.7021186}, {"type": "node", "id": 7063534169, "lat": 3.0880299, "lon": 101.7019899}, {"type": "node", "id": 7063534170, "lat": 3.0878458, "lon": 101.7020668}, {"type": "node", "id": 7245217286, "lat": 3.0841409, "lon": 101.6615239, "tags": {"amenity": "restaurant", "cuisine": "japanese;ramen;sushi", "name": "TAC Yakitori", "name:en": "TAC Yakitori"}}, {"type": "node", "id": 7255579318, "lat": 3.0896675, "lon": 101.6878158, "tags": {"amenity": "restaurant", "cuisine": "mamak", "name": "Restoran Kayu Manis", "source:name": "mapillary"}}, {"type": "node", "id": 7281498703, "lat": 3.0987363, "lon": 101.6870987, "tags": {"amenity": "restaurant", "cuisine": "chinese", "name": "Leong Ya Kitchen"}}, {"type": "node", "id": 7322112914, "lat": 3.102012, "lon": 101.6848186, "tags": {"addr:unit": "G14;G15", "amenity": "restaurant", "cuisine": "malaysian", "level": "0", "name": "Tradisi Kopitiam", "phone": "+60379718889"}}, {"type": "node", "id": 7322118142, "lat": 3.1017448, "lon": 101.6848496, "tags": {"addr:unit": "G12A", "amenity": "restaurant", "level": "0", "name": "La Juicera", "opening_hours": "Mo-Su 10:00-20:45", "organic": "yes", "outdoor_seating": "terrace", "phone": "+60379727727", "website": "https://lajuiceria.com.my/"}}, {"type": "node", "id": 7322119131, "lat": 3.1018789, "lon": 101.684925, "tags": {"addr:unit": "G11", "amenity": "restaurant", "level": "0", "name": "Wong Zhi Kopi", "opening_hours": "08:00-22:00"}}, {"type": "node", "id": 7455901127, "lat": 3.1069376, "lon": 101.6695734, "tags": {"addr:housenumber": "GM7.05 Pusat Perniagaan Bazaria Pantai Permai", "addr:street": "Jalan Pantai Permai 2", "amenity": "restaurant", "cuisine": "asian", "name": "Paya Goyang@Bazaria Nasi Lemak Hari Ini", "opening_hours": "Mo-Su 07:00-19:00", "phone": "+60196507118", "website": "https://www.payagoyang.com"}}, {"type": "node", "id": 7473806435, "lat": 3.1022996, "lon": 101.6851244, "tags": {"addr:unit": "G6", "amenity": "restaurant", "cuisine": "chinese", "level": "0", "name": "China Paradise", "name:zh": "\u4e5d\u5934\u9e1f", "opening_hours": "12:00\u201314:30,17:30\u201321:30", "phone": "+60379801185", "website": "https://www.zomato.com/kuala-lumpur/china-paradise-taman-desa"}}, {"type": "node", "id": 7596597972, "lat": 3.0951157, "lon": 101.6749201, "tags": {"amenity": "restaurant", "level": "0", "name": "Uncle Don's"}}, {"type": "node", "id": 7596625850, "lat": 3.0880146, "lon": 101.6813053, "tags": {"amenity": "restaurant", "name": "Little jungle coffee house"}}, {"type": "node", "id": 7629145811, "lat": 3.1192049, "lon": 101.6756997, "tags": {"addr:city": "Kuala Lumpur", "addr:housenumber": "Lot T-201B", "addr:postcode": "59200", "addr:street": "The Gardens Mall, Lingkaran Syed Putra, Mid Valley City", "amenity": "restaurant", "brand": "Beauty In The Pot", "cuisine": "chinese;hotpot", "email": "bitpgardens@paradisefnb.com.my", "level": "3", "name": "Beauty In The Pot", "opening_hours": "Mo-Su 11:00-22:00", "phone": "+60322011366", "reservation": "yes", "website": "https://beautyinthepot.com.my/", "wheelchair": "yes"}}, {"type": "node", "id": 7640942678, "lat": 3.0989687, "lon": 101.7125744, "tags": {"amenity": "restaurant", "name": "Q Bistro Nasi Kandar", "source": "https://www.mapillary.com/app/?pKey=V1Txj78kZiobV7XqpiTMER&focus=photo"}}, {"type": "node", "id": 7653640474, "lat": 3.0887796, "lon": 101.6889805, "tags": {"amenity": "restaurant", "cuisine": "chinese", "name": "Restoran Pedas Sedap", "name:zh": "\u706b\u8fa3\u8fa3\u7f8e\u98df\u8336\u9910\u5ba4", "source": "https://www.mapillary.com/app/?pKey=mVGayEkhYUDrsoMZXRvVeP&focus=photo"}}, {"type": "node", "id": 7880299485, "lat": 3.0918128, "lon": 101.6772252, "tags": {"amenity": "restaurant", "name": "Papasan (883) Canteen", "name:en": "Papasan (883) Canteen"}}, {"type": "node", "id": 7947765774, "lat": 3.1158985, "lon": 101.7008174}, {"type": "node", "id": 7947765775, "lat": 3.1160998, "lon": 101.7008815}, {"type": "node", "id": 7947765776, "lat": 3.1160756, "lon": 101.7009576}, {"type": "node", "id": 7947765777, "lat": 3.1161621, "lon": 101.7009851}, {"type": "node", "id": 7947765778, "lat": 3.1161873, "lon": 101.7009055}, {"type": "node", "id": 7947765779, "lat": 3.1163967, "lon": 101.7009718}, {"type": "node", "id": 7947765780, "lat": 3.1163743, "lon": 101.7010429}, {"type": "node", "id": 7947765781, "lat": 3.1165482, "lon": 101.7010977}, {"type": "node", "id": 7947765782, "lat": 3.1165566, "lon": 101.701071}, {"type": "node", "id": 7947765783, "lat": 3.1165857, "lon": 101.7010801}, {"type": "node", "id": 7947765784, "lat": 3.1165933, "lon": 101.7010554}, {"type": "node", "id": 7947765785, "lat": 3.1165648, "lon": 101.7010467}, {"type": "node", "id": 7947765786, "lat": 3.1165739, "lon": 101.7010169}, {"type": "node", "id": 7947765787, "lat": 3.116499, "lon": 101.7009942}, {"type": "node", "id": 7947765788, "lat": 3.1165032, "lon": 101.7009799}, {"type": "node", "id": 7947765789, "lat": 3.1164284, "lon": 101.7009577}, {"type": "node", "id": 7947765790, "lat": 3.1164523, "lon": 101.7008763}, {"type": "node", "id": 7947765791, "lat": 3.116393, "lon": 101.7008588}, {"type": "node", "id": 7947765792, "lat": 3.1164038, "lon": 101.7008215}, {"type": "node", "id": 7947765793, "lat": 3.1164483, "lon": 101.7008345}, {"type": "node", "id": 7947765794, "lat": 3.116473, "lon": 101.7007493}, {"type": "node", "id": 7947765795, "lat": 3.1164288, "lon": 101.7007365}, {"type": "node", "id": 7947765796, "lat": 3.11646, "lon": 101.7006284}, {"type": "node", "id": 7947765797, "lat": 3.1165153, "lon": 101.7006444}, {"type": "node", "id": 7947765798, "lat": 3.1165364, "lon": 101.7005708}, {"type": "node", "id": 7947765799, "lat": 3.1163575, "lon": 101.7005193}, {"type": "node", "id": 7947765800, "lat": 3.1163373, "lon": 101.7005898}, {"type": "node", "id": 7947765801, "lat": 3.1163576, "lon": 101.7005956}, {"type": "node", "id": 7947765802, "lat": 3.1163014, "lon": 101.7007923}, {"type": "node", "id": 7947765803, "lat": 3.1163928, "lon": 101.7008185}, {"type": "node", "id": 7947765804, "lat": 3.1163802, "lon": 101.7008627}, {"type": "node", "id": 7947765805, "lat": 3.1162617, "lon": 101.7008287}, {"type": "node", "id": 7947765806, "lat": 3.1163199, "lon": 101.7006251}, {"type": "node", "id": 7947765807, "lat": 3.1161651, "lon": 101.7005807}, {"type": "node", "id": 7947765808, "lat": 3.1161416, "lon": 101.7006629}, {"type": "node", "id": 7947765809, "lat": 3.1161609, "lon": 101.7006684}, {"type": "node", "id": 7947765810, "lat": 3.1161272, "lon": 101.7007862}, {"type": "node", "id": 7947765811, "lat": 3.1160637, "lon": 101.7007717}, {"type": "node", "id": 7947765812, "lat": 3.1161019, "lon": 101.7006651}, {"type": "node", "id": 7947765813, "lat": 3.1159611, "lon": 101.7006203}, {"type": "node", "id": 8045758386, "lat": 3.0613907, "lon": 101.7107606, "tags": {"amenity": "restaurant", "brand": "Pizza Hut", "brand:wikidata": "Q191615", "brand:wikipedia": "en:Pizza Hut", "cuisine": "pizza", "drive_through": "no", "name": "Pizza Hut", "source": "https://www.mapillary.com/app/?pKey=U1pWgBJqWGcQrEZIH2pTDg&focus=photo"}}, {"type": "node", "id": 8045758388, "lat": 3.0597756, "lon": 101.7107288, "tags": {"amenity": "restaurant", "level": "0", "name": "Padi House Lake Fields", "opening_hours": "08:00-21:30", "phone": "+60 12-701 7166", "website": "https://padihouse.com/"}}, {"type": "node", "id": 8046244081, "lat": 3.0600606, "lon": 101.6674258, "tags": {"amenity": "restaurant", "cuisine": "chinese;malaysian;hakka;dessert", "diet:non-vegetarian": "yes", "diet:vegetarian": "yes", "name": "T42"}}, {"type": "node", "id": 8058299177, "lat": 3.0599429, "lon": 101.7104111, "tags": {"amenity": "restaurant", "cuisine": "malay", "level": "0", "name": "Abah & Sons Co."}}, {"type": "node", "id": 8058299183, "lat": 3.0602259, "lon": 101.710123, "tags": {"amenity": "restaurant", "level": "0", "name": "The Soru Station"}}, {"type": "node", "id": 8058352786, "lat": 3.0604013, "lon": 101.7099258, "tags": {"amenity": "restaurant", "cuisine": "malay", "level": "0", "name": "Restoran Ammar Udang Galah"}}, {"type": "node", "id": 8058352789, "lat": 3.0605121, "lon": 101.7098103, "tags": {"amenity": "restaurant", "cuisine": "malay", "name": "Nasi Kak Wok Sg. Besi"}}, {"type": "node", "id": 8058352793, "lat": 3.0607397, "lon": 101.7095715, "tags": {"amenity": "restaurant", "cuisine": "indonesian", "name": "Restoran Ayam Gepuk Pak Gembus"}}, {"type": "node", "id": 8058488266, "lat": 3.0838522, "lon": 101.6822712, "tags": {"amenity": "restaurant", "cuisine": "chinese", "name": "Restoran San Kee"}}, {"type": "node", "id": 8058488268, "lat": 3.083491, "lon": 101.682288, "tags": {"amenity": "restaurant", "cuisine": "chinese", "name": "Restoran Fresh Fried Seafood"}}, {"type": "node", "id": 8058488269, "lat": 3.0845689, "lon": 101.6819687, "tags": {"amenity": "restaurant", "cuisine": "chinese", "name": "126 Kopitiam"}}, {"type": "node", "id": 8058492228, "lat": 3.0841488, "lon": 101.6807422, "tags": {"amenity": "restaurant", "cuisine": "chinese", "name": "Restoran Lim Sheng Claypot Chicken Rice"}}, {"type": "node", "id": 8058528656, "lat": 3.0834016, "lon": 101.6753406, "tags": {"amenity": "restaurant", "cuisine": "chinese", "name": "Restoran Tai Kar Ho"}}, {"type": "node", "id": 8281058528, "lat": 3.1251445, "lon": 101.673248}, {"type": "node", "id": 8281058529, "lat": 3.1248218, "lon": 101.6736638}, {"type": "node", "id": 8281058530, "lat": 3.1246812, "lon": 101.6735543}, {"type": "node", "id": 8281058531, "lat": 3.125004, "lon": 101.6731386}, {"type": "node", "id": 8401626068, "lat": 3.1073667, "lon": 101.6532845, "tags": {"addr:street": "Jalan Gasing", "amenity": "restaurant", "cuisine": "italian", "name": "Fellini"}}, {"type": "node", "id": 8541513557, "lat": 3.1118647, "lon": 101.6681588, "tags": {"amenity": "restaurant", "name": "Ayam Penyet Best Station"}}, {"type": "node", "id": 8541853924, "lat": 3.1103103, "lon": 101.6672534, "tags": {"amenity": "restaurant", "cuisine": "spanish", "level": "0", "name": "Buena Brasa", "name:en": "Buena Brasa", "opening_hours": "Mo-Su 12:00-22:00"}}, {"type": "node", "id": 8541853925, "lat": 3.1103529, "lon": 101.6670684, "tags": {"amenity": "restaurant", "level": "0", "name": "Tom, Dick & Harry's", "name:en": "Tom, Dick & Harry's", "opening_hours": "Mo-Su 11:00-01:00"}}, {"type": "node", "id": 8541853926, "lat": 3.1103448, "lon": 101.6674262, "tags": {"amenity": "restaurant", "level": "0", "name": "The Public House", "name:en": "The Public House", "opening_hours": "Mo-Su 12:00-23:00"}}, {"type": "node", "id": 8541853927, "lat": 3.1103874, "lon": 101.668099, "tags": {"amenity": "restaurant", "level": "0", "name": "The Farm Foodcraft", "name:en": "The Farm Foodcraft", "opening_hours": "Mo-Su 10:00-22:00", "phone": "+601151779618", "website": "https://thefarmfoodcraft.co/"}}, {"type": "node", "id": 8541853928, "lat": 3.1102384, "lon": 101.6678423, "tags": {"amenity": "restaurant", "cuisine": "vietnamese", "level": "0", "name": "Rasa Viet", "name:en": "Rasa Viet", "opening_hours": "Mo-Su 10:00-22:00", "phone": "+60322421880", "website": "https://www.rasaviet.com/"}}, {"type": "node", "id": 8541853929, "lat": 3.1103176, "lon": 101.6677333, "tags": {"amenity": "restaurant", "cuisine": "italian", "level": "0", "name": "Portofino", "name:en": "Portofino", "opening_hours": "Mo-Su 10:30-23:00", "phone": "+60166979741", "website": "https://www.portofino.my/"}}, {"type": "node", "id": 8541853930, "lat": 3.110342, "lon": 101.6676903, "tags": {"amenity": "restaurant", "level": "0", "name": "Five O'clock", "name:en": "Five O'clock", "opening_hours": "Mo-Su 09:30-23:00", "phone": "+60172181734", "website": "https://www.portofino.my/"}}, {"type": "node", "id": 8541853936, "lat": 3.1108775, "lon": 101.6677933, "tags": {"amenity": "restaurant", "name": "Nyonya Tingkat Signature", "name:en": "Nyonya Tingkat Signature", "opening_hours": "Mo-Su 08:00-22:00", "phone": "+60322422255", "website": "https://www.nyonyatingkat.com.my/"}}, {"type": "node", "id": 8541853937, "lat": 3.110851, "lon": 101.6679475, "tags": {"amenity": "restaurant", "cuisine": "dutch", "level": "0.5", "name": "Koffie Craft", "name:en": "Koffie Craft - Dutch Restaurant & Caf\u00e9", "opening_hours": "Mo-Su 10:00-22:00", "phone": "+60350332135", "website": "http://www.koffiecraft.com/"}}, {"type": "node", "id": 8541853938, "lat": 3.1108487, "lon": 101.6680451, "tags": {"amenity": "restaurant", "cuisine": "malaysian", "level": "0.5", "name": "Ali, Muthu & Ah Hock", "name:en": "Ali, Muthu & Ah Hock", "opening_hours": "Mo-Su 08:00-22:00", "outdoor_seating": "yes", "phone": "+601137655695"}}, {"type": "node", "id": 8541853939, "lat": 3.1108739, "lon": 101.6676682, "tags": {"amenity": "restaurant", "level": "0.5", "name": "Take A Bow"}}, {"type": "node", "id": 8541853941, "lat": 3.1108565, "lon": 101.6673566, "tags": {"amenity": "restaurant", "level": "0.5", "name": "Tonkatsu", "name:en": "Tonkatsu"}}, {"type": "node", "id": 8541853942, "lat": 3.110853, "lon": 101.6672054, "tags": {"amenity": "restaurant", "cuisine": "korean", "level": "0.5", "name": "Oiso", "name:en": "Oiso"}}, {"type": "node", "id": 8541853943, "lat": 3.1108552, "lon": 101.6671384, "tags": {"amenity": "restaurant", "level": "0.5", "name": "The Porki Culture", "name:en": "The Porki Culture"}}, {"type": "node", "id": 8541853944, "lat": 3.1108533, "lon": 101.6670454, "tags": {"amenity": "restaurant", "level": "0.5", "name": "Home Noodle", "name:en": "Home Noodle"}}, {"type": "node", "id": 8541853946, "lat": 3.1105639, "lon": 101.6676135, "tags": {"amenity": "restaurant", "cuisine": "chinese", "level": "1", "name": "Oriental Treasure", "name:en": "Oriental Treasure", "opening_hours": "Mo-Su 10:00-23:00", "phone": "+60322422382", "website": "https://www.orientalrestaurants.com.my/"}}, {"type": "node", "id": 8956153909, "lat": 3.0909344, "lon": 101.6900592, "tags": {"amenity": "restaurant", "cuisine": "taiwanese", "name": "Ninth Hill", "name:en": "Ninth Hill", "name:zh": "\u4e5d\u4efd\u5c71\u57ce", "name:zh-Hans": "\u4e5d\u4efd\u5c71\u57ce", "name:zh-Hant": "\u4e5d\u4efd\u5c71\u57ce", "source": "https://www.mapillary.com/app/?pKey=1001359207288435&focus=photo"}}, {"type": "node", "id": 8979235096, "lat": 3.0826755, "lon": 101.7044727, "tags": {"amenity": "restaurant", "cuisine": "chinese", "name": "Kopitiam 95 Desa Petaling", "name:zh": "\u4e5d\u4e94\u81f3\u5c0a\u767d\u5496\u5561\u7f8e\u98df\u9986", "source": "https://www.mapillary.com/app/?pKey=199746498665067&focus=photo"}}, {"type": "node", "id": 8997597482, "lat": 3.0700748, "lon": 101.6922122, "tags": {"addr:city": "Bandar Baru Sri Petaling", "addr:housenumber": "21", "addr:postcode": "57000", "addr:street": "Jalan Radin Bagus 7", "amenity": "restaurant", "cuisine": "chinese;pork;seafood;dim_sum;cantonese", "name": "Restaurant Ba Hao Dim Sum 8\u865f\u9ede\u5fc3", "opening_hours": "Mo-Su 07:30-15:30", "phone": "03-9054 4646"}}, {"type": "node", "id": 8997597483, "lat": 3.0713724, "lon": 101.6931166, "tags": {"amenity": "restaurant"}}, {"type": "node", "id": 9295841548, "lat": 3.1181705, "lon": 101.6616679}, {"type": "node", "id": 9295841554, "lat": 3.1181612, "lon": 101.6617021}, {"type": "node", "id": 9426811720, "lat": 3.0694827, "lon": 101.6942036, "tags": {"amenity": "restaurant", "contact:facebook": "https://www.facebook.com/Jojo-Little-Kitchen-184829882908/", "cuisine": "noodle", "name": "Jojo Little Kitchen"}}, {"type": "node", "id": 9496990246, "lat": 3.0696876, "lon": 101.7011069, "tags": {"amenity": "restaurant", "cuisine": "chinese", "name": "Restoran New Wing Hup", "source": "https://www.mapillary.com/app/?pKey=215228293941926&focus=photo"}}, {"type": "node", "id": 9504813645, "lat": 3.1017015, "lon": 101.6848341, "tags": {"addr:unit": "G13", "amenity": "restaurant", "cuisine": "japanese;chinese", "level": "0", "name": "Teppan Sakaba \u9244\u677f\u8089\u9152\u5834", "opening_hours": "12:30\u201315:00,17:00\u201322:30", "outdoor_seating": "terrace", "phone": "+60379717678", "website": "https://izakayagroup.com/"}}, {"type": "node", "id": 9646411452, "lat": 3.0633234, "lon": 101.7101468, "tags": {"amenity": "restaurant", "name": "Restoran Phuket Seafood"}}, {"type": "node", "id": 9812086018, "lat": 3.067968, "lon": 101.6906733, "tags": {"addr:street": "Jalan Radin Anum 2", "amenity": "restaurant", "cuisine": "chinese", "diet:vegetarian": "yes", "name": "Veggies World Cafe"}}, {"type": "node", "id": 10187555841, "lat": 3.1245754, "lon": 101.7109843, "tags": {"amenity": "restaurant", "name": "Rocket Pizza", "name:en": "Rocket Pizza"}}, {"type": "node", "id": 10187555842, "lat": 3.1247431, "lon": 101.7112654, "tags": {"amenity": "restaurant", "name": "Joy Florist Cafe", "name:en": "Joy Florist Cafe"}}, {"type": "node", "id": 10219557017, "lat": 3.1141198, "lon": 101.7221243, "tags": {"amenity": "restaurant", "name": "Dai Ka Song Kopitiam (chines tasty food)"}}, {"type": "node", "id": 10220082231, "lat": 3.0943282, "lon": 101.6747438, "tags": {"amenity": "restaurant", "name": "Tangkak Kopitiam", "name:ms": "Tangkak Kopitiam"}}, {"type": "node", "id": 10237205703, "lat": 3.1024217, "lon": 101.684342, "tags": {"amenity": "restaurant", "cuisine": "chinese", "name": "San Hao - Wonton and dumplings", "opening_hours": "Mo, Tu, Th-Su 07:00-16:30", "outdoor_seating": "yes", "phone": "+60175156493"}}, {"type": "node", "id": 10237496504, "lat": 3.1006076, "lon": 101.6871143, "tags": {"amenity": "restaurant", "level": "1", "name": "The Lion Of Punjab"}}, {"type": "node", "id": 10237512917, "lat": 3.1019936, "lon": 101.6849467, "tags": {"addr:unit": "113", "amenity": "restaurant", "cuisine": "phillipino", "level": "1", "name": "de Manila Cafe", "opening_hours": "Mo-Su 10:00-22:00", "outdoor_seating": "no", "phone": "+60163528488", "website": "https://de-manila-cafe.business.site/"}}, {"type": "node", "id": 10237569418, "lat": 3.0999934, "lon": 101.6864918, "tags": {"amenity": "restaurant", "cuisine": "chinese", "name": "Choy Jee Hong Kong Roasted"}}, {"type": "node", "id": 10239474750, "lat": 3.1005782, "lon": 101.6869199, "tags": {"addr:housenumber": "7-1-1", "amenity": "restaurant", "cuisine": "korean", "level": "1", "name": "Nak Won", "opening_hours": "Mo-Su 11:00-23:00"}}, {"type": "node", "id": 10239474752, "lat": 3.1004095, "lon": 101.6869106, "tags": {"amenity": "restaurant", "diet:vegetarian": "yes", "name": "theLocal Kopi Malaya", "old_name": "Kuchabe", "phone": "+601137383693"}}, {"type": "node", "id": 10239474757, "lat": 3.0999925, "lon": 101.6869062, "tags": {"amenity": "restaurant", "cuisine": "thai", "name": "Thai Luck", "opening_hours": "Mo-Su 11:00-21:30"}}, {"type": "node", "id": 10239474758, "lat": 3.1000482, "lon": 101.6870787, "tags": {"amenity": "restaurant", "name": "Wineknot", "opening_hours": "Mo-Su 12:00-24:00"}}, {"type": "node", "id": 10239474760, "lat": 3.1001533, "lon": 101.6870745, "tags": {"amenity": "restaurant", "facebook": "https://www.facebook.com/mr.coffee.my", "name": "Mr. Coffee", "opening_hours": "Mo-Su 07:30-17:30", "phone": "+60124512151"}}, {"type": "node", "id": 10239474767, "lat": 3.1005682, "lon": 101.6874753, "tags": {"amenity": "restaurant", "level": "1", "name": "Eatomo", "opening_hours": "Mo-Su 11:00-21:30", "website": "eatomo"}}, {"type": "node", "id": 10239474770, "lat": 3.1003388, "lon": 101.6874699, "tags": {"amenity": "restaurant", "cuisine": "western", "level": "0", "name": "Sharing", "opening_hours": "Mo-Su 11:00-21:30", "phone": "+60174743288"}}, {"type": "node", "id": 10239474805, "lat": 3.0995656, "lon": 101.686496, "tags": {"amenity": "restaurant", "cuisine": "chinese", "name": "Good Taste", "name:zh": "\u91d1\u8a18\u597d\u597d\u98df\u4e91\u541e\u9762\u5bb6", "opening_hours": "Mo-Su 08:00-20:00"}}, {"type": "node", "id": 10239474811, "lat": 3.0990247, "lon": 101.6864818, "tags": {"amenity": "restaurant", "cuisine": "noodle", "level": "0", "name": "Face To Face Noodle House", "opening_hours": "Mo-Su 09:15-21:00", "phone": "+60323034790", "website": "https://www.facetoface.com.my/"}}, {"type": "node", "id": 10239474842, "lat": 3.0995006, "lon": 101.6868984, "tags": {"amenity": "restaurant", "cuisine": "noodle", "name": "Shaan Xi Noodle House"}}, {"type": "node", "id": 10239474843, "lat": 3.0994343, "lon": 101.6869029, "tags": {"amenity": "restaurant", "cuisine": "taiwanese", "name": "Taiwan Braised Pork Rice & Dessert"}}, {"type": "node", "id": 10239474846, "lat": 3.0991972, "lon": 101.6868933, "tags": {"amenity": "restaurant", "name": "Choy kee Hong Kong Roasted"}}, {"type": "node", "id": 10239557103, "lat": 3.0994805, "lon": 101.6870578, "tags": {"amenity": "restaurant", "name": "Yitcha Kawkaw"}}, {"type": "node", "id": 10239557108, "lat": 3.0991213, "lon": 101.6870532, "tags": {"amenity": "restaurant", "name": "18g Private Kitchen & Wine", "opening_hours": "Mo-Sa 16:00-24:00", "phone": "+60122897023"}}, {"type": "node", "id": 10239572951, "lat": 3.0987353, "lon": 101.6870386, "tags": {"amenity": "restaurant", "cuisine": "thai", "name": "Rayung Thai", "opening_hours": "Mo-Su 12:00-22:30"}}, {"type": "node", "id": 10239572994, "lat": 3.0983328, "lon": 101.6870875, "tags": {"amenity": "restaurant", "cuisine": "chinese", "name": "Wong Seng Kitchen", "name:zh": "\u7687\u57ce\u5c0f\u53a8", "opening_hours": "10:30-15:00,17:00-22:00", "phone": "+60164266296"}}, {"type": "node", "id": 10239572996, "lat": 3.0983348, "lon": 101.6869723, "tags": {"amenity": "restaurant", "cuisine": "noodle", "name": "Auntie May Noodle House \u7f8e\u59d0\u9762\u94fa", "opening_hours": "Mo-Su 08:00-21:00"}}, {"type": "node", "id": 10239573001, "lat": 3.0983423, "lon": 101.6866097, "tags": {"amenity": "restaurant", "cuisine": "chinese", "diet:vegetarian": "only", "name": "Fan Cai Xiang"}}, {"type": "node", "id": 10269360109, "lat": 3.0713313, "lon": 101.6824871, "tags": {"addr:housenumber": "23", "addr:street": "Jalan 13/149L", "amenity": "restaurant", "diet:vegan": "yes", "name": "Loving Cafe"}}, {"type": "node", "id": 10288582410, "lat": 3.1222826, "lon": 101.6534776}, {"type": "node", "id": 10610293651, "lat": 3.1014347, "lon": 101.684539, "tags": {"amenity": "restaurant", "name": "Norisah Selera Desa"}}, {"type": "node", "id": 10610324294, "lat": 3.1015838, "lon": 101.6842314, "tags": {"amenity": "restaurant", "name": "Bilik Solat"}}, {"type": "node", "id": 10610332746, "lat": 3.1013379, "lon": 101.6846863, "tags": {"amenity": "restaurant", "name": "Desa Tom Yam"}}, {"type": "node", "id": 10744642277, "lat": 3.0987497, "lon": 101.6865795, "tags": {"amenity": "restaurant", "cuisine": "korean", "facebook": "https://m.facebook.com/pages/Restaurant-Seoul-Korea/219538124741576", "level": "1", "name": "Seoul Korea", "opening_hours": "Mo-Su 12:00-22:00", "phone": "+60123731176"}}, {"type": "node", "id": 10777140157, "lat": 3.1107539, "lon": 101.666996, "tags": {"amenity": "restaurant", "cuisine": "indian", "level": "1", "name": "Khan\u2019s Indian Cuisine", "name:en": "Khan\u2019s Indian Cuisine", "opening_hours": "Mo-Su 12:00-22:00", "outdoor_seating": "yes", "phone": "+60397794998", "website": "https://khans.com.my/"}}, {"type": "node", "id": 10795352545, "lat": 3.0828564, "lon": 101.7036885, "tags": {"addr:city": "Kuala Lumpur", "addr:housenumber": "16", "addr:postcode": "57100", "addr:street": "Jalan 9/125D", "amenity": "restaurant", "cuisine": "steak_house;chinese;asian", "name": "JH Toast House Desa Petaling", "phone": "+60103932329"}}, {"type": "node", "id": 10799699273, "lat": 3.0683564, "lon": 101.6921723, "tags": {"addr:city": "Kuala Lumpur", "addr:housenumber": "46", "addr:place": "Bandar Baru Sri Petaling", "addr:postcode": "57000", "addr:street": "Jalan Radin Tengah", "amenity": "restaurant", "cuisine": "chinese", "name": "Pak Hai Kopitiam", "name:zh": "\u5317\u6d77\u8336\u9910\u5ba4", "operator": "North Sea Sdn Bhd", "phone": "+60124939055"}}, {"type": "node", "id": 10833883164, "lat": 3.0896098, "lon": 101.6913405, "tags": {"amenity": "restaurant", "cuisine": "chinese", "name": "Restoran Leong Wei", "name:ms": "Restoran Leong Wei", "name:zh": "\u826f\u5a01\u8336\u9910\u5ba4", "name:zh-Hans": "\u826f\u5a01\u8336\u9910\u5ba4", "name:zh-Hant": "\u826f\u5a01\u8336\u9910\u5ba4"}}, {"type": "node", "id": 10836836841, "lat": 3.0628625, "lon": 101.7091724, "tags": {"amenity": "restaurant", "name": "AJ Bistro Cafe", "name:en": "AJ Bistro Cafe"}}, {"type": "node", "id": 10836836852, "lat": 3.0622119, "lon": 101.7094166, "tags": {"amenity": "restaurant", "name": "Restoran JJ Maju", "name:ms": "Restoran JJ Maju"}}, {"type": "node", "id": 10837591548, "lat": 3.0909515, "lon": 101.6870378, "tags": {"amenity": "restaurant", "cuisine": "hotpot;steamboat", "name": "Unique S Steamboat", "name:zh": "\u5929\u4e0b\u7121\u96d9", "operator": "Unique S Steamboat Sdn Bhd"}}, {"type": "node", "id": 10837591549, "lat": 3.0903852, "lon": 101.6868118, "tags": {"alt_name:zh": "\u751c\u54c1\u4e2d\u897f\u9910\u5385", "amenity": "restaurant", "cuisine": "dessert;chinese;western;hong_kong_style", "name": "togather", "name:zh": "\u8bb2\u996e\u8bb2\u98df"}}, {"type": "node", "id": 10837591550, "lat": 3.0896055, "lon": 101.6865498, "tags": {"amenity": "restaurant", "cuisine": "chinese", "name": "Da Miao Hotpot", "name:zh": "\u5927\u5999\u706b\u9505"}}, {"type": "node", "id": 10837591553, "lat": 3.0904062, "lon": 101.6871322, "tags": {"alt_name": "Restoran La Yu Zheng", "amenity": "restaurant", "cuisine": "chinese;bak_kut_teh;seafood", "name": "Gu Xiang Nong BKT Restaurant", "name:zh": "\u6545\u4e61\u6d53\u8089\u9aa8\u8336"}}, {"type": "node", "id": 10837591554, "lat": 3.0904567, "lon": 101.6865699, "tags": {"amenity": "restaurant", "cuisine": "chinese", "name": "Chicken Claypot House", "name:zh": "\u9e21\u7172\u4e4b\u5bb6"}}, {"type": "node", "id": 10914814828, "lat": 3.1223128, "lon": 101.653524}, {"type": "node", "id": 10914814829, "lat": 3.1222662, "lon": 101.6535544}, {"type": "node", "id": 10914814830, "lat": 3.122236, "lon": 101.6535081}, {"type": "node", "id": 11129856734, "lat": 3.0677601, "lon": 101.6921243, "tags": {"amenity": "restaurant", "cuisine": "chinese", "description": "All-you-can-eat for RM28.", "level": "1", "name": "Restoran Bufet Hotpot Cina", "outdoor_seating": "no"}}, {"type": "node", "id": 11152407534, "lat": 3.110674, "lon": 101.6858189, "tags": {"amenity": "restaurant", "cuisine": "salad;burger;pizza;dessert;sausage", "name": "Red Kettle", "opening_hours": "Mo-Su 11:00-22:00", "phone": "+60379880801", "website": "https://www.redkettle.com.my/"}}, {"type": "node", "id": 11193651214, "lat": 3.0711099, "lon": 101.6916061, "tags": {"amenity": "restaurant", "cuisine": "korean", "facebook": "https://www.facebook.com/midam.kl", "level": "1", "name": "Midam Korean Barbeque", "opening_hours": "Mo-Su 11:00-22:00", "outdoor_seating": "no", "phone": "+60390540677"}}, {"type": "node", "id": 11297378566, "lat": 3.0856048, "lon": 101.6900269, "tags": {"amenity": "restaurant", "name": "YZ Food Corner"}}, {"type": "node", "id": 11335014669, "lat": 3.1136934, "lon": 101.6632823, "tags": {"addr:postcode": "59200", "amenity": "restaurant", "cuisine": "italian_pizza;turkish", "email": "pidezza.klgatewaymall1@gmail.com", "internet_access": "wlan", "name": "PIDEZZA", "opening_hours": "Mo-Su 10:00-22:00", "phone": "+603-4820 9602", "website": "https://g.co/kgs/2xcNxu\n03-4820 9602\n\n https://g.co/kgs/2xcNxu"}}, {"type": "node", "id": 11363945021, "lat": 3.1187331, "lon": 101.6772357, "tags": {"addr:city": "Kuala Lumpur", "addr:housenumber": "Lot LG-013, LG Floor, Mid Valley Megamall", "addr:postcode": "59200", "addr:street": "Linkaran Syed Putra", "air_conditioning": "yes", "amenity": "restaurant", "branch": "Mid Valley Megamall branch of Bean Jr.", "cuisine": "dessert;snack", "description": "Bean Jr. Australian Cake House might be a mouthful to say, but it is a combination of two delicious brands under one roof! Enjoy tasty soy-based desserts and drinks such as soya milk, soy tofu and soy bingsu from Bean Jr., while Australian Cake house brin", "name": "Bean Jr.", "opening_hours": "Mo-Su 10:00-22:00", "outdoor_seating": "no", "payment:cash": "yes", "payment:credit_cards": "yes", "payment:debit_cards": "yes", "website": "https://www.facebook.com/beanjrmy/"}}, {"type": "node", "id": 11370483549, "lat": 3.1248862, "lon": 101.6733235}, {"type": "node", "id": 11370483550, "lat": 3.1249262, "lon": 101.6733621}, {"type": "node", "id": 11370483551, "lat": 3.1248642, "lon": 101.6734504}, {"type": "node", "id": 11370483552, "lat": 3.1248031, "lon": 101.6733973}, {"type": "node", "id": 11370483553, "lat": 3.1248693, "lon": 101.6733116}, {"type": "node", "id": 11370496117, "lat": 3.1250164, "lon": 101.6733035}, {"type": "node", "id": 11370496118, "lat": 3.1249322, "lon": 101.6732304}, {"type": "node", "id": 11370496119, "lat": 3.1247582, "lon": 101.6734552}, {"type": "node", "id": 11370496120, "lat": 3.1248483, "lon": 101.6735285}, {"type": "node", "id": 11395268528, "lat": 3.102705, "lon": 101.6779272, "tags": {"amenity": "restaurant", "cuisine": "japanese", "name": "Ishin", "phone": "+60379808228", "website": "http://ishin.my/"}}, {"type": "node", "id": 11396070002, "lat": 3.1181624, "lon": 101.6616692}, {"type": "node", "id": 11396070008, "lat": 3.1181893, "lon": 101.6618187}, {"type": "node", "id": 11396070017, "lat": 3.1181586, "lon": 101.6616851}, {"type": "node", "id": 11451776755, "lat": 3.1160763, "lon": 101.6686357, "tags": {"amenity": "restaurant", "name": "Pak Abu"}}, {"type": "node", "id": 11583707222, "lat": 3.0897047, "lon": 101.6740847, "tags": {"addr:city": "Kuala Lumpur", "addr:housenumber": "A-16", "addr:postcode": "58200", "addr:street": "Jalan Klang Lama", "amenity": "restaurant", "cuisine": "chinese", "name": "Restoran Sing Pao Dim Sum", "name:zh": "\u65b0\u5305\u5e97\u70b9\u5fc3", "opening_hours": "Mo-Su 17:00-02:30", "outdoor_seating": "sidewalk"}}, {"type": "node", "id": 11637407961, "lat": 3.0665022, "lon": 101.6591562, "tags": {"amenity": "restaurant", "name": "Nasi Kandar Hafiz Maju"}}, {"type": "node", "id": 11655564969, "lat": 3.1105173, "lon": 101.7094834, "tags": {"amenity": "restaurant", "cuisine": "chinese", "name": "Chan Sow Lin (Curry Mee)", "opening_hours": "Mo-Sa 07:00-13:00", "phone": "0183213606"}}, {"type": "node", "id": 11729279535, "lat": 3.0909488, "lon": 101.6788821, "tags": {"amenity": "restaurant", "cuisine": "chinese", "name": "Restoran Sin Chua Kee"}}, {"type": "node", "id": 11760216575, "lat": 3.1116142, "lon": 101.6681715, "tags": {"amenity": "restaurant", "name": "Umi Omakase"}}, {"type": "node", "id": 11921503736, "lat": 3.1106827, "lon": 101.6663335, "tags": {"amenity": "restaurant", "name": "Bo + co"}}, {"type": "node", "id": 11921503749, "lat": 3.1106999, "lon": 101.6662217, "tags": {"amenity": "restaurant", "name": "Botanica Deli"}}, {"type": "node", "id": 11958148012, "lat": 3.1023148, "lon": 101.6743117, "tags": {"amenity": "restaurant", "name": "Darwish Tomyam"}}, {"type": "node", "id": 11962181693, "lat": 3.113248, "lon": 101.6654244, "tags": {"amenity": "restaurant", "name": "An Nam Lush"}}, {"type": "node", "id": 11991210031, "lat": 3.1131902, "lon": 101.6650507, "tags": {"amenity": "restaurant", "name": "Kubis & Kale"}}, {"type": "node", "id": 12035320470, "lat": 3.1208851, "lon": 101.654063, "tags": {"amenity": "restaurant", "name": "Nasi Ayam Kunyit"}}, {"type": "node", "id": 12063680194, "lat": 3.0975821, "lon": 101.6744037, "tags": {"amenity": "restaurant", "name": "Nasi Kandar Langkawi"}}, {"type": "node", "id": 12064324198, "lat": 3.1217458, "lon": 101.717565, "tags": {"amenity": "restaurant", "name": "Restoran Miharja"}}, {"type": "node", "id": 12064324200, "lat": 3.1222067, "lon": 101.7175569, "tags": {"amenity": "restaurant", "name": "Restoran Evergreen Tree"}}, {"type": "node", "id": 12076280967, "lat": 3.114366, "lon": 101.681943, "tags": {"amenity": "restaurant", "name": "Seputeh Corner"}}, {"type": "node", "id": 12076281205, "lat": 3.1143716, "lon": 101.6823923, "tags": {"addr:housenumber": "14", "amenity": "restaurant", "name": "Kedai Kopi Jaya"}}, {"type": "node", "id": 12084946659, "lat": 3.0756736, "lon": 101.7112891, "tags": {"amenity": "restaurant"}}, {"type": "node", "id": 12088320889, "lat": 3.1121082, "lon": 101.6625232, "tags": {"amenity": "restaurant", "name": "Restoran Munah"}}, {"type": "node", "id": 12092974100, "lat": 3.1122117, "lon": 101.6629208, "tags": {"amenity": "restaurant", "name": "Warung Saffnur"}}, {"type": "node", "id": 12092992008, "lat": 3.1123584, "lon": 101.6626329, "tags": {"amenity": "restaurant", "name": "Kerinchi Food Corner"}}, {"type": "node", "id": 12096443110, "lat": 3.1168475, "lon": 101.6676358, "tags": {"amenity": "restaurant", "indoor_seating": "yes", "name": "Restoran Nabila Corner", "outdoor_seating": "no"}}, {"type": "node", "id": 12098291258, "lat": 3.1129279, "lon": 101.6634968, "tags": {"amenity": "restaurant", "name": "Ayam Goreng Kunyit Atok Chan"}}, {"type": "node", "id": 12112206621, "lat": 3.1151145, "lon": 101.6688026, "tags": {"amenity": "restaurant", "name": "Home Secrets Cafe"}}, {"type": "node", "id": 12112206625, "lat": 3.1151158, "lon": 101.6687632, "tags": {"amenity": "restaurant", "name": "Kafe Stars"}}, {"type": "node", "id": 12112206626, "lat": 3.1151351, "lon": 101.668386, "tags": {"amenity": "restaurant", "name": "The Servery"}}, {"type": "node", "id": 12122471399, "lat": 3.0937823, "lon": 101.6667333, "tags": {"amenity": "restaurant", "cuisine": "nasi_kandar;mamak", "name": "ABC Food Corner"}}, {"type": "node", "id": 12126035262, "lat": 3.1099164, "lon": 101.6692811, "tags": {"amenity": "restaurant", "name": "Pantai Arj Sweet"}}, {"type": "node", "id": 12151024110, "lat": 3.1092764, "lon": 101.6690691, "tags": {"amenity": "restaurant"}}, {"type": "node", "id": 12173951847, "lat": 3.1163386, "lon": 101.6679441, "tags": {"amenity": "restaurant", "name": "Pak Ya"}}, {"type": "node", "id": 12183342937, "lat": 3.1090209, "lon": 101.6695942, "tags": {"amenity": "restaurant", "name": "Tip Top Chicken Chop"}}, {"type": "node", "id": 12208454134, "lat": 3.0790819, "lon": 101.7182844, "tags": {"amenity": "restaurant", "name": "My red chilli"}}, {"type": "node", "id": 12215426883, "lat": 3.1098214, "lon": 101.6696288, "tags": {"amenity": "restaurant"}}, {"type": "node", "id": 12215426891, "lat": 3.109943, "lon": 101.6696696, "tags": {"amenity": "restaurant", "name": "Warung Kerinchi Nasi Campur"}}, {"type": "node", "id": 12218173327, "lat": 3.1097081, "lon": 101.6652971, "tags": {"amenity": "restaurant", "name": "Smores"}}, {"type": "node", "id": 12218173328, "lat": 3.1097002, "lon": 101.6649783, "tags": {"amenity": "restaurant", "cuisine": "japanese", "name": "Edo Ichi"}}, {"type": "node", "id": 12218173329, "lat": 3.1097111, "lon": 101.6651224, "tags": {"amenity": "restaurant", "name": "Si Si Nan Cun"}}, {"type": "node", "id": 12218173330, "lat": 3.1097075, "lon": 101.6656417, "tags": {"amenity": "restaurant", "name": "Hock Kee Kopitiam"}}, {"type": "node", "id": 12218173331, "lat": 3.1097156, "lon": 101.6652016, "tags": {"amenity": "restaurant", "cuisine": "japanese", "name": "Arigato"}}, {"type": "node", "id": 12230722580, "lat": 3.1254663, "lon": 101.6610998, "tags": {"amenity": "restaurant", "diet:halal": "yes", "name": "Mr. Bread & Waffel"}}, {"type": "node", "id": 12237474629, "lat": 3.1050234, "lon": 101.6772944, "tags": {"air_conditioning": "no", "amenity": "restaurant", "diet:halal": "yes", "diet:vegan": "yes", "diet:vegetarian": "yes", "name": "Spicy Hub", "opening_hours": "Mo-Su 07:00-23:00", "payment:credit_cards": "no", "payment:debit_cards": "no"}}, {"type": "node", "id": 12237474671, "lat": 3.1127494, "lon": 101.6782323, "tags": {"amenity": "restaurant", "cuisine": "chinese", "name": "Youmiqi Cuisine", "phone": "+60146807866", "website": "https://www.youmiqi.com.my/"}}, {"type": "node", "id": 12266554309, "lat": 3.079765, "lon": 101.6668185, "tags": {"amenity": "restaurant", "name": "Golden Spice Bistro"}}, {"type": "node", "id": 12269428626, "lat": 3.0753187, "lon": 101.6771864, "tags": {"amenity": "restaurant", "facebook": "https://www.facebook.com/Cook4U.my/", "name": "Cook4U-(\u6211\u6709\u996d\u5c40)", "phone": "+60173303810"}}, {"type": "node", "id": 12277687285, "lat": 3.056752, "lon": 101.704107, "tags": {"amenity": "restaurant", "name": "Kejap Food"}}, {"type": "node", "id": 12277980978, "lat": 3.1093751, "lon": 101.6704531, "tags": {"amenity": "restaurant"}}, {"type": "node", "id": 12277980984, "lat": 3.1090454, "lon": 101.6703104, "tags": {"amenity": "restaurant", "name": "Tom Yam Mek"}}, {"type": "node", "id": 12320001422, "lat": 3.1076813, "lon": 101.671836, "tags": {"amenity": "restaurant", "name": "ATF Tomyam"}}, {"type": "node", "id": 12351233590, "lat": 3.0806188, "lon": 101.6618465, "tags": {"amenity": "restaurant", "name": "Restoran Sentosa Jaya", "source": "bing streetside"}}, {"type": "node", "id": 12351233596, "lat": 3.0730603, "lon": 101.6519932, "tags": {"amenity": "restaurant", "name": "Nasi Kandar JMT", "source": "local knowledge"}}, {"type": "node", "id": 12401344092, "lat": 3.0843451, "lon": 101.682239, "tags": {"air_conditioning": "yes", "amenity": "restaurant", "cuisine": "chinese", "name": "Restoran Chok Kar Chong", "source": "Kartaview"}}, {"type": "node", "id": 12401344093, "lat": 3.0841309, "lon": 101.6818479}, {"type": "node", "id": 12401344094, "lat": 3.0840369, "lon": 101.681855}, {"type": "node", "id": 12401344095, "lat": 3.0840446, "lon": 101.6820044}, {"type": "node", "id": 12401344096, "lat": 3.0841373, "lon": 101.6819996}, {"type": "node", "id": 12443745686, "lat": 3.0880956, "lon": 101.6681361, "tags": {"amenity": "restaurant", "name": "Nasi Kerabu Moknab"}}, {"type": "node", "id": 12446094393, "lat": 3.1067069, "lon": 101.6786604, "tags": {"amenity": "restaurant", "cuisine": "chinese", "name": "Kedai Kopi Tai Choong"}}, {"type": "node", "id": 12460559392, "lat": 3.117502, "lon": 101.7097025, "tags": {"addr:city": "Kuala Lumpur", "addr:housenumber": "Wisma Trax", "addr:postcode": "55200", "addr:street": "Jalan Lima", "amenity": "restaurant", "contact:facebook": "https://www.facebook.com/thrive.kl/", "cuisine": "western", "internet_access": "wlan", "name": "Thrive KL Sky Dining", "opening_hours": "Mo-Su 14:00-02:00", "payment:app": "yes", "payment:cash": "yes", "payment:credit_cards": "yes", "payment:debit_cards": "yes", "payment:jcb": "yes", "payment:mastercard": "yes", "payment:visa": "yes", "phone": "+60173992920", "reservation": "recommended", "website": "https://bit.ly/ReservationsThriveKL", "website:menu": "https://drive.google.com/drive/folders/1nvmp_M7dLJI92j52MLTtzZnH8-AwcswL"}}, {"type": "node", "id": 12486375050, "lat": 3.1224262, "lon": 101.7132101, "tags": {"amenity": "restaurant"}}, {"type": "node", "id": 12497676146, "lat": 3.1122957, "lon": 101.7159634, "tags": {"amenity": "restaurant", "internet_access:ssid": "wlan", "name": "Al-Qawiy"}}, {"type": "node", "id": 12497709766, "lat": 3.1187314, "lon": 101.6772123}, {"type": "node", "id": 12497709767, "lat": 3.1187115, "lon": 101.6772551}, {"type": "node", "id": 12497709768, "lat": 3.1186778, "lon": 101.6772378}, {"type": "node", "id": 12497709769, "lat": 3.1187163, "lon": 101.6772049}, {"type": "node", "id": 12541561759, "lat": 3.0911855, "lon": 101.6757188}, {"type": "node", "id": 12541561760, "lat": 3.0911731, "lon": 101.6759156}, {"type": "node", "id": 12541561761, "lat": 3.091121, "lon": 101.6759123}, {"type": "node", "id": 12541561762, "lat": 3.0911334, "lon": 101.6757155}, {"type": "node", "id": 12558375786, "lat": 3.113579, "lon": 101.6619871, "tags": {"amenity": "restaurant", "name": "Restoran Hijas"}}, {"type": "node", "id": 12671270995, "lat": 3.099002, "lon": 101.6870471, "tags": {"amenity": "restaurant", "cuisine": "chinese", "name": "Bai Wei Kopitiam"}}, {"type": "node", "id": 12671302207, "lat": 3.1005203, "lon": 101.6874737, "tags": {"amenity": "restaurant", "cuisine": "italian", "level": "0", "name": "THEBIGPIG by ShanQuan", "opening_hours": "We-Sa 15:00-22:00", "phone": "+60138652113", "website": "https://www.thebigpig.org/"}}, {"type": "node", "id": 12671302489, "lat": 3.1001675, "lon": 101.686496, "tags": {"addr:city": "Kuala Lumpur", "addr:housenumber": "5-0-8", "addr:postcode": "58100", "addr:street": "Jalan 2/109F", "air_conditioning": "yes", "amenity": "restaurant", "cuisine": "hong_kong", "diet:chicken": "yes", "diet:meat": "yes", "level": "0", "name": "ah Muk Cha Chaan Teng \u963f\u6728\u51b0\u5ba4", "opening_hours": "Mo-Su 10:00-22:00", "phone": "+60340323295", "website": "https://www.facebook.com/ahmukchachaanteng"}}, {"type": "node", "id": 12736358703, "lat": 3.1100483, "lon": 101.6637762, "tags": {"amenity": "restaurant", "name": "Namaste India"}}, {"type": "node", "id": 12736358706, "lat": 3.1117045, "lon": 101.6622011, "tags": {"amenity": "restaurant", "name": "Tok Janggut Seafood"}}, {"type": "node", "id": 12736358709, "lat": 3.1097036, "lon": 101.6657171, "tags": {"amenity": "restaurant", "name": "Dulce Vida"}}, {"type": "node", "id": 12746012411, "lat": 3.1075256, "lon": 101.7053507, "tags": {"amenity": "restaurant", "brand": "Pizza Hut", "brand:wikidata": "Q191615", "cuisine": "pizza", "name": "Pizza Hut"}}, {"type": "node", "id": 12756825287, "lat": 3.0649033, "lon": 101.6505172, "tags": {"amenity": "restaurant", "cuisine": "mamak", "name": "Restoran Shaazry Maju Puchong"}}, {"type": "node", "id": 12758816082, "lat": 3.0900793, "lon": 101.6821345}, {"type": "node", "id": 12758816083, "lat": 3.0899127, "lon": 101.6821288}, {"type": "node", "id": 12758816084, "lat": 3.0898981, "lon": 101.6825568}, {"type": "node", "id": 12758816085, "lat": 3.0900647, "lon": 101.6825625}, {"type": "node", "id": 12782588146, "lat": 3.0894162, "lon": 101.688712, "tags": {"addr:city": "Kuala Lumpur", "addr:housenumber": "29-G", "addr:postcode": "58200", "addr:street": "Jalan Kuchai Maju 11", "amenity": "restaurant", "cuisine": "vietnamese", "name": "Lilly Nguyen Cafe @ Kuchai Lama", "opening_hours": "Mo-Su 10:00-01:00", "phone": "+60127718960"}}, {"type": "node", "id": 12912353501, "lat": 3.0674149, "lon": 101.694268, "tags": {"amenity": "restaurant", "name": "1. Restaurant Facai"}}, {"type": "node", "id": 12924972823, "lat": 3.0903519, "lon": 101.6868091, "tags": {"amenity": "restaurant", "cuisine": "thai;barbecue;hotpot", "level": "1", "name": "Bossku Mookata"}}, {"type": "node", "id": 12924972824, "lat": 3.0905802, "lon": 101.6859455, "tags": {"addr:city": "Kuala Lumpur", "addr:country": "MY", "addr:housenumber": "54", "addr:postcode": "58200", "addr:street": "Jalan Kuchai Maju 6", "addr:suburb": "Kuchai Lama", "amenity": "restaurant", "name": "Restoran Lai Lai Wang Wang", "name:zh": "\u6765\u6765\u5f80\u5f80\u996d\u9986", "phone": "+60 3-7988 0521"}}, {"type": "node", "id": 12924993633, "lat": 3.0909559, "lon": 101.6871397, "tags": {"amenity": "restaurant", "cuisine": "western;pasta;burger;steak", "name": "AnMour Cafe"}}, {"type": "node", "id": 12930724284, "lat": 3.0822721, "lon": 101.6723192, "tags": {"addr:housenumber": "65", "addr:street": "Jalan Mega Mendung", "amenity": "restaurant", "cuisine": "steak_house", "name": "Eleven Steak House"}}, {"type": "node", "id": 12944283101, "lat": 3.055885, "lon": 101.6689421, "tags": {"addr:postcode": "57000", "addr:street": "Jalan 14/115C", "amenity": "restaurant", "name": "Restaurant RBJ Curry House", "opening_hours": "24/7"}}, {"type": "node", "id": 12945120333, "lat": 3.1104148, "lon": 101.6779475, "tags": {"addr:city": "Kuala Lumpur", "addr:housenumber": "97", "addr:postcode": "58200", "addr:street": "Jalan Klang Lama", "amenity": "restaurant", "cuisine": "chinese", "diet:halal": "no", "name": "Restoran Meng Kee", "opening_hours": "Mo-Su 11:30-14:30, 17:30-21:00", "phone": "+60 12-962 2873"}}, {"type": "node", "id": 12945120336, "lat": 3.1107556, "lon": 101.6779283, "tags": {"addr:housenumber": "85", "amenity": "restaurant", "branch": "08", "cuisine": "hot_pot", "diet:halal": "no", "diet:pork": "yes", "name": "Ditan Hot Pot", "name:zh": "\u5730\u644a\u706b\u9505"}}, {"type": "node", "id": 13030777958, "lat": 3.1107199, "lon": 101.6678441, "tags": {"amenity": "restaurant", "name": "Salad Atelier"}}, {"type": "node", "id": 13197073230, "lat": 3.1016297, "lon": 101.6856804, "tags": {"amenity": "restaurant", "cuisine": "chinese", "name": "Da Qi", "opening_hours": "Mo-Su 11:00-20:00"}}, {"type": "node", "id": 13197073416, "lat": 3.1019106, "lon": 101.6855192, "tags": {"amenity": "restaurant", "cuisine": "chinese", "name": "Kampung TianFu", "name:en": "Tian Fu Fish Village", "name:zh": "\u5929\u5e9c\u6e14\u5e84"}}, {"type": "node", "id": 13249993601, "lat": 3.0687317, "lon": 101.6922363, "tags": {"addr:city": "Kuala Lumpur", "addr:housenumber": "51", "addr:postcode": "57000", "addr:street": "Jalan Radin Tengah", "amenity": "restaurant", "cuisine": "indian", "level": "0", "name": "BananaBro", "opening_hours": "Mo-Su 10:00-22:00", "phone": "+60122403279", "website": "https://www.bananabro.com.my/"}}, {"type": "node", "id": 13306075213, "lat": 3.1106555, "lon": 101.667165, "tags": {"addr:unit": "1-6", "amenity": "restaurant", "diet:organic": "yes", "level": "1", "name": "Agrain", "opening_hours": "11:00-15:30,17:00-21:00", "phone": "+60126805950"}}, {"type": "way", "id": 193158632, "nodes": [2036729075, 2036729036, 2036729058, 2036729146, 2036729075], "tags": {"addr:city": "Kuala Lumpur", "addr:housenumber": "41", "addr:postcode": "57000", "addr:street": "Jalan 16/155C", "amenity": "restaurant", "building": "yes", "cuisine": "asian;regional", "delivery": "no", "name": "Murni Discovery Bukit Jalil", "opening_hours": "Tu-Su 12:00-2:00", "outdoor_seating": "yes", "smoking": "outside", "takeaway": "yes"}}, {"type": "way", "id": 209162117, "nodes": [2193966657, 2193966410, 2193966584, 2036729007, 2036729039, 2193966657], "tags": {"amenity": "restaurant", "building": "yes", "cuisine": "indian;regional", "name": "Al-Barkath Bistro"}}, {"type": "way", "id": 358007022, "nodes": [3630581036, 11396070002, 9295841548, 3630581033, 3630581034, 11396070008, 3630581035, 9295841554, 11396070017, 3630581036], "tags": {"addr:city": "Kuala Lumpur", "addr:housenumber": "C05", "addr:postcode": "50603", "amenity": "restaurant", "building": "yes", "cuisine": "malaysian", "diet:halal": "yes", "name": "Q Bistro", "opening_hours": "Mo-Fr 07:00-19:00", "operator": "NRH Venture Sdn Bhd", "phone": "+60379318634"}}, {"type": "way", "id": 534596019, "nodes": [5184130015, 5184130016, 5184130017, 5184130018, 5184130015], "tags": {"addr:city": "Kuala Lumpur", "addr:place": "Pantai Dalam", "amenity": "restaurant", "building": "yes", "cuisine": "malay", "name": "Kak Nik Patin House", "name:en": "Kak Nik Patin House"}}, {"type": "way", "id": 536931435, "nodes": [5200291072, 5200291077, 5200291073, 4890441703, 4890441704, 5200291080, 5200291074, 5200291072], "tags": {"addr:city": "Kuala Lumpur", "addr:place": "Pantai Dalam", "amenity": "restaurant", "building": "yes", "cuisine": "malay", "name": "Restoran Nasi Ayam Pak Ayop", "name:ms": "Restoran Nasi Ayam Pak Ayop"}}, {"type": "way", "id": 536931437, "nodes": [5200291072, 5200291078, 5200291079, 5200291080, 5200291072], "tags": {"addr:city": "Kuala Lumpur", "addr:place": "Pantai Dalam", "amenity": "restaurant", "building": "yes", "cuisine": "malay", "name": "Restoran Asam Pedas Melaka Pak Kasim", "name:ms": "Restoran Asam Pedas Melaka Pak Kasim"}}, {"type": "way", "id": 754774326, "nodes": [7050860575, 7050860576, 7050860577, 7050860578, 7050860575], "tags": {"addr:housenumber": "24", "addr:street": "Jalan 1", "amenity": "restaurant", "building": "yes", "cuisine": "seafood", "name": "Restoran Lucky Seng Seafood", "name:ms": "Restoran Lucky Seng Seafood", "name:zh": "\u798f\u661f\u6d77\u9c9c\u996d\u5e97", "name:zh-Hans": "\u798f\u661f\u6d77\u9c9c\u996d\u5e97", "name:zh-Hant": "\u798f\u661f\u6d77\u9bae\u98ef\u5e97"}}, {"type": "way", "id": 754871897, "nodes": [7051743595, 7051743596, 7051743597, 7051743598, 7051743599, 7051743595], "tags": {"addr:housenumber": "290", "addr:street": "Jalan 13", "amenity": "restaurant", "building": "yes", "name": "Kedai Minuman Salak Selatan Baru", "name:ms": "Kedai Minuman Salak Selatan Baru", "name:zh": "\u6c99\u53fb\u79c0\u65b0\u6751\u7f8e\u98df\u4e2d\u5fc3", "name:zh-Hans": "\u6c99\u53fb\u79c0\u65b0\u6751\u7f8e\u98df\u4e2d\u5fc3", "name:zh-Hant": "\u6c99\u53fb\u79c0\u65b0\u6751\u7f8e\u98df\u4e2d\u5fc3"}}, {"type": "way", "id": 754871898, "nodes": [7051743600, 7051743601, 7051743602, 7051743603, 7051743600], "tags": {"addr:housenumber": "291", "addr:street": "Jalan 13", "amenity": "restaurant", "building": "yes", "name": "\u597d\u63fe\u5403\u4e91\u541e\u9762", "name:zh": "\u597d\u63fe\u5403\u4e91\u541e\u9762", "name:zh-Hans": "\u597d\u63fe\u5403\u4e91\u541e\u9762", "name:zh-Hant": "\u597d\u63fe\u5403\u96f2\u541e\u9762"}}, {"type": "way", "id": 755170459, "nodes": [7051743595, 7054366823, 7054366824, 7051743596, 7051743595], "tags": {"amenity": "restaurant", "building": "yes"}}, {"type": "way", "id": 755170488, "nodes": [7054366942, 7054366943, 7054366944, 7054366945, 7054366942], "tags": {"addr:housenumber": "17", "addr:street": "Jalan 22", "amenity": "restaurant", "building": "yes"}}, {"type": "way", "id": 755647891, "nodes": [7058153108, 7058153116, 7058153109, 7058153115, 7058153110, 7058153111, 7058153108], "tags": {"addr:housenumber": "7A", "addr:street": "Jalan 3", "amenity": "restaurant", "building": "yes", "name": "Kedai Makanan Pak Yoon", "name:ms": "Kedai Makanan Pak Yoon", "name:zh": "\u767d\u4e91\u996d\u5e97"}}, {"type": "way", "id": 755647897, "nodes": [7058153129, 7058153130, 7058153131, 7058153132, 7058153129], "tags": {"amenity": "restaurant", "building": "yes", "name": "Kedai Kopi Mee Lian", "name:zh": "\u7f8e\u8054\u8336\u5ba4"}}, {"type": "way", "id": 755647947, "nodes": [7058173982, 7058173983, 7058173984, 7058173985, 7058173982], "tags": {"amenity": "restaurant", "building": "yes", "name": "\u8001\u53cb\u8bb0\u8336\u9910\u5ba4", "name:zh": "\u8001\u53cb\u8bb0\u8336\u9910\u5ba4", "name:zh-Hans": "\u8001\u53cb\u8bb0\u8336\u9910\u5ba4", "name:zh-Hant": "\u8001\u53cb\u8a18\u8336\u9910\u5ba4"}}, {"type": "way", "id": 755647958, "nodes": [7058174026, 7058174027, 7058174028, 7058174029, 7058174026], "tags": {"amenity": "restaurant", "building": "yes", "name": "Restoran Ket Zai", "name:ms": "Restoran Ket Zai", "name:zh": "\u6770\u4ed4\u5bb6\u4e61\u5c0f\u98df\u996d\u5e97", "name:zh-Hans": "\u6770\u4ed4\u5bb6\u4e61\u5c0f\u98df\u996d\u5e97", "name:zh-Hant": "\u5091\u4ed4\u5bb6\u9109\u5c0f\u98df\u98ef\u5e97"}}, {"type": "way", "id": 756274763, "nodes": [7063534167, 7063534169, 7063534170, 7063534168, 7063534167], "tags": {"amenity": "restaurant", "building": "yes", "name": "Kedai Kopi King Peng", "name:ms": "Kedai Kopi King Peng", "name:zh": "\u5e86\u5e73\u8336\u5ba4", "name:zh-Hans": "\u5e86\u5e73\u8336\u5ba4", "name:zh-Hant": "\u6176\u5e73\u8336\u5ba4"}}, {"type": "way", "id": 852039996, "nodes": [7947765774, 7947765775, 7947765776, 7947765777, 7947765778, 7947765779, 7947765780, 7947765781, 7947765782, 7947765783, 7947765784, 7947765785, 7947765786, 7947765787, 7947765788, 7947765789, 7947765790, 7947765791, 7947765792, 7947765793, 7947765794, 7947765795, 7947765796, 7947765797, 7947765798, 7947765799, 7947765800, 7947765801, 7947765802, 7947765803, 7947765804, 7947765805, 7947765806, 7947765807, 7947765808, 7947765809, 7947765810, 7947765811, 7947765812, 7947765813, 7947765774], "tags": {"addr:city": "Kuala Lumpur", "addr:housenumber": "9", "addr:postcode": "50460", "addr:street": "Jalan Lapangan Terbang Lama", "amenity": "restaurant", "building": "retail", "building:levels": "1", "cuisine": "chinese;yong_tao_foo;malaysian;seafood;fish;local;drink", "name": "Ah Peng Yong Tao Foo KL Base", "name:zh": "\u4e9a\u670b\u917f\u8c46\u8150", "roof:shape": "gabled"}}, {"type": "way", "id": 890986895, "nodes": [8281058531, 8281058528, 8281058529, 8281058530, 11370496119, 11370483552, 11370483553, 11370496118, 8281058531], "tags": {"amenity": "restaurant", "building": "yes", "building:levels": "4"}}, {"type": "way", "id": 1174634880, "nodes": [10288582410, 10914814828, 10914814829, 10914814830, 10288582410], "tags": {"amenity": "restaurant", "building": "yes", "cuisine": "malaysian", "diet:halal": "yes", "name": "UMEC Foodbox", "name:en": "UMEC Foodbox", "smoking": "no", "wheelchair": "yes"}}, {"type": "way", "id": 1226132068, "nodes": [11370483549, 11370483550, 11370483551, 11370483552, 11370483553, 11370483549], "tags": {"addr:city": "Kuala Lumpur", "addr:postcode": "59100", "addr:street": "Jalan Tandok", "amenity": "restaurant", "building:part": "yes", "cuisine": "chinese;malaysian;indian;indonesian", "name": "Uncle Lim Delivery Bangsar", "website": "www.unclelimdelivery.com"}}, {"type": "way", "id": 1226133782, "nodes": [11370496117, 11370496118, 11370483553, 11370483552, 11370496119, 11370496120, 11370496117], "tags": {"addr:city": "Kuala Lumpur", "addr:postcode": "59100", "addr:street": "Jalan Tandok", "amenity": "restaurant", "building:part": "yes", "name": "Kitchen Co (Bangsar)"}}, {"type": "way", "id": 1340679593, "nodes": [12401344093, 12401344094, 12401344095, 12401344096, 12401344093], "tags": {"amenity": "restaurant", "building": "yes", "cuisine": "chinese", "name": "Bak Kut Teh", "source": "local knowledge"}}, {"type": "way", "id": 1350868037, "nodes": [12497709766, 12497709767, 12497709768, 5665424354, 12497709769, 12497709766], "tags": {"addr:city": "Kuala Lumpur", "addr:housenumber": "Lot G(E)-12", "addr:postcode": "59200", "addr:street": "Mid Valley Megamall", "air_conditioning": "yes", "amenity": "restaurant", "building:part": "yes", "cuisine": "mexican;tex-mex", "diet:meat": "yes", "name": "Chili's Grill & Bar", "opening_hours": "11:00-23:00", "phone": "+60322876788", "website": "https://chilis.com.my/"}}, {"type": "way", "id": 1355151829, "nodes": [12541561759, 12541561760, 12541561761, 12541561762, 12541561759], "tags": {"amenity": "restaurant", "building": "roof"}}, {"type": "way", "id": 1377945948, "nodes": [12758816082, 12758816083, 12758816084, 12758816085, 12758816082], "tags": {"amenity": "restaurant", "building": "yes", "name": "216 Food  Court"}}]}