{"version": 0.6, "generator": "Overpass API 0.7.62.8 e802775f", "osm3s": {"timestamp_osm_base": "2025-11-30T15:59:51Z", "copyright": "The data included in this document is from www.openstreetmap.org. The data is made available under ODbL."}, "elements": [{"type": "node", "id": 810154295, "lat": 3.1293103, "lon": 101.6710788, "tags": {"amenity": "restaurant", "brand": "Nando's", "brand:wikidata": "Q3472954", "brand:wikipedia": "en:Nando's", "cuisine": "chicken;portuguese", "name": "Nando's"}}, {"type": "node", "id": 1710044027, "lat": 3.1263507, "lon": 101.6888282, "tags": {"amenity": "restaurant"}}, {"type": "node", "id": 1710044050, "lat": 3.1261257, "lon": 101.6888416, "tags": {"amenity": "restaurant"}}, {"type": "node", "id": 1710044054, "lat": 3.1260748, "lon": 101.6887745, "tags": {"amenity": "restaurant"}}, {"type": "node", "id": 1710044102, "lat": 3.1264712, "lon": 101.6887397, "tags": {"amenity": "restaurant"}}, {"type": "node", "id": 1710044111, "lat": 3.1266158, "lon": 101.6886243, "tags": {"amenity": "restaurant"}}, {"type": "node", "id": 1888017936, "lat": 3.1282035, "lon": 101.6834589, "tags": {"amenity": "restaurant", "cuisine": "indian", "diet:vegan": "only", "diet:vegetarian": "only", "level": "0", "name": "Restoran Chat Masala", "toilets": "yes", "toilets:access": "permissive", "wheelchair": "limited"}}, {"type": "node", "id": 1888020101, "lat": 3.1295395, "lon": 101.6840433, "tags": {"addr:city": "Kuala Lumpur", "addr:postcode": "50470", "addr:street": "Jalan Tun Sambanthan", "addr:suburb": "Brickfields", "amenity": "restaurant", "cuisine": "indian", "level": "0", "name": "Sri Kortumalai Pillayar", "wheelchair": "yes"}}, {"type": "node", "id": 1888023455, "lat": 3.1310459, "lon": 101.6859131, "tags": {"addr:city": "Kuala Lumpur", "addr:housenumber": "196", "addr:postcode": "50470", "addr:street": "Jalan Tun Sambanthan", "amenity": "restaurant", "cuisine": "indian", "diet:vegan": "yes", "diet:vegetarian": "only", "name": "Saravanaa Bhavan", "opening_hours": "07:30-23:00", "phone": "+60 32260 3755", "website": "https://saravanabhavan.com/"}}, {"type": "node", "id": 2395718870, "lat": 3.1229095, "lon": 101.6758569, "tags": {"amenity": "restaurant", "cuisine": "indian", "name": "Muhibbah", "name:en": "Muhibbah"}}, {"type": "node", "id": 2395730871, "lat": 3.1289066, "lon": 101.6798362, "tags": {"addr:postcode": "59000", "addr:street": "Jalan Bangsar", "amenity": "restaurant", "brand": "Pizza Hut", "brand:wikidata": "Q191615", "brand:wikipedia": "en:Pizza Hut", "cuisine": "pizza", "name": "Pizza Hut", "source": "https://www.mapillary.com/app/?pKey=351722619819180&focus=photo"}}, {"type": "node", "id": 2457763403, "lat": 3.1226306, "lon": 101.6709369, "tags": {"addr:city": "Kuala Lumpur", "addr:housenumber": "19", "addr:postcode": "59100", "addr:street": "Lorong Kurau", "amenity": "restaurant", "cuisine": "indian", "name": "The Ganga Cafe", "note": "vegetarian", "source": "https://foursquare.com/v/ganga/4d4791db2165721eb046bed7"}}, {"type": "node", "id": 2678309347, "lat": 3.129561, "lon": 101.6710593, "tags": {"addr:housename": "Bangsar Village Shopping Center", "addr:housenumber": "G10", "addr:street": "Ground Floor", "amenity": "restaurant", "cuisine": "thai", "name": "Basil Thai Nudle Bar"}}, {"type": "node", "id": 2825690927, "lat": 3.130416, "lon": 101.6709763, "tags": {"amenity": "restaurant", "cuisine": "spanish", "name": "Cafe Deli by El Mes\u00f3n", "website": "https://www.elmeson.com.my/"}}, {"type": "node", "id": 2881828609, "lat": 3.1225022, "lon": 101.6711018, "tags": {"addr:city": "Kuala Lumpur", "addr:housenumber": "11", "addr:postcode": "59100", "addr:street": "Lorong Kurau", "amenity": "restaurant", "check_date": "2025-05-04", "check_date:currency:XBT": "2025-05-04", "contact:facebook": "babalowslorongkurau", "cuisine": "asian", "currency:XBT": "yes", "name": "Baba Low's Bangsar", "payment:lightning": "yes", "payment:lightning_contactless": "no", "payment:onchain": "yes", "phone": "+60 3 2284 8486"}}, {"type": "node", "id": 3014078795, "lat": 3.1106748, "lon": 101.6853508, "tags": {"addr:city": "Kuala Lumpur", "addr:housenumber": "25A", "addr:postcode": "58100", "addr:street": "Jalan Bukit Desa 5", "amenity": "restaurant", "cuisine": "japanese", "level": "1", "name": "Sanuki Udon", "opening_hours": "11:30-15:00,18:00-22:00; Mo off"}}, {"type": "node", "id": 3123929971, "lat": 3.1097603, "lon": 101.6661817, "tags": {"addr:city": "Kuala Lumpur", "addr:place": "Bangsar South", "amenity": "restaurant", "name": "Souled Out", "name:en": "Souled Out"}}, {"type": "node", "id": 3123929978, "lat": 3.1096664, "lon": 101.6647804, "tags": {"air_conditioning": "yes", "amenity": "restaurant", "cuisine": "thai", "name": "Streat Thai", "name:en": "Streat Thai"}}, {"type": "node", "id": 3823690764, "lat": 3.121022, "lon": 101.6756691, "tags": {"amenity": "restaurant", "cuisine": "indian", "name": "Suasana", "name:ms": "Suasana", "outdoor_seating": "yes"}}, {"type": "node", "id": 3830067753, "lat": 3.1230782, "lon": 101.6758556, "tags": {"amenity": "restaurant", "cuisine": "malay", "name": "Restoran Leeyas Corner", "name:ms": "Restoran Leeyas Corner"}}, {"type": "node", "id": 4111752189, "lat": 3.1301142, "lon": 101.6802111, "tags": {"amenity": "restaurant", "name": "Baba Low", "name:en": "Straightfood"}}, {"type": "node", "id": 4347131811, "lat": 3.1283381, "lon": 101.669392, "tags": {"amenity": "restaurant", "name": "Syed Bistro"}}, {"type": "node", "id": 4400862327, "lat": 3.1281222, "lon": 101.6828709, "tags": {"addr:city": "Kuala Lumpur", "addr:street": "Lengkok Tun Sambanthan", "addr:suburb": "Brickfields", "amenity": "restaurant", "cuisine": "indian", "name": "Naatamai Garden"}}, {"type": "node", "id": 4426355990, "lat": 3.1309367, "lon": 101.685723, "tags": {"addr:street": "Tun Sambathan", "amenity": "restaurant", "facebook": "https://www.facebook.com/indianspicesvillage", "name": "Sithique Nasi Kandar", "opening_hours": "Mo-Su 08:00-08:30"}}, {"type": "node", "id": 4511619289, "lat": 3.1273423, "lon": 101.6703294, "tags": {"amenity": "restaurant", "cuisine": "malaysian;curry;local;asian", "facebook": "https://m.facebook.com/pages/category/Malaysian-Restaurant/Restoran-Uncle-Rahmat-449575605125152/", "internet_access": "wlan", "name": "Uncle Rahmat", "opening_hours": "Mo-Su 08:00-04:00"}}, {"type": "node", "id": 4520032489, "lat": 3.1277159, "lon": 101.6875855, "tags": {"addr:housenumber": "116", "addr:street": "Jalan Berhala", "amenity": "restaurant", "diet:vegetarian": "yes", "level": "0", "name": "Annalakshmi Vegetarian", "name:en": "Annalakshmi Vegetarian", "opening_hours": "11:30-15:00,18:30-22:00; Mo off", "phone": "+60 32272 3799", "website": "https://annalakshmi.com.my/"}}, {"type": "node", "id": 4605428880, "lat": 3.1283109, "lon": 101.6793581, "tags": {"amenity": "restaurant", "name": "Churitto\u2019s"}}, {"type": "node", "id": 4625323943, "lat": 3.1288252, "lon": 101.6837454, "tags": {"addr:city": "Kuala Lumpur", "addr:postcode": "50470", "addr:street": "Jalan Tun Sambanthan", "addr:suburb": "Brickfields", "amenity": "restaurant", "cuisine": "indian", "level": "0", "name": "Seetharam"}}, {"type": "node", "id": 4635086188, "lat": 3.1310615, "lon": 101.670982, "tags": {"addr:city": "Kuala Lumpur", "addr:housenumber": "43", "addr:postcode": "59100", "addr:street": "Jalan Telawi 3", "amenity": "restaurant", "cuisine": "indian", "facebook": "https://www.facebook.com/pages/Nirwana-Banana-Leaf-Bangsar/260142737479106", "level": "0", "name": "Sri Nirwana Maju", "opening_hours": "10:00-02:00", "phone": "+60 32287 8445"}}, {"type": "node", "id": 4666427337, "lat": 3.1043413, "lon": 101.677697, "tags": {"addr:city": "Kuala Lumpur", "addr:place": "3rd Mile Square", "addr:street": "Jalan Klang Lama", "air_conditioning": "yes", "amenity": "restaurant", "diet:halal": "no", "diet:vegetarian": "no", "indoor_seating": "yes", "name": "Western 8", "name:en": "Western 8", "opening_hours": "Mo-Su,PH 12:30-22:00", "outdoor_seating": "yes"}}, {"type": "node", "id": 4666427350, "lat": 3.1085564, "lon": 101.678754, "tags": {"amenity": "restaurant", "name": "BBQ Thai", "name:en": "BBQ Thai"}}, {"type": "node", "id": 4668100972, "lat": 3.1064862, "lon": 101.6661587, "tags": {"addr:city": "Kuala Lumpur", "addr:street": "Jalan Pantai Murni", "amenity": "restaurant", "cuisine": "malay", "name": "Restoran Riang-Riang", "opening_hours": "24/7"}}, {"type": "node", "id": 4706489158, "lat": 3.1167205, "lon": 101.6696771, "tags": {"amenity": "restaurant", "name": "Ali Kafe Tom Yam Seafood"}}, {"type": "node", "id": 4706489160, "lat": 3.1166197, "lon": 101.668933, "tags": {"addr:city": "Kuala Lumpur", "addr:postcode": "59100", "addr:street": "Jalan Pantai Baharu", "amenity": "restaurant", "name": "Restoran Haslam", "name:ms": "Restoran Haslam"}}, {"type": "node", "id": 4706489173, "lat": 3.1164644, "lon": 101.667623, "tags": {"addr:city": "Kuala Lumpur", "addr:street": "Jalan Pantai Baharu", "amenity": "restaurant", "name": "The London Circle"}}, {"type": "node", "id": 4706505122, "lat": 3.1182812, "lon": 101.6650217, "tags": {"addr:city": "Kuala Lumpur", "addr:street": "Jalan Pantai Baharu", "amenity": "restaurant", "name": "Restoran Amjal", "name:ms": "Restoran Amjal"}}, {"type": "node", "id": 4745035497, "lat": 3.1069182, "lon": 101.669943, "tags": {"addr:city": "Kuala Lumpur", "addr:place": "Bazaria Pantai", "amenity": "restaurant", "cuisine": "malay", "name": "Warung Rindu"}}, {"type": "node", "id": 4769200890, "lat": 3.1302046, "lon": 101.6835888, "tags": {"addr:city": "Kuala Lumpur", "addr:street": "Jalan Rakyat", "addr:suburb": "Brickfields", "amenity": "restaurant", "cuisine": "indian", "name": "Restoran Aroma", "name:ms": "Restoran Aroma"}}, {"type": "node", "id": 4769200895, "lat": 3.1293643, "lon": 101.6843368, "tags": {"addr:city": "Kuala Lumpur", "addr:postcode": "50470", "addr:street": "Jalan Tun Sambanthan", "addr:suburb": "Brickfields", "amenity": "restaurant", "cuisine": "indian", "name": "Sri Paandi Curry House", "name:en": "Sri Paandi Curry House", "outdoor_seating": "yes"}}, {"type": "node", "id": 4769201076, "lat": 3.1280132, "lon": 101.6821762, "tags": {"addr:city": "Kuala Lumpur", "addr:street": "Lengkok Tun Sambanthan", "addr:suburb": "Brickfields", "amenity": "restaurant", "cuisine": "indian", "name": "Muna's Curry House", "name:en": "Muna's Curry House"}}, {"type": "node", "id": 4890441703, "lat": 3.1046209, "lon": 101.6699855}, {"type": "node", "id": 4890441704, "lat": 3.1047365, "lon": 101.670075}, {"type": "node", "id": 4894719022, "lat": 3.1185443, "lon": 101.6782036, "tags": {"amenity": "restaurant", "name": "Sushi Jiro", "name:en": "Sushi Jiro"}}, {"type": "node", "id": 4905574126, "lat": 3.1301021, "lon": 101.6709647, "tags": {"amenity": "restaurant", "name": "Guang"}}, {"type": "node", "id": 4929082023, "lat": 3.1299588, "lon": 101.683826, "tags": {"amenity": "restaurant", "diet:vegetarian": "yes", "name": "Gopala", "name:en": "Gopala"}}, {"type": "node", "id": 5081918496, "lat": 3.1283439, "lon": 101.6706188, "tags": {"addr:city": "Kuala Lumpur", "addr:housenumber": "21", "addr:postcode": "59100", "addr:street": "Lorong Ara Kiri 1", "amenity": "restaurant", "cuisine": "malaysian", "name": "Bala's Banana Leaf", "opening_hours": "Mo-Su 08:00-24:00", "takeaway": "yes"}}, {"type": "node", "id": 5105137225, "lat": 3.123682, "lon": 101.6896389, "tags": {"addr:street": "Lorong Yed Putra Kiri", "amenity": "restaurant", "cuisine": "chinese", "name": "Siu Siu Seputeh", "name:en": "Siu Siu Seputeh", "opening_hours": "Tu-Su 11:00-22:00"}}, {"type": "node", "id": 5113987122, "lat": 3.1308645, "lon": 101.6868947, "tags": {"amenity": "restaurant", "cuisine": "indian", "name": "Legend's Claypot Briyani House"}}, {"type": "node", "id": 5200291072, "lat": 3.1047307, "lon": 101.6699087}, {"type": "node", "id": 5200291073, "lat": 3.1045632, "lon": 101.6699168}, {"type": "node", "id": 5200291074, "lat": 3.1047307, "lon": 101.6699542}, {"type": "node", "id": 5200291077, "lat": 3.1046065, "lon": 101.6699147}, {"type": "node", "id": 5200291078, "lat": 3.1048623, "lon": 101.6699019}, {"type": "node", "id": 5200291079, "lat": 3.1048645, "lon": 101.6700246}, {"type": "node", "id": 5200291080, "lat": 3.104734, "lon": 101.6700228}, {"type": "node", "id": 5322030624, "lat": 3.1284293, "lon": 101.6703233, "tags": {"amenity": "restaurant", "cuisine": "indian", "name": "Mahbub"}}, {"type": "node", "id": 5426444621, "lat": 3.1274691, "lon": 101.6696593, "tags": {"addr:street": "Lrg Ara Kiri 2", "amenity": "restaurant", "cuisine": "japanese", "name": "Hana Tei"}}, {"type": "node", "id": 5596043628, "lat": 3.1243265, "lon": 101.6741824, "tags": {"addr:city": "Kuala Lumpur", "addr:housenumber": "29-05", "addr:street": "Jalan Riong", "amenity": "restaurant", "check_date": "2023-11-12", "cuisine": "breakfast", "level": "0", "name": "Breakfast Thieves APW Bangsar", "name:en": "Breakfast Thieves", "opening_hours": "Mo-Su 09:00-22:00", "outdoor_seating": "yes", "payment:cash": "yes", "payment:mastercard": "yes", "payment:visa": "yes", "smoking": "outside", "takeaway": "yes", "website": "https://breakfastthieves.com"}}, {"type": "node", "id": 5596215722, "lat": 3.1281002, "lon": 101.6689388, "tags": {"amenity": "restaurant", "cuisine": "asian", "name": "Yusuf Tom Yam"}}, {"type": "node", "id": 5661206235, "lat": 3.1296663, "lon": 101.6798655, "tags": {"amenity": "restaurant", "name": "Dr.inc", "name:en": "Dr.inc"}}, {"type": "node", "id": 5665424354, "lat": 3.1186986, "lon": 101.6771962}, {"type": "node", "id": 5729609521, "lat": 3.1293895, "lon": 101.6708975, "tags": {"amenity": "restaurant", "name": "Bistrot Benji\u2019s", "opening_hours": "Mo-Su 09:00-22:00"}}, {"type": "node", "id": 5793715353, "lat": 3.1224478, "lon": 101.6711392, "tags": {"amenity": "restaurant", "name": "N97"}}, {"type": "node", "id": 6067977585, "lat": 3.118256, "lon": 101.6765064, "tags": {"amenity": "restaurant", "name": "define:food"}}, {"type": "node", "id": 6067998287, "lat": 3.1186119, "lon": 101.6780282, "tags": {"addr:housenumber": "#l3", "amenity": "restaurant", "cuisine": "burger", "name": "NY Burger co"}}, {"type": "node", "id": 6139748110, "lat": 3.1258083, "lon": 101.6751925, "tags": {"amenity": "restaurant", "name": "La Juiceria Superfoods Signature", "name:en": "La Juiceria Superfoods Signature"}}, {"type": "node", "id": 6174784914, "lat": 3.1057306, "lon": 101.6780196, "tags": {"amenity": "restaurant", "name": "Masha Hir", "name:ms": "Masha Hir"}}, {"type": "node", "id": 6189843321, "lat": 3.1062494, "lon": 101.6789455, "tags": {"amenity": "restaurant", "cuisine": "japanese", "name": "Nihon Kai", "name:en": "Nihon Kai", "opening_hours": "12:00-15:00,18:00-22:00", "website": "https://www.nihonkaijapanese.com/"}}, {"type": "node", "id": 6195318770, "lat": 3.1096206, "lon": 101.6780243, "tags": {"amenity": "restaurant", "contact:website": "http://www.mitasu.com.my/", "cuisine": "japanese", "name": "Mitasu", "opening_hours": "12:00-15:00,18:00-22:00", "phone": "+60379718878"}}, {"type": "node", "id": 6197047195, "lat": 3.1041172, "lon": 101.6776145, "tags": {"amenity": "restaurant"}}, {"type": "node", "id": 6270038801, "lat": 3.1242996, "lon": 101.6849524, "tags": {"amenity": "restaurant", "name": "Robson Heights Seafood"}}, {"type": "node", "id": 7046708086, "lat": 3.1308115, "lon": 101.6855834, "tags": {"amenity": "restaurant", "cuisine": "indian", "diet:vegetarian": "yes", "name": "Agriya Bhavan"}}, {"type": "node", "id": 7455901127, "lat": 3.1069376, "lon": 101.6695734, "tags": {"addr:housenumber": "GM7.05 Pusat Perniagaan Bazaria Pantai Permai", "addr:street": "Jalan Pantai Permai 2", "amenity": "restaurant", "cuisine": "asian", "name": "Paya Goyang@Bazaria Nasi Lemak Hari Ini", "opening_hours": "Mo-Su 07:00-19:00", "phone": "+60196507118", "website": "https://www.payagoyang.com"}}, {"type": "node", "id": 7531256276, "lat": 3.1307986, "lon": 101.6709679, "tags": {"amenity": "restaurant", "cuisine": "spanish", "name": "Mercat Barcelona"}}, {"type": "node", "id": 7629145811, "lat": 3.1192049, "lon": 101.6756997, "tags": {"addr:city": "Kuala Lumpur", "addr:housenumber": "Lot T-201B", "addr:postcode": "59200", "addr:street": "The Gardens Mall, Lingkaran Syed Putra, Mid Valley City", "amenity": "restaurant", "brand": "Beauty In The Pot", "cuisine": "chinese;hotpot", "email": "bitpgardens@paradisefnb.com.my", "level": "3", "name": "Beauty In The Pot", "opening_hours": "Mo-Su 11:00-22:00", "phone": "+60322011366", "reservation": "yes", "website": "https://beautyinthepot.com.my/", "wheelchair": "yes"}}, {"type": "node", "id": 8281058528, "lat": 3.1251445, "lon": 101.673248}, {"type": "node", "id": 8281058529, "lat": 3.1248218, "lon": 101.6736638}, {"type": "node", "id": 8281058530, "lat": 3.1246812, "lon": 101.6735543}, {"type": "node", "id": 8281058531, "lat": 3.125004, "lon": 101.6731386}, {"type": "node", "id": 8342955148, "lat": 3.1301724, "lon": 101.6709718, "tags": {"amenity": "restaurant", "cuisine": "western", "level": "1", "name": "Roost", "opening_hours": "Mo-Su 11:30-23:30", "website": "https://www.roostkl.com/"}}, {"type": "node", "id": 8342955149, "lat": 3.1301931, "lon": 101.6709719, "tags": {"amenity": "restaurant", "level": "1", "name": "Mockingbird", "phone": "+60323800277", "website": "http://www.mockingbirdmy.com/"}}, {"type": "node", "id": 8342955151, "lat": 3.1302834, "lon": 101.670975, "tags": {"amenity": "restaurant", "cuisine": "seafood", "name": "Bait"}}, {"type": "node", "id": 8342955152, "lat": 3.1305602, "lon": 101.6709802, "tags": {"amenity": "restaurant", "name": "The Social @ Bangsar", "phone": "+60322822260", "website": "https://www.thesocial.com.my/"}}, {"type": "node", "id": 8541513557, "lat": 3.1118647, "lon": 101.6681588, "tags": {"amenity": "restaurant", "name": "Ayam Penyet Best Station"}}, {"type": "node", "id": 8541853924, "lat": 3.1103103, "lon": 101.6672534, "tags": {"amenity": "restaurant", "cuisine": "spanish", "level": "0", "name": "Buena Brasa", "name:en": "Buena Brasa", "opening_hours": "Mo-Su 12:00-22:00"}}, {"type": "node", "id": 8541853925, "lat": 3.1103529, "lon": 101.6670684, "tags": {"amenity": "restaurant", "level": "0", "name": "Tom, Dick & Harry's", "name:en": "Tom, Dick & Harry's", "opening_hours": "Mo-Su 11:00-01:00"}}, {"type": "node", "id": 8541853926, "lat": 3.1103448, "lon": 101.6674262, "tags": {"amenity": "restaurant", "level": "0", "name": "The Public House", "name:en": "The Public House", "opening_hours": "Mo-Su 12:00-23:00"}}, {"type": "node", "id": 8541853927, "lat": 3.1103874, "lon": 101.668099, "tags": {"amenity": "restaurant", "level": "0", "name": "The Farm Foodcraft", "name:en": "The Farm Foodcraft", "opening_hours": "Mo-Su 10:00-22:00", "phone": "+601151779618", "website": "https://thefarmfoodcraft.co/"}}, {"type": "node", "id": 8541853928, "lat": 3.1102384, "lon": 101.6678423, "tags": {"amenity": "restaurant", "cuisine": "vietnamese", "level": "0", "name": "Rasa Viet", "name:en": "Rasa Viet", "opening_hours": "Mo-Su 10:00-22:00", "phone": "+60322421880", "website": "https://www.rasaviet.com/"}}, {"type": "node", "id": 8541853929, "lat": 3.1103176, "lon": 101.6677333, "tags": {"amenity": "restaurant", "cuisine": "italian", "level": "0", "name": "Portofino", "name:en": "Portofino", "opening_hours": "Mo-Su 10:30-23:00", "phone": "+60166979741", "website": "https://www.portofino.my/"}}, {"type": "node", "id": 8541853930, "lat": 3.110342, "lon": 101.6676903, "tags": {"amenity": "restaurant", "level": "0", "name": "Five O'clock", "name:en": "Five O'clock", "opening_hours": "Mo-Su 09:30-23:00", "phone": "+60172181734", "website": "https://www.portofino.my/"}}, {"type": "node", "id": 8541853936, "lat": 3.1108775, "lon": 101.6677933, "tags": {"amenity": "restaurant", "name": "Nyonya Tingkat Signature", "name:en": "Nyonya Tingkat Signature", "opening_hours": "Mo-Su 08:00-22:00", "phone": "+60322422255", "website": "https://www.nyonyatingkat.com.my/"}}, {"type": "node", "id": 8541853937, "lat": 3.110851, "lon": 101.6679475, "tags": {"amenity": "restaurant", "cuisine": "dutch", "level": "0.5", "name": "Koffie Craft", "name:en": "Koffie Craft - Dutch Restaurant & Caf\u00e9", "opening_hours": "Mo-Su 10:00-22:00", "phone": "+60350332135", "website": "http://www.koffiecraft.com/"}}, {"type": "node", "id": 8541853938, "lat": 3.1108487, "lon": 101.6680451, "tags": {"amenity": "restaurant", "cuisine": "malaysian", "level": "0.5", "name": "Ali, Muthu & Ah Hock", "name:en": "Ali, Muthu & Ah Hock", "opening_hours": "Mo-Su 08:00-22:00", "outdoor_seating": "yes", "phone": "+601137655695"}}, {"type": "node", "id": 8541853939, "lat": 3.1108739, "lon": 101.6676682, "tags": {"amenity": "restaurant", "level": "0.5", "name": "Take A Bow"}}, {"type": "node", "id": 8541853941, "lat": 3.1108565, "lon": 101.6673566, "tags": {"amenity": "restaurant", "level": "0.5", "name": "Tonkatsu", "name:en": "Tonkatsu"}}, {"type": "node", "id": 8541853942, "lat": 3.110853, "lon": 101.6672054, "tags": {"amenity": "restaurant", "cuisine": "korean", "level": "0.5", "name": "Oiso", "name:en": "Oiso"}}, {"type": "node", "id": 8541853943, "lat": 3.1108552, "lon": 101.6671384, "tags": {"amenity": "restaurant", "level": "0.5", "name": "The Porki Culture", "name:en": "The Porki Culture"}}, {"type": "node", "id": 8541853944, "lat": 3.1108533, "lon": 101.6670454, "tags": {"amenity": "restaurant", "level": "0.5", "name": "Home Noodle", "name:en": "Home Noodle"}}, {"type": "node", "id": 8541853946, "lat": 3.1105639, "lon": 101.6676135, "tags": {"amenity": "restaurant", "cuisine": "chinese", "level": "1", "name": "Oriental Treasure", "name:en": "Oriental Treasure", "opening_hours": "Mo-Su 10:00-23:00", "phone": "+60322422382", "website": "https://www.orientalrestaurants.com.my/"}}, {"type": "node", "id": 9379549359, "lat": 3.1304832, "lon": 101.6718207, "tags": {"amenity": "restaurant", "branch": "Bangsar Village", "brand": "Haidilao Hot Pot", "brand:en": "Haidilao Hot Pot", "brand:wikidata": "Q5638920", "brand:wikipedia": "zh:\u6d77\u5e95\u635e", "brand:zh": "\u6d77\u5e95\u635e\u706b\u9505", "cuisine": "chinese;hot_pot", "name": "Haidilao Hot Pot", "name:en": "Haidilao Hot Pot", "name:zh": "\u6d77\u5e95\u635e\u706b\u9505", "name:zh-Hans": "\u6d77\u5e95\u635e\u706b\u9505", "name:zh-Hant": "\u6d77\u5e95\u6488\u706b\u934b"}}, {"type": "node", "id": 9695395305, "lat": 3.1280705, "lon": 101.6785915, "tags": {"addr:housenumber": "38", "addr:street": "Jalan Bangsar Utama 1", "amenity": "restaurant", "contact:facebook": "https://www.facebook.com/wokit.my/", "contact:instagram": "https://www.instagram.com/wokit.my/", "name": "Wok It", "name:en": "Wok It", "website": "https://wokit.my/"}}, {"type": "node", "id": 10041217038, "lat": 3.1281193, "lon": 101.6792333, "tags": {"addr:housenumber": "44", "addr:street": "Jalan Bangsar", "amenity": "restaurant", "name": "Nasi Kandar Rasmeena", "name:ms": "Nasi Kandar Rasmeena"}}, {"type": "node", "id": 10057933911, "lat": 3.127602, "lon": 101.677553, "tags": {"addr:housenumber": "10", "addr:street": "Jalan Bangsar Utama 1", "amenity": "restaurant", "name": "Fathima", "name:en": "Fathima"}}, {"type": "node", "id": 10130483722, "lat": 3.1306673, "lon": 101.6831676, "tags": {"amenity": "restaurant", "cuisine": "indian", "name": "Mamu Heritage", "name:en": "Mamu Heritage"}}, {"type": "node", "id": 10199618594, "lat": 3.1279701, "lon": 101.6705155, "tags": {"amenity": "restaurant", "cuisine": "italian", "name": "Portofino"}}, {"type": "node", "id": 10199618598, "lat": 3.1279979, "lon": 101.6703623, "tags": {"amenity": "restaurant", "diet:vegetarian": "yes", "name": "Simple Life"}}, {"type": "node", "id": 10199618603, "lat": 3.1280601, "lon": 101.6701122, "tags": {"amenity": "restaurant", "name": "Wurst"}}, {"type": "node", "id": 10199652295, "lat": 3.1274419, "lon": 101.6697857, "tags": {"amenity": "restaurant", "name": "Ombak Kitchen"}}, {"type": "node", "id": 10292741114, "lat": 3.1298101, "lon": 101.6805721, "tags": {"addr:housenumber": "3", "amenity": "restaurant", "name": "RK Nabilaa Maju", "name:en": "RK Nabilaa Maju"}}, {"type": "node", "id": 10777140157, "lat": 3.1107539, "lon": 101.666996, "tags": {"amenity": "restaurant", "cuisine": "indian", "level": "1", "name": "Khan\u2019s Indian Cuisine", "name:en": "Khan\u2019s Indian Cuisine", "opening_hours": "Mo-Su 12:00-22:00", "outdoor_seating": "yes", "phone": "+60397794998", "website": "https://khans.com.my/"}}, {"type": "node", "id": 10880788630, "lat": 3.1280026, "lon": 101.6832173, "tags": {"amenity": "restaurant", "name": "Nadia VegeCafe", "opening_hours": "Mo-Su 08:00-21:30,16:00-17:00"}}, {"type": "node", "id": 11043709851, "lat": 3.1296917, "lon": 101.6804609, "tags": {"amenity": "restaurant"}}, {"type": "node", "id": 11152407534, "lat": 3.110674, "lon": 101.6858189, "tags": {"amenity": "restaurant", "cuisine": "salad;burger;pizza;dessert;sausage", "name": "Red Kettle", "opening_hours": "Mo-Su 11:00-22:00", "phone": "+60379880801", "website": "https://www.redkettle.com.my/"}}, {"type": "node", "id": 11363945021, "lat": 3.1187331, "lon": 101.6772357, "tags": {"addr:city": "Kuala Lumpur", "addr:housenumber": "Lot LG-013, LG Floor, Mid Valley Megamall", "addr:postcode": "59200", "addr:street": "Linkaran Syed Putra", "air_conditioning": "yes", "amenity": "restaurant", "branch": "Mid Valley Megamall branch of Bean Jr.", "cuisine": "dessert;snack", "description": "Bean Jr. Australian Cake House might be a mouthful to say, but it is a combination of two delicious brands under one roof! Enjoy tasty soy-based desserts and drinks such as soya milk, soy tofu and soy bingsu from Bean Jr., while Australian Cake house brin", "name": "Bean Jr.", "opening_hours": "Mo-Su 10:00-22:00", "outdoor_seating": "no", "payment:cash": "yes", "payment:credit_cards": "yes", "payment:debit_cards": "yes", "website": "https://www.facebook.com/beanjrmy/"}}, {"type": "node", "id": 11370483549, "lat": 3.1248862, "lon": 101.6733235}, {"type": "node", "id": 11370483550, "lat": 3.1249262, "lon": 101.6733621}, {"type": "node", "id": 11370483551, "lat": 3.1248642, "lon": 101.6734504}, {"type": "node", "id": 11370483552, "lat": 3.1248031, "lon": 101.6733973}, {"type": "node", "id": 11370483553, "lat": 3.1248693, "lon": 101.6733116}, {"type": "node", "id": 11370496117, "lat": 3.1250164, "lon": 101.6733035}, {"type": "node", "id": 11370496118, "lat": 3.1249322, "lon": 101.6732304}, {"type": "node", "id": 11370496119, "lat": 3.1247582, "lon": 101.6734552}, {"type": "node", "id": 11370496120, "lat": 3.1248483, "lon": 101.6735285}, {"type": "node", "id": 11451776755, "lat": 3.1160763, "lon": 101.6686357, "tags": {"amenity": "restaurant", "name": "Pak Abu"}}, {"type": "node", "id": 11591293079, "lat": 3.1293032, "lon": 101.6843167, "tags": {"addr:city": "Kuala Lumpur", "addr:postcode": "50470", "addr:street": "Jalan Tun Sambanthan", "addr:suburb": "Brickfields", "amenity": "restaurant", "cuisine": "indian", "diet:vegetarian": "only", "level": "0", "name": "Adyar Ananda Bhavan", "short_name": "A2B", "wheelchair": "yes"}}, {"type": "node", "id": 11591307562, "lat": 3.1282737, "lon": 101.6834806, "tags": {"amenity": "restaurant", "cuisine": "indian", "name": "Nachiyar"}}, {"type": "node", "id": 11591333158, "lat": 3.1302663, "lon": 101.6852737, "tags": {"amenity": "restaurant", "name": "Amman Mess"}}, {"type": "node", "id": 11760216575, "lat": 3.1116142, "lon": 101.6681715, "tags": {"amenity": "restaurant", "name": "Umi Omakase"}}, {"type": "node", "id": 11787142229, "lat": 3.1279749, "lon": 101.6757555, "tags": {"amenity": "restaurant", "name": "Gravy Baby"}}, {"type": "node", "id": 11787142230, "lat": 3.127653, "lon": 101.676003, "tags": {"amenity": "restaurant", "name": "Sagar"}}, {"type": "node", "id": 11888447207, "lat": 3.128251, "lon": 101.6782608, "tags": {"amenity": "restaurant", "name": "Salam Noodles"}}, {"type": "node", "id": 11888447212, "lat": 3.128528, "lon": 101.6788837, "tags": {"amenity": "restaurant", "name": "Mithra\u2019s Spices"}}, {"type": "node", "id": 11921503736, "lat": 3.1106827, "lon": 101.6663335, "tags": {"amenity": "restaurant", "name": "Bo + co"}}, {"type": "node", "id": 11921503749, "lat": 3.1106999, "lon": 101.6662217, "tags": {"amenity": "restaurant", "name": "Botanica Deli"}}, {"type": "node", "id": 11962181693, "lat": 3.113248, "lon": 101.6654244, "tags": {"amenity": "restaurant", "name": "An Nam Lush"}}, {"type": "node", "id": 11991210031, "lat": 3.1131902, "lon": 101.6650507, "tags": {"amenity": "restaurant", "name": "Kubis & Kale"}}, {"type": "node", "id": 12076280967, "lat": 3.114366, "lon": 101.681943, "tags": {"amenity": "restaurant", "name": "Seputeh Corner"}}, {"type": "node", "id": 12076281205, "lat": 3.1143716, "lon": 101.6823923, "tags": {"addr:housenumber": "14", "amenity": "restaurant", "name": "Kedai Kopi Jaya"}}, {"type": "node", "id": 12096443110, "lat": 3.1168475, "lon": 101.6676358, "tags": {"amenity": "restaurant", "indoor_seating": "yes", "name": "Restoran Nabila Corner", "outdoor_seating": "no"}}, {"type": "node", "id": 12101772210, "lat": 3.129764, "lon": 101.6805386, "tags": {"addr:housenumber": "4", "amenity": "restaurant", "name": "Ayam Gepuk Pak Gembus"}}, {"type": "node", "id": 12112206621, "lat": 3.1151145, "lon": 101.6688026, "tags": {"amenity": "restaurant", "name": "Home Secrets Cafe"}}, {"type": "node", "id": 12112206625, "lat": 3.1151158, "lon": 101.6687632, "tags": {"amenity": "restaurant", "name": "Kafe Stars"}}, {"type": "node", "id": 12112206626, "lat": 3.1151351, "lon": 101.668386, "tags": {"amenity": "restaurant", "name": "The Servery"}}, {"type": "node", "id": 12126035262, "lat": 3.1099164, "lon": 101.6692811, "tags": {"amenity": "restaurant", "name": "Pantai Arj Sweet"}}, {"type": "node", "id": 12136026148, "lat": 3.1281293, "lon": 101.675612, "tags": {"amenity": "restaurant", "cuisine": "indian", "name": "Gajaa at 8", "opening_hours": "12:00-15:30,18:00-22:00", "phone": "+60322017369", "website": "https://gajaas.com/"}}, {"type": "node", "id": 12151024110, "lat": 3.1092764, "lon": 101.6690691, "tags": {"amenity": "restaurant"}}, {"type": "node", "id": 12173951847, "lat": 3.1163386, "lon": 101.6679441, "tags": {"amenity": "restaurant", "name": "Pak Ya"}}, {"type": "node", "id": 12183342937, "lat": 3.1090209, "lon": 101.6695942, "tags": {"amenity": "restaurant", "name": "Tip Top Chicken Chop"}}, {"type": "node", "id": 12215426883, "lat": 3.1098214, "lon": 101.6696288, "tags": {"amenity": "restaurant"}}, {"type": "node", "id": 12215426891, "lat": 3.109943, "lon": 101.6696696, "tags": {"amenity": "restaurant", "name": "Warung Kerinchi Nasi Campur"}}, {"type": "node", "id": 12218173327, "lat": 3.1097081, "lon": 101.6652971, "tags": {"amenity": "restaurant", "name": "Smores"}}, {"type": "node", "id": 12218173328, "lat": 3.1097002, "lon": 101.6649783, "tags": {"amenity": "restaurant", "cuisine": "japanese", "name": "Edo Ichi"}}, {"type": "node", "id": 12218173329, "lat": 3.1097111, "lon": 101.6651224, "tags": {"amenity": "restaurant", "name": "Si Si Nan Cun"}}, {"type": "node", "id": 12218173330, "lat": 3.1097075, "lon": 101.6656417, "tags": {"amenity": "restaurant", "name": "Hock Kee Kopitiam"}}, {"type": "node", "id": 12218173331, "lat": 3.1097156, "lon": 101.6652016, "tags": {"amenity": "restaurant", "cuisine": "japanese", "name": "Arigato"}}, {"type": "node", "id": 12237474629, "lat": 3.1050234, "lon": 101.6772944, "tags": {"air_conditioning": "no", "amenity": "restaurant", "diet:halal": "yes", "diet:vegan": "yes", "diet:vegetarian": "yes", "name": "Spicy Hub", "opening_hours": "Mo-Su 07:00-23:00", "payment:credit_cards": "no", "payment:debit_cards": "no"}}, {"type": "node", "id": 12237474671, "lat": 3.1127494, "lon": 101.6782323, "tags": {"amenity": "restaurant", "cuisine": "chinese", "name": "Youmiqi Cuisine", "phone": "+60146807866", "website": "https://www.youmiqi.com.my/"}}, {"type": "node", "id": 12277980978, "lat": 3.1093751, "lon": 101.6704531, "tags": {"amenity": "restaurant"}}, {"type": "node", "id": 12277980984, "lat": 3.1090454, "lon": 101.6703104, "tags": {"amenity": "restaurant", "name": "Tom Yam Mek"}}, {"type": "node", "id": 12320001422, "lat": 3.1076813, "lon": 101.671836, "tags": {"amenity": "restaurant", "name": "ATF Tomyam"}}, {"type": "node", "id": 12446094393, "lat": 3.1067069, "lon": 101.6786604, "tags": {"amenity": "restaurant", "cuisine": "chinese", "name": "Kedai Kopi Tai Choong"}}, {"type": "node", "id": 12497709766, "lat": 3.1187314, "lon": 101.6772123}, {"type": "node", "id": 12497709767, "lat": 3.1187115, "lon": 101.6772551}, {"type": "node", "id": 12497709768, "lat": 3.1186778, "lon": 101.6772378}, {"type": "node", "id": 12497709769, "lat": 3.1187163, "lon": 101.6772049}, {"type": "node", "id": 12736358709, "lat": 3.1097036, "lon": 101.6657171, "tags": {"amenity": "restaurant", "name": "Dulce Vida"}}, {"type": "node", "id": 12945120333, "lat": 3.1104148, "lon": 101.6779475, "tags": {"addr:city": "Kuala Lumpur", "addr:housenumber": "97", "addr:postcode": "58200", "addr:street": "Jalan Klang Lama", "amenity": "restaurant", "cuisine": "chinese", "diet:halal": "no", "name": "Restoran Meng Kee", "opening_hours": "Mo-Su 11:30-14:30, 17:30-21:00", "phone": "+60 12-962 2873"}}, {"type": "node", "id": 12945120336, "lat": 3.1107556, "lon": 101.6779283, "tags": {"addr:housenumber": "85", "amenity": "restaurant", "branch": "08", "cuisine": "hot_pot", "diet:halal": "no", "diet:pork": "yes", "name": "Ditan Hot Pot", "name:zh": "\u5730\u644a\u706b\u9505"}}, {"type": "node", "id": 13030777958, "lat": 3.1107199, "lon": 101.6678441, "tags": {"amenity": "restaurant", "name": "Salad Atelier"}}, {"type": "node", "id": 13043129941, "lat": 3.1286395, "lon": 101.6692782, "tags": {"amenity": "restaurant", "cuisine": "indian", "facebook": "https://www.facebook.com/Devis-Corner-Bangsar-342403085762/", "level": "1", "name": "Devi's Corner", "opening_hours": "24/7", "phone": "+60 12267 6714"}}, {"type": "node", "id": 13056381560, "lat": 3.126603, "lon": 101.6754379, "tags": {"amenity": "restaurant", "level": "1", "name": "Clover"}}, {"type": "node", "id": 13271737801, "lat": 3.1282448, "lon": 101.6831234, "tags": {"amenity": "restaurant", "name": "Chat Masala"}}, {"type": "node", "id": 13306075213, "lat": 3.1106555, "lon": 101.667165, "tags": {"addr:unit": "1-6", "amenity": "restaurant", "diet:organic": "yes", "level": "1", "name": "Agrain", "opening_hours": "11:00-15:30,17:00-21:00", "phone": "+60126805950"}}, {"type": "way", "id": 536931435, "nodes": [5200291072, 5200291077, 5200291073, 4890441703, 4890441704, 5200291080, 5200291074, 5200291072], "tags": {"addr:city": "Kuala Lumpur", "addr:place": "Pantai Dalam", "amenity": "restaurant", "building": "yes", "cuisine": "malay", "name": "Restoran Nasi Ayam Pak Ayop", "name:ms": "Restoran Nasi Ayam Pak Ayop"}}, {"type": "way", "id": 536931437, "nodes": [5200291072, 5200291078, 5200291079, 5200291080, 5200291072], "tags": {"addr:city": "Kuala Lumpur", "addr:place": "Pantai Dalam", "amenity": "restaurant", "building": "yes", "cuisine": "malay", "name": "Restoran Asam Pedas Melaka Pak Kasim", "name:ms": "Restoran Asam Pedas Melaka Pak Kasim"}}, {"type": "way", "id": 890986895, "nodes": [8281058531, 8281058528, 8281058529, 8281058530, 11370496119, 11370483552, 11370483553, 11370496118, 8281058531], "tags": {"amenity": "restaurant", "building": "yes", "building:levels": "4"}}, {"type": "way", "id": 1226132068, "nodes": [11370483549, 11370483550, 11370483551, 11370483552, 11370483553, 11370483549], "tags": {"addr:city": "Kuala Lumpur", "addr:postcode": "59100", "addr:street": "Jalan Tandok", "amenity": "restaurant", "building:part": "yes", "cuisine": "chinese;malaysian;indian;indonesian", "name": "Uncle Lim Delivery Bangsar", "website": "www.unclelimdelivery.com"}}, {"type": "way", "id": 1226133782, "nodes": [11370496117, 11370496118, 11370483553, 11370483552, 11370496119, 11370496120, 11370496117], "tags": {"addr:city": "Kuala Lumpur", "addr:postcode": "59100", "addr:street": "Jalan Tandok", "amenity": "restaurant", "building:part": "yes", "name": "Kitchen Co (Bangsar)"}}, {"type": "way", "id": 1350868037, "nodes": [12497709766, 12497709767, 12497709768, 5665424354, 12497709769, 12497709766], "tags": {"addr:city": "Kuala Lumpur", "addr:housenumber": "Lot G(E)-12", "addr:postcode": "59200", "addr:street": "Mid Valley Megamall", "air_conditioning": "yes", "amenity": "restaurant", "building:part": "yes", "cuisine": "mexican;tex-mex", "diet:meat": "yes", "name": "Chili's Grill & Bar", "opening_hours": "11:00-23:00", "phone": "+60322876788", "website": "https://chilis.com.my/"}}]}